{
"type": "FeatureCollection",
"name": "Area_Features",
"crs": { "type": "name", "properties": { "name": "urn:ogc:def:crs:OGC:1.3:CRS84" } },
"features": [
{ "type": "Feature", "properties": { "Name": null, "description": "L00", "timestamp": null, "begin": null, "end": null, "altitudeMode": null, "tessellate": -1, "extrude": 1, "visibility": -1, "drawOrder": null, "icon": null }, "geometry": { "type": "Polygon", "coordinates": [ [ [ 78.236860557, 15.652409334, 0.0 ], [ 78.238424463, 15.652371306, 0.0 ], [ 78.238538427, 15.652792391, 0.0 ], [ 78.238949094, 15.654869253, 0.0 ], [ 78.239015336, 15.65589422, 0.0 ], [ 78.238202745, 15.65611214, 0.0 ], [ 78.237285598, 15.656378689, 0.0 ], [ 78.235998375, 15.656730173, 0.0 ], [ 78.235430066, 15.655118086, 0.0 ], [ 78.23536158, 15.65518877, 0.0 ], [ 78.234713353, 15.653979039, 0.0 ], [ 78.234319618, 15.654112204, 0.0 ], [ 78.233697633, 15.653200594, 0.0 ], [ 78.233036961, 15.652226903, 0.0 ], [ 78.232044441, 15.652596518, 0.0 ], [ 78.231614435, 15.652751739, 0.0 ], [ 78.231226172, 15.652045015, 0.0 ], [ 78.230865726, 15.650556319, 0.0 ], [ 78.231611045, 15.65045023, 0.0 ], [ 78.232545896, 15.650307615, 0.0 ], [ 78.232716627, 15.650511779, 0.0 ], [ 78.233070444, 15.651593346, 0.0 ], [ 78.233198728, 15.651585198, 0.0 ], [ 78.233280855, 15.651600267, 0.0 ], [ 78.233439438, 15.65159115, 0.0 ], [ 78.234544759, 15.65144709, 0.0 ], [ 78.234599708, 15.651586729, 0.0 ], [ 78.234890537, 15.651561134, 0.0 ], [ 78.235072781, 15.652238977, 0.0 ], [ 78.235097833, 15.652408509, 0.0 ], [ 78.236206176, 15.65236069, 0.0 ], [ 78.236764516, 15.651938066, 0.0 ], [ 78.236860557, 15.652409334, 0.0 ] ] ] } },
{ "type": "Feature", "properties": { "Name": null, "description": "L00", "timestamp": null, "begin": null, "end": null, "altitudeMode": null, "tessellate": -1, "extrude": 1, "visibility": -1, "drawOrder": null, "icon": null }, "geometry": { "type": "Polygon", "coordinates": [ [ [ 78.218165599, 15.680471162, 0.0 ], [ 78.219015866, 15.679898904, 0.0 ], [ 78.21893981, 15.679632707, 0.0 ], [ 78.219999844, 15.67935225, 0.0 ], [ 78.221031356, 15.679732531, 0.0 ], [ 78.221449666, 15.679395032, 0.0 ], [ 78.222947022, 15.67839204, 0.0 ], [ 78.224496668, 15.677726548, 0.0 ], [ 78.224691562, 15.678344505, 0.0 ], [ 78.226816383, 15.677726548, 0.0 ], [ 78.229307224, 15.676034297, 0.0 ], [ 78.230543137, 15.674760356, 0.0 ], [ 78.231643025, 15.674934858, 0.0 ], [ 78.231631692, 15.674931482, 0.0 ], [ 78.232263909, 15.674717574, 0.0 ], [ 78.235110538, 15.673915675, 0.0 ], [ 78.234674254, 15.674768008, 0.0 ], [ 78.234674296, 15.674767881, 0.0 ], [ 78.235620792, 15.674378867, 0.0 ], [ 78.235742695, 15.674339746, 0.0 ], [ 78.236168826, 15.674236984, 0.0 ], [ 78.237363344, 15.67379814, 0.0 ], [ 78.240873911, 15.672217121, 0.0 ], [ 78.240815152, 15.671645161, 0.0 ], [ 78.240992482, 15.671640055, 0.0 ], [ 78.241288343, 15.671631538, 0.0 ], [ 78.241704581, 15.671426234, 0.0 ], [ 78.242120819, 15.671220931, 0.0 ], [ 78.242813138, 15.671254178, 0.0 ], [ 78.242913525, 15.671986253, 0.0 ], [ 78.244855156, 15.670983413, 0.0 ], [ 78.245397071, 15.67065003, 0.0 ], [ 78.249281889, 15.669856783, 0.0 ], [ 78.249345965, 15.669857857, 0.0 ], [ 78.249992182, 15.672617918, 0.0 ], [ 78.250633386, 15.67243468, 0.0 ], [ 78.251541099, 15.672216674, 0.0 ], [ 78.252471253, 15.671995864, 0.0 ], [ 78.253775323, 15.671670372, 0.0 ], [ 78.253410987, 15.669521346, 0.0 ], [ 78.253907658, 15.669417454, 0.0 ], [ 78.254270514, 15.67062554, 0.0 ], [ 78.256909828, 15.670870463, 0.0 ], [ 78.257134294, 15.670163708, 0.0 ], [ 78.257134294, 15.670163708, 0.0 ], [ 78.257134949, 15.67016008, 0.0 ], [ 78.257135582, 15.670156448, 0.0 ], [ 78.257136192, 15.670152812, 0.0 ], [ 78.257136779, 15.670149172, 0.0 ], [ 78.257137343, 15.670145529, 0.0 ], [ 78.257137885, 15.670141882, 0.0 ], [ 78.257138405, 15.670138232, 0.0 ], [ 78.257138901, 15.670134579, 0.0 ], [ 78.257139375, 15.670130922, 0.0 ], [ 78.257139825, 15.670127263, 0.0 ], [ 78.257140253, 15.670123601, 0.0 ], [ 78.257140659, 15.670119937, 0.0 ], [ 78.257141041, 15.67011627, 0.0 ], [ 78.2571414, 15.670112601, 0.0 ], [ 78.257141737, 15.670108929, 0.0 ], [ 78.257142051, 15.670105256, 0.0 ], [ 78.257142342, 15.670101581, 0.0 ], [ 78.25714261, 15.670097904, 0.0 ], [ 78.257142855, 15.670094225, 0.0 ], [ 78.257143077, 15.670090545, 0.0 ], [ 78.257143276, 15.670086864, 0.0 ], [ 78.257143452, 15.670083181, 0.0 ], [ 78.257143605, 15.670079497, 0.0 ], [ 78.257143735, 15.670075813, 0.0 ], [ 78.257143843, 15.670072128, 0.0 ], [ 78.257143927, 15.670068442, 0.0 ], [ 78.257143988, 15.670064756, 0.0 ], [ 78.257144027, 15.670061069, 0.0 ], [ 78.257144042, 15.670057382, 0.0 ], [ 78.257144035, 15.670053695, 0.0 ], [ 78.257144004, 15.670050009, 0.0 ], [ 78.25714395, 15.670046322, 0.0 ], [ 78.257143874, 15.670042636, 0.0 ], [ 78.257143775, 15.670038951, 0.0 ], [ 78.257143652, 15.670035266, 0.0 ], [ 78.257143507, 15.670031582, 0.0 ], [ 78.257143338, 15.670027899, 0.0 ], [ 78.257143147, 15.670024217, 0.0 ], [ 78.257142933, 15.670020537, 0.0 ], [ 78.257142696, 15.670016858, 0.0 ], [ 78.257142436, 15.67001318, 0.0 ], [ 78.257142152, 15.670009504, 0.0 ], [ 78.257141847, 15.67000583, 0.0 ], [ 78.257141518, 15.670002158, 0.0 ], [ 78.257141166, 15.669998488, 0.0 ], [ 78.257140792, 15.66999482, 0.0 ], [ 78.257140394, 15.669991155, 0.0 ], [ 78.257139974, 15.669987492, 0.0 ], [ 78.257139531, 15.669983832, 0.0 ], [ 78.257139065, 15.669980175, 0.0 ], [ 78.257138576, 15.669976521, 0.0 ], [ 78.257138065, 15.66997287, 0.0 ], [ 78.257137531, 15.669969222, 0.0 ], [ 78.257136974, 15.669965577, 0.0 ], [ 78.257136394, 15.669961936, 0.0 ], [ 78.257135792, 15.669958299, 0.0 ], [ 78.257135167, 15.669954665, 0.0 ], [ 78.25713452, 15.669951036, 0.0 ], [ 78.257133849, 15.669947411, 0.0 ], [ 78.257133157, 15.66994379, 0.0 ], [ 78.257132441, 15.669940173, 0.0 ], [ 78.257131704, 15.669936561, 0.0 ], [ 78.257130943, 15.669932953, 0.0 ], [ 78.25713016, 15.66992935, 0.0 ], [ 78.257129355, 15.669925753, 0.0 ], [ 78.257128528, 15.66992216, 0.0 ], [ 78.257127678, 15.669918572, 0.0 ], [ 78.257126805, 15.66991499, 0.0 ], [ 78.257125911, 15.669911414, 0.0 ], [ 78.257124994, 15.669907843, 0.0 ], [ 78.257124055, 15.669904278, 0.0 ], [ 78.257123093, 15.669900718, 0.0 ], [ 78.25712211, 15.669897165, 0.0 ], [ 78.257121104, 15.669893618, 0.0 ], [ 78.257120076, 15.669890078, 0.0 ], [ 78.257119026, 15.669886543, 0.0 ], [ 78.257117955, 15.669883016, 0.0 ], [ 78.257116861, 15.669879495, 0.0 ], [ 78.257115745, 15.669875981, 0.0 ], [ 78.257114608, 15.669872474, 0.0 ], [ 78.257113448, 15.669868974, 0.0 ], [ 78.257112267, 15.669865482, 0.0 ], [ 78.257111064, 15.669861997, 0.0 ], [ 78.25710984, 15.669858519, 0.0 ], [ 78.257108593, 15.66985505, 0.0 ], [ 78.257107326, 15.669851588, 0.0 ], [ 78.257106036, 15.669848134, 0.0 ], [ 78.257104725, 15.669844688, 0.0 ], [ 78.257103393, 15.66984125, 0.0 ], [ 78.257102039, 15.669837821, 0.0 ], [ 78.257100664, 15.6698344, 0.0 ], [ 78.257099268, 15.669830988, 0.0 ], [ 78.25709785, 15.669827585, 0.0 ], [ 78.257096411, 15.66982419, 0.0 ], [ 78.257094951, 15.669820805, 0.0 ], [ 78.25709347, 15.669817429, 0.0 ], [ 78.257091968, 15.669814062, 0.0 ], [ 78.257090445, 15.669810704, 0.0 ], [ 78.257088901, 15.669807356, 0.0 ], [ 78.257087337, 15.669804018, 0.0 ], [ 78.257085751, 15.66980069, 0.0 ], [ 78.257084145, 15.669797371, 0.0 ], [ 78.257082518, 15.669794063, 0.0 ], [ 78.257080871, 15.669790764, 0.0 ], [ 78.257079203, 15.669787476, 0.0 ], [ 78.257077514, 15.669784199, 0.0 ], [ 78.257075805, 15.669780932, 0.0 ], [ 78.257074076, 15.669777676, 0.0 ], [ 78.257072327, 15.669774431, 0.0 ], [ 78.257070557, 15.669771196, 0.0 ], [ 78.257068768, 15.669767973, 0.0 ], [ 78.257066958, 15.669764761, 0.0 ], [ 78.257065128, 15.66976156, 0.0 ], [ 78.257063278, 15.669758371, 0.0 ], [ 78.257061409, 15.669755193, 0.0 ], [ 78.25705952, 15.669752028, 0.0 ], [ 78.257057611, 15.669748873, 0.0 ], [ 78.257055682, 15.669745731, 0.0 ], [ 78.257053734, 15.669742601, 0.0 ], [ 78.257051766, 15.669739483, 0.0 ], [ 78.257049779, 15.669736378, 0.0 ], [ 78.257047773, 15.669733285, 0.0 ], [ 78.257045748, 15.669730204, 0.0 ], [ 78.257043703, 15.669727136, 0.0 ], [ 78.257041639, 15.669724081, 0.0 ], [ 78.257039556, 15.669721039, 0.0 ], [ 78.257037455, 15.66971801, 0.0 ], [ 78.257035334, 15.669714994, 0.0 ], [ 78.257033195, 15.669711992, 0.0 ], [ 78.257031037, 15.669709002, 0.0 ], [ 78.25702886, 15.669706027, 0.0 ], [ 78.257026665, 15.669703065, 0.0 ], [ 78.257024452, 15.669700116, 0.0 ], [ 78.25702222, 15.669697182, 0.0 ], [ 78.25701997, 15.669694261, 0.0 ], [ 78.257017702, 15.669691355, 0.0 ], [ 78.257015415, 15.669688462, 0.0 ], [ 78.257013111, 15.669685584, 0.0 ], [ 78.257010789, 15.669682721, 0.0 ], [ 78.257008449, 15.669679872, 0.0 ], [ 78.257006091, 15.669677037, 0.0 ], [ 78.257003716, 15.669674218, 0.0 ], [ 78.257001323, 15.669671413, 0.0 ], [ 78.256998913, 15.669668623, 0.0 ], [ 78.256996486, 15.669665848, 0.0 ], [ 78.256994041, 15.669663089, 0.0 ], [ 78.256991579, 15.669660344, 0.0 ], [ 78.2569891, 15.669657615, 0.0 ], [ 78.256986604, 15.669654902, 0.0 ], [ 78.256984091, 15.669652204, 0.0 ], [ 78.256981561, 15.669649522, 0.0 ], [ 78.256979015, 15.669646856, 0.0 ], [ 78.256976452, 15.669644206, 0.0 ], [ 78.256973873, 15.669641571, 0.0 ], [ 78.256971277, 15.669638953, 0.0 ], [ 78.256968665, 15.669636351, 0.0 ], [ 78.256966037, 15.669633766, 0.0 ], [ 78.256963393, 15.669631196, 0.0 ], [ 78.256960733, 15.669628644, 0.0 ], [ 78.256958057, 15.669626108, 0.0 ], [ 78.256955365, 15.669623588, 0.0 ], [ 78.256952658, 15.669621086, 0.0 ], [ 78.256949935, 15.6696186, 0.0 ], [ 78.256947196, 15.669616132, 0.0 ], [ 78.256944443, 15.66961368, 0.0 ], [ 78.256941674, 15.669611246, 0.0 ], [ 78.25693889, 15.669608829, 0.0 ], [ 78.256936091, 15.66960643, 0.0 ], [ 78.256933277, 15.669604048, 0.0 ], [ 78.256930448, 15.669601683, 0.0 ], [ 78.256927605, 15.669599336, 0.0 ], [ 78.256924747, 15.669597007, 0.0 ], [ 78.256921874, 15.669594696, 0.0 ], [ 78.256918987, 15.669592403, 0.0 ], [ 78.256916086, 15.669590128, 0.0 ], [ 78.256913171, 15.669587871, 0.0 ], [ 78.256910242, 15.669585632, 0.0 ], [ 78.256907299, 15.669583411, 0.0 ], [ 78.256904342, 15.669581209, 0.0 ], [ 78.256901371, 15.669579026, 0.0 ], [ 78.256901371, 15.669579026, 0.0 ], [ 78.255209121, 15.667188008, 0.0 ], [ 78.255209121, 15.667188008, 0.0 ], [ 78.255206208, 15.667184596, 0.0 ], [ 78.255203303, 15.667181178, 0.0 ], [ 78.255200405, 15.667177753, 0.0 ], [ 78.255197515, 15.667174322, 0.0 ], [ 78.255194632, 15.667170885, 0.0 ], [ 78.255191756, 15.667167442, 0.0 ], [ 78.255188888, 15.667163993, 0.0 ], [ 78.255186027, 15.667160537, 0.0 ], [ 78.255183174, 15.667157075, 0.0 ], [ 78.255180328, 15.667153607, 0.0 ], [ 78.25517749, 15.667150133, 0.0 ], [ 78.255174659, 15.667146653, 0.0 ], [ 78.255171836, 15.667143167, 0.0 ], [ 78.25516902, 15.667139675, 0.0 ], [ 78.255166211, 15.667136177, 0.0 ], [ 78.25516341, 15.667132672, 0.0 ], [ 78.255160617, 15.667129162, 0.0 ], [ 78.255157831, 15.667125646, 0.0 ], [ 78.255155053, 15.667122123, 0.0 ], [ 78.255152283, 15.667118595, 0.0 ], [ 78.25514952, 15.667115061, 0.0 ], [ 78.255146764, 15.667111521, 0.0 ], [ 78.255144017, 15.667107975, 0.0 ], [ 78.255141276, 15.667104423, 0.0 ], [ 78.255138544, 15.667100865, 0.0 ], [ 78.255135819, 15.667097301, 0.0 ], [ 78.255133102, 15.667093731, 0.0 ], [ 78.255130393, 15.667090156, 0.0 ], [ 78.255127691, 15.667086575, 0.0 ], [ 78.255124997, 15.667082988, 0.0 ], [ 78.25512231, 15.667079395, 0.0 ], [ 78.255119632, 15.667075796, 0.0 ], [ 78.255116961, 15.667072192, 0.0 ], [ 78.255114298, 15.667068582, 0.0 ], [ 78.255111643, 15.667064966, 0.0 ], [ 78.255108995, 15.667061344, 0.0 ], [ 78.255106355, 15.667057717, 0.0 ], [ 78.255103724, 15.667054084, 0.0 ], [ 78.2551011, 15.667050446, 0.0 ], [ 78.255098483, 15.667046801, 0.0 ], [ 78.255095875, 15.667043152, 0.0 ], [ 78.255093274, 15.667039496, 0.0 ], [ 78.255090682, 15.667035835, 0.0 ], [ 78.255088097, 15.667032169, 0.0 ], [ 78.25508552, 15.667028496, 0.0 ], [ 78.255082951, 15.667024819, 0.0 ], [ 78.25508039, 15.667021136, 0.0 ], [ 78.255077837, 15.667017447, 0.0 ], [ 78.255075292, 15.667013753, 0.0 ], [ 78.255072754, 15.667010053, 0.0 ], [ 78.255070225, 15.667006348, 0.0 ], [ 78.255067704, 15.667002638, 0.0 ], [ 78.25506519, 15.666998922, 0.0 ], [ 78.255062685, 15.6669952, 0.0 ], [ 78.255060188, 15.666991474, 0.0 ], [ 78.255057699, 15.666987742, 0.0 ], [ 78.255055217, 15.666984004, 0.0 ], [ 78.255052744, 15.666980261, 0.0 ], [ 78.255050279, 15.666976513, 0.0 ], [ 78.255047822, 15.66697276, 0.0 ], [ 78.255045373, 15.666969001, 0.0 ], [ 78.255042932, 15.666965237, 0.0 ], [ 78.255040499, 15.666961468, 0.0 ], [ 78.255038075, 15.666957694, 0.0 ], [ 78.255035658, 15.666953914, 0.0 ], [ 78.25503325, 15.66695013, 0.0 ], [ 78.255030849, 15.66694634, 0.0 ], [ 78.255028457, 15.666942544, 0.0 ], [ 78.255026073, 15.666938744, 0.0 ], [ 78.255023698, 15.666934939, 0.0 ], [ 78.25502133, 15.666931128, 0.0 ], [ 78.255018971, 15.666927313, 0.0 ], [ 78.25501662, 15.666923492, 0.0 ], [ 78.255014277, 15.666919667, 0.0 ], [ 78.255011942, 15.666915836, 0.0 ], [ 78.255009616, 15.666912, 0.0 ], [ 78.255007297, 15.66690816, 0.0 ], [ 78.255004988, 15.666904314, 0.0 ], [ 78.255002686, 15.666900463, 0.0 ], [ 78.255000393, 15.666896608, 0.0 ], [ 78.254998108, 15.666892747, 0.0 ], [ 78.254995831, 15.666888882, 0.0 ], [ 78.254993562, 15.666885011, 0.0 ], [ 78.254991302, 15.666881136, 0.0 ], [ 78.254989051, 15.666877256, 0.0 ], [ 78.254986807, 15.666873371, 0.0 ], [ 78.254984572, 15.666869482, 0.0 ], [ 78.254982346, 15.666865587, 0.0 ], [ 78.254980127, 15.666861688, 0.0 ], [ 78.254977918, 15.666857784, 0.0 ], [ 78.254975716, 15.666853875, 0.0 ], [ 78.254973523, 15.666849962, 0.0 ], [ 78.254971338, 15.666846043, 0.0 ], [ 78.254969162, 15.666842121, 0.0 ], [ 78.254966995, 15.666838193, 0.0 ], [ 78.254964835, 15.666834261, 0.0 ], [ 78.254962684, 15.666830324, 0.0 ], [ 78.254960542, 15.666826382, 0.0 ], [ 78.254958408, 15.666822436, 0.0 ], [ 78.254956283, 15.666818486, 0.0 ], [ 78.254954166, 15.66681453, 0.0 ], [ 78.254952058, 15.666810571, 0.0 ], [ 78.254949958, 15.666806606, 0.0 ], [ 78.254947867, 15.666802638, 0.0 ], [ 78.254945784, 15.666798664, 0.0 ], [ 78.25494371, 15.666794686, 0.0 ], [ 78.254941644, 15.666790704, 0.0 ], [ 78.254939587, 15.666786718, 0.0 ], [ 78.254937539, 15.666782727, 0.0 ], [ 78.254935499, 15.666778731, 0.0 ], [ 78.254933467, 15.666774731, 0.0 ], [ 78.254931445, 15.666770727, 0.0 ], [ 78.254929431, 15.666766718, 0.0 ], [ 78.254927425, 15.666762706, 0.0 ], [ 78.254925429, 15.666758688, 0.0 ], [ 78.25492344, 15.666754667, 0.0 ], [ 78.254921461, 15.666750641, 0.0 ], [ 78.25491949, 15.666746611, 0.0 ], [ 78.254917528, 15.666742577, 0.0 ], [ 78.254915575, 15.666738539, 0.0 ], [ 78.25491363, 15.666734496, 0.0 ], [ 78.254911694, 15.666730449, 0.0 ], [ 78.254909766, 15.666726398, 0.0 ], [ 78.254907848, 15.666722343, 0.0 ], [ 78.254905938, 15.666718284, 0.0 ], [ 78.254904037, 15.666714221, 0.0 ], [ 78.254902144, 15.666710153, 0.0 ], [ 78.254900261, 15.666706082, 0.0 ], [ 78.254898386, 15.666702006, 0.0 ], [ 78.25489652, 15.666697927, 0.0 ], [ 78.254894662, 15.666693843, 0.0 ], [ 78.254892814, 15.666689756, 0.0 ], [ 78.254890974, 15.666685664, 0.0 ], [ 78.254889143, 15.666681569, 0.0 ], [ 78.254887321, 15.666677469, 0.0 ], [ 78.254885508, 15.666673366, 0.0 ], [ 78.254883703, 15.666669259, 0.0 ], [ 78.254881908, 15.666665148, 0.0 ], [ 78.254880121, 15.666661033, 0.0 ], [ 78.254878343, 15.666656914, 0.0 ], [ 78.254876574, 15.666652792, 0.0 ], [ 78.254874814, 15.666648665, 0.0 ], [ 78.254873062, 15.666644535, 0.0 ], [ 78.25487132, 15.666640401, 0.0 ], [ 78.254869586, 15.666636264, 0.0 ], [ 78.254867862, 15.666632122, 0.0 ], [ 78.254866146, 15.666627977, 0.0 ], [ 78.254864439, 15.666623829, 0.0 ], [ 78.254862742, 15.666619676, 0.0 ], [ 78.254861053, 15.66661552, 0.0 ], [ 78.254859373, 15.666611361, 0.0 ], [ 78.254857702, 15.666607197, 0.0 ], [ 78.25485604, 15.666603031, 0.0 ], [ 78.254854387, 15.66659886, 0.0 ], [ 78.254852742, 15.666594686, 0.0 ], [ 78.254851107, 15.666590509, 0.0 ], [ 78.254849481, 15.666586328, 0.0 ], [ 78.254847864, 15.666582143, 0.0 ], [ 78.254846256, 15.666577955, 0.0 ], [ 78.254844657, 15.666573764, 0.0 ], [ 78.254843067, 15.666569569, 0.0 ], [ 78.254841486, 15.666565371, 0.0 ], [ 78.254839914, 15.666561169, 0.0 ], [ 78.254838351, 15.666556964, 0.0 ], [ 78.254836797, 15.666552756, 0.0 ], [ 78.254835252, 15.666548544, 0.0 ], [ 78.254833716, 15.666544329, 0.0 ], [ 78.254832189, 15.666540111, 0.0 ], [ 78.254830672, 15.666535889, 0.0 ], [ 78.254829163, 15.666531665, 0.0 ], [ 78.254827664, 15.666527437, 0.0 ], [ 78.254826173, 15.666523205, 0.0 ], [ 78.254824692, 15.666518971, 0.0 ], [ 78.25482322, 15.666514733, 0.0 ], [ 78.254821757, 15.666510492, 0.0 ], [ 78.254820303, 15.666506248, 0.0 ], [ 78.254818858, 15.666502001, 0.0 ], [ 78.254817423, 15.666497751, 0.0 ], [ 78.254815996, 15.666493498, 0.0 ], [ 78.254814579, 15.666489242, 0.0 ], [ 78.254814579, 15.666489242, 0.0 ], [ 78.254814579, 15.666489242, 0.0 ], [ 78.254814516, 15.666486109, 0.0 ], [ 78.254814457, 15.666482977, 0.0 ], [ 78.254814401, 15.666479844, 0.0 ], [ 78.254814349, 15.666476711, 0.0 ], [ 78.254814301, 15.666473578, 0.0 ], [ 78.254814256, 15.666470446, 0.0 ], [ 78.254814215, 15.666467313, 0.0 ], [ 78.254814178, 15.66646418, 0.0 ], [ 78.254814144, 15.666461047, 0.0 ], [ 78.254814114, 15.666457914, 0.0 ], [ 78.254814088, 15.666454781, 0.0 ], [ 78.254814065, 15.666451648, 0.0 ], [ 78.254814046, 15.666448515, 0.0 ], [ 78.254814031, 15.666445382, 0.0 ], [ 78.254814019, 15.666442248, 0.0 ], [ 78.254814011, 15.666439115, 0.0 ], [ 78.254814007, 15.666435982, 0.0 ], [ 78.254814006, 15.666432849, 0.0 ], [ 78.254814009, 15.666429716, 0.0 ], [ 78.254814016, 15.666426583, 0.0 ], [ 78.254814026, 15.66642345, 0.0 ], [ 78.25481404, 15.666420317, 0.0 ], [ 78.254814057, 15.666417183, 0.0 ], [ 78.254814079, 15.66641405, 0.0 ], [ 78.254814104, 15.666410917, 0.0 ], [ 78.254814132, 15.666407784, 0.0 ], [ 78.254814165, 15.666404651, 0.0 ], [ 78.2548142, 15.666401518, 0.0 ], [ 78.25481424, 15.666398386, 0.0 ], [ 78.254814283, 15.666395253, 0.0 ], [ 78.25481433, 15.66639212, 0.0 ], [ 78.254814381, 15.666388987, 0.0 ], [ 78.254814435, 15.666385855, 0.0 ], [ 78.254814493, 15.666382722, 0.0 ], [ 78.254814555, 15.666379589, 0.0 ], [ 78.25481462, 15.666376457, 0.0 ], [ 78.254814689, 15.666373325, 0.0 ], [ 78.254814761, 15.666370192, 0.0 ], [ 78.254814838, 15.66636706, 0.0 ], [ 78.254814917, 15.666363928, 0.0 ], [ 78.254815001, 15.666360796, 0.0 ], [ 78.254815088, 15.666357664, 0.0 ], [ 78.254815179, 15.666354532, 0.0 ], [ 78.254815274, 15.6663514, 0.0 ], [ 78.254815372, 15.666348269, 0.0 ], [ 78.254815474, 15.666345137, 0.0 ], [ 78.254815579, 15.666342006, 0.0 ], [ 78.254815688, 15.666338875, 0.0 ], [ 78.254815801, 15.666335744, 0.0 ], [ 78.254815918, 15.666332613, 0.0 ], [ 78.254816038, 15.666329482, 0.0 ], [ 78.254816162, 15.666326351, 0.0 ], [ 78.254816289, 15.666323221, 0.0 ], [ 78.25481642, 15.66632009, 0.0 ], [ 78.254816555, 15.66631696, 0.0 ], [ 78.254816694, 15.66631383, 0.0 ], [ 78.254816836, 15.6663107, 0.0 ], [ 78.254816981, 15.66630757, 0.0 ], [ 78.254817131, 15.666304441, 0.0 ], [ 78.254817284, 15.666301311, 0.0 ], [ 78.254817441, 15.666298182, 0.0 ], [ 78.254817601, 15.666295053, 0.0 ], [ 78.254817765, 15.666291924, 0.0 ], [ 78.254817933, 15.666288795, 0.0 ], [ 78.254818104, 15.666285667, 0.0 ], [ 78.254818279, 15.666282539, 0.0 ], [ 78.254818458, 15.666279411, 0.0 ], [ 78.25481864, 15.666276283, 0.0 ], [ 78.254818826, 15.666273155, 0.0 ], [ 78.254819016, 15.666270028, 0.0 ], [ 78.254819209, 15.666266901, 0.0 ], [ 78.254819406, 15.666263774, 0.0 ], [ 78.254819607, 15.666260647, 0.0 ], [ 78.254819811, 15.666257521, 0.0 ], [ 78.254820019, 15.666254394, 0.0 ], [ 78.254820231, 15.666251268, 0.0 ], [ 78.254820446, 15.666248143, 0.0 ], [ 78.254820665, 15.666245017, 0.0 ], [ 78.254820888, 15.666241892, 0.0 ], [ 78.254821114, 15.666238767, 0.0 ], [ 78.254821344, 15.666235642, 0.0 ], [ 78.254821577, 15.666232518, 0.0 ], [ 78.254821815, 15.666229394, 0.0 ], [ 78.254822055, 15.66622627, 0.0 ], [ 78.2548223, 15.666223146, 0.0 ], [ 78.254822548, 15.666220023, 0.0 ], [ 78.2548228, 15.6662169, 0.0 ], [ 78.254823055, 15.666213777, 0.0 ], [ 78.254823314, 15.666210655, 0.0 ], [ 78.254823577, 15.666207533, 0.0 ], [ 78.254823844, 15.666204411, 0.0 ], [ 78.254824114, 15.666201289, 0.0 ], [ 78.254824387, 15.666198168, 0.0 ], [ 78.254824665, 15.666195047, 0.0 ], [ 78.254824946, 15.666191927, 0.0 ], [ 78.25482523, 15.666188807, 0.0 ], [ 78.254825519, 15.666185687, 0.0 ], [ 78.25482581, 15.666182567, 0.0 ], [ 78.254826106, 15.666179448, 0.0 ], [ 78.254826405, 15.666176329, 0.0 ], [ 78.254826708, 15.666173211, 0.0 ], [ 78.254827015, 15.666170093, 0.0 ], [ 78.254827325, 15.666166975, 0.0 ], [ 78.254827639, 15.666163858, 0.0 ], [ 78.254827956, 15.666160741, 0.0 ], [ 78.254828277, 15.666157624, 0.0 ], [ 78.254828602, 15.666154508, 0.0 ], [ 78.25482893, 15.666151392, 0.0 ], [ 78.254829262, 15.666148276, 0.0 ], [ 78.254829598, 15.666145161, 0.0 ], [ 78.254829937, 15.666142047, 0.0 ], [ 78.25483028, 15.666138932, 0.0 ], [ 78.254830627, 15.666135818, 0.0 ], [ 78.254830977, 15.666132705, 0.0 ], [ 78.254831331, 15.666129592, 0.0 ], [ 78.254831689, 15.666126479, 0.0 ], [ 78.25483205, 15.666123367, 0.0 ], [ 78.254832415, 15.666120255, 0.0 ], [ 78.254832783, 15.666117144, 0.0 ], [ 78.254833155, 15.666114033, 0.0 ], [ 78.254833531, 15.666110922, 0.0 ], [ 78.25483391, 15.666107812, 0.0 ], [ 78.254834293, 15.666104702, 0.0 ], [ 78.25483468, 15.666101593, 0.0 ], [ 78.25483507, 15.666098484, 0.0 ], [ 78.254835464, 15.666095376, 0.0 ], [ 78.254835861, 15.666092268, 0.0 ], [ 78.254836263, 15.666089161, 0.0 ], [ 78.254836667, 15.666086054, 0.0 ], [ 78.254837076, 15.666082948, 0.0 ], [ 78.254837488, 15.666079842, 0.0 ], [ 78.254837903, 15.666076736, 0.0 ], [ 78.254838323, 15.666073631, 0.0 ], [ 78.254838746, 15.666070527, 0.0 ], [ 78.254839172, 15.666067423, 0.0 ], [ 78.254839602, 15.666064319, 0.0 ], [ 78.254840036, 15.666061216, 0.0 ], [ 78.254840474, 15.666058114, 0.0 ], [ 78.254840915, 15.666055012, 0.0 ], [ 78.25484136, 15.666051911, 0.0 ], [ 78.254841808, 15.66604881, 0.0 ], [ 78.25484226, 15.666045709, 0.0 ], [ 78.254842715, 15.66604261, 0.0 ], [ 78.254843175, 15.66603951, 0.0 ], [ 78.254843637, 15.666036411, 0.0 ], [ 78.254844104, 15.666033313, 0.0 ], [ 78.254844574, 15.666030216, 0.0 ], [ 78.254845048, 15.666027118, 0.0 ], [ 78.254845525, 15.666024022, 0.0 ], [ 78.254846006, 15.666020926, 0.0 ], [ 78.254846491, 15.66601783, 0.0 ], [ 78.254846979, 15.666014736, 0.0 ], [ 78.25484747, 15.666011641, 0.0 ], [ 78.254847966, 15.666008547, 0.0 ], [ 78.254848465, 15.666005454, 0.0 ], [ 78.254848968, 15.666002362, 0.0 ], [ 78.254849474, 15.66599927, 0.0 ], [ 78.254849984, 15.665996178, 0.0 ], [ 78.254850497, 15.665993088, 0.0 ], [ 78.254851014, 15.665989997, 0.0 ], [ 78.254851535, 15.665986908, 0.0 ], [ 78.254852059, 15.665983819, 0.0 ], [ 78.254852587, 15.665980731, 0.0 ], [ 78.254853119, 15.665977643, 0.0 ], [ 78.254853654, 15.665974556, 0.0 ], [ 78.254854193, 15.665971469, 0.0 ], [ 78.254854735, 15.665968384, 0.0 ], [ 78.254855281, 15.665965298, 0.0 ], [ 78.254855831, 15.665962214, 0.0 ], [ 78.254856384, 15.66595913, 0.0 ], [ 78.254856941, 15.665956047, 0.0 ], [ 78.254857501, 15.665952964, 0.0 ], [ 78.254858065, 15.665949882, 0.0 ], [ 78.254858633, 15.665946801, 0.0 ], [ 78.254859204, 15.66594372, 0.0 ], [ 78.254859779, 15.66594064, 0.0 ], [ 78.254860357, 15.665937561, 0.0 ], [ 78.254860939, 15.665934482, 0.0 ], [ 78.254861525, 15.665931404, 0.0 ], [ 78.254862114, 15.665928327, 0.0 ], [ 78.254862114, 15.665928327, 0.0 ], [ 78.255052295, 15.66550841, 0.0 ], [ 78.254384643, 15.665626631, 0.0 ], [ 78.253344459, 15.665841271, 0.0 ], [ 78.25328875, 15.665035769, 0.0 ], [ 78.254339317, 15.665109449, 0.0 ], [ 78.254228383, 15.664430134, 0.0 ], [ 78.254110413, 15.663706706, 0.0 ], [ 78.253897945, 15.66270958, 0.0 ], [ 78.254534215, 15.66253659, 0.0 ], [ 78.254313103, 15.661425656, 0.0 ], [ 78.253330632, 15.662093563, 0.0 ], [ 78.252125319, 15.662621231, 0.0 ], [ 78.252194146, 15.663484232, 0.0 ], [ 78.251105537, 15.663783409, 0.0 ], [ 78.250660576, 15.663748755, 0.0 ], [ 78.249472195, 15.663752349, 0.0 ], [ 78.248510979, 15.663735075, 0.0 ], [ 78.248040709, 15.663728201, 0.0 ], [ 78.247433847, 15.663722031, 0.0 ], [ 78.247302432, 15.663464695, 0.0 ], [ 78.247112588, 15.663056862, 0.0 ], [ 78.246877478, 15.661947069, 0.0 ], [ 78.246808948, 15.661767633, 0.0 ], [ 78.247996484, 15.6613737, 0.0 ], [ 78.249105245, 15.660859294, 0.0 ], [ 78.249634151, 15.660499434, 0.0 ], [ 78.250330928, 15.660294643, 0.0 ], [ 78.251408328, 15.65991479, 0.0 ], [ 78.251910576, 15.659720209, 0.0 ], [ 78.251948944, 15.659822781, 0.0 ], [ 78.253006407, 15.659352012, 0.0 ], [ 78.254567087, 15.658660984, 0.0 ], [ 78.254368511, 15.657701506, 0.0 ], [ 78.254172533, 15.656766528, 0.0 ], [ 78.253063863, 15.657537833, 0.0 ], [ 78.252124275, 15.658352015, 0.0 ], [ 78.251666213, 15.658768385, 0.0 ], [ 78.251167401, 15.659087203, 0.0 ], [ 78.25121065, 15.659237424, 0.0 ], [ 78.250277214, 15.659452615, 0.0 ], [ 78.249889059, 15.659012773, 0.0 ], [ 78.249589596, 15.658252648, 0.0 ], [ 78.24947537, 15.657911298, 0.0 ], [ 78.248887121, 15.658008659, 0.0 ], [ 78.248723305, 15.657636374, 0.0 ], [ 78.247593567, 15.657938868, 0.0 ], [ 78.24753832, 15.657747663, 0.0 ], [ 78.247114175, 15.657830022, 0.0 ], [ 78.247031346, 15.657567457, 0.0 ], [ 78.246746024, 15.657635993, 0.0 ], [ 78.246798596, 15.657821437, 0.0 ], [ 78.246971539, 15.659206735, 0.0 ], [ 78.246177557, 15.659208465, 0.0 ], [ 78.245941828, 15.658311867, 0.0 ], [ 78.245681816, 15.657271931, 0.0 ], [ 78.245190383, 15.657379418, 0.0 ], [ 78.244049431, 15.657778076, 0.0 ], [ 78.243446216, 15.658183389, 0.0 ], [ 78.242301613, 15.658617756, 0.0 ], [ 78.240677413, 15.659255962, 0.0 ], [ 78.239779412, 15.659590172, 0.0 ], [ 78.23895665, 15.659819786, 0.0 ], [ 78.238768293, 15.659801419, 0.0 ], [ 78.239139866, 15.659560282, 0.0 ], [ 78.240059275, 15.659294276, 0.0 ], [ 78.241361717, 15.658874968, 0.0 ], [ 78.241310434, 15.658000578, 0.0 ], [ 78.242246579, 15.657791015, 0.0 ], [ 78.243405148, 15.657525313, 0.0 ], [ 78.243337421, 15.656747581, 0.0 ], [ 78.243297036, 15.655853834, 0.0 ], [ 78.244581461, 15.65570003, 0.0 ], [ 78.244921588, 15.656006346, 0.0 ], [ 78.245394557, 15.656151747, 0.0 ], [ 78.24602013, 15.656468692, 0.0 ], [ 78.24607387, 15.655549885, 0.0 ], [ 78.246857541, 15.655635097, 0.0 ], [ 78.248545451, 15.655109729, 0.0 ], [ 78.248431326, 15.65416127, 0.0 ], [ 78.24821214, 15.65299394, 0.0 ], [ 78.24913989, 15.652857666, 0.0 ], [ 78.249679096, 15.652898176, 0.0 ], [ 78.251205902, 15.652629033, 0.0 ], [ 78.25167103, 15.652540322, 0.0 ], [ 78.252608656, 15.65239109, 0.0 ], [ 78.252812466, 15.650974115, 0.0 ], [ 78.25295289, 15.650038319, 0.0 ], [ 78.253246462, 15.648061666, 0.0 ], [ 78.253377523, 15.647204502, 0.0 ], [ 78.253184539, 15.646627806, 0.0 ], [ 78.253179618, 15.646245833, 0.0 ], [ 78.253053991, 15.646058725, 0.0 ], [ 78.253355692, 15.64457655, 0.0 ], [ 78.254284277, 15.645004907, 0.0 ], [ 78.254530674, 15.644917787, 0.0 ], [ 78.254594805, 15.644199332, 0.0 ], [ 78.254761648, 15.643979186, 0.0 ], [ 78.254919768, 15.64341059, 0.0 ], [ 78.255702037, 15.643331976, 0.0 ], [ 78.255778348, 15.64360287, 0.0 ], [ 78.256330874, 15.643326624, 0.0 ], [ 78.257448894, 15.642762002, 0.0 ], [ 78.258259351, 15.642901964, 0.0 ], [ 78.258761236, 15.644476337, 0.0 ], [ 78.259152998, 15.644540976, 0.0 ], [ 78.259142015, 15.645008056, 0.0 ], [ 78.259370339, 15.645444191, 0.0 ], [ 78.26035902, 15.645777441, 0.0 ], [ 78.260748331, 15.645339129, 0.0 ], [ 78.26058152, 15.644780496, 0.0 ], [ 78.259539522, 15.644474864, 0.0 ], [ 78.25992693, 15.643784482, 0.0 ], [ 78.26115853, 15.643837646, 0.0 ], [ 78.26121538, 15.643666975, 0.0 ], [ 78.260884607, 15.643722563, 0.0 ], [ 78.260629688, 15.642841129, 0.0 ], [ 78.260575069, 15.642106226, 0.0 ], [ 78.261335834, 15.641697585, 0.0 ], [ 78.262053657, 15.641590641, 0.0 ], [ 78.262651371, 15.641190243, 0.0 ], [ 78.263325173, 15.641139542, 0.0 ], [ 78.263723394, 15.640789208, 0.0 ], [ 78.263907301, 15.639923277, 0.0 ], [ 78.26487963, 15.640608466, 0.0 ], [ 78.265016277, 15.640641748, 0.0 ], [ 78.267268042, 15.641190195, 0.0 ], [ 78.267212221, 15.641573595, 0.0 ], [ 78.265542948, 15.641466907, 0.0 ], [ 78.265451707, 15.643008975, 0.0 ], [ 78.267184114, 15.643115986, 0.0 ], [ 78.267744097, 15.644040421, 0.0 ], [ 78.268227817, 15.644864291, 0.0 ], [ 78.268298437, 15.644984571, 0.0 ], [ 78.267828871, 15.646511944, 0.0 ], [ 78.267057703, 15.646336615, 0.0 ], [ 78.266321217, 15.644806973, 0.0 ], [ 78.265682211, 15.64460549, 0.0 ], [ 78.264901, 15.644833165, 0.0 ], [ 78.264885307, 15.647019134, 0.0 ], [ 78.264668845, 15.647675414, 0.0 ], [ 78.264189034, 15.648096452, 0.0 ], [ 78.264040689, 15.649032561, 0.0 ], [ 78.264961789, 15.648786757, 0.0 ], [ 78.267154917, 15.648378259, 0.0 ], [ 78.268074448, 15.648151469, 0.0 ], [ 78.26785986, 15.648979856, 0.0 ], [ 78.269446602, 15.648914931, 0.0 ], [ 78.269676544, 15.648698998, 0.0 ], [ 78.269897812, 15.648679502, 0.0 ], [ 78.270328363, 15.648641567, 0.0 ], [ 78.270060739, 15.649393758, 0.0 ], [ 78.270060739, 15.649393758, 0.0 ], [ 78.270060803, 15.649393779, 0.0 ], [ 78.270060866, 15.649393799, 0.0 ], [ 78.270060931, 15.649393817, 0.0 ], [ 78.270060995, 15.649393833, 0.0 ], [ 78.270061061, 15.649393847, 0.0 ], [ 78.270061126, 15.64939386, 0.0 ], [ 78.270061192, 15.649393871, 0.0 ], [ 78.270061258, 15.64939388, 0.0 ], [ 78.270061325, 15.649393887, 0.0 ], [ 78.270061391, 15.649393892, 0.0 ], [ 78.270061458, 15.649393895, 0.0 ], [ 78.270061525, 15.649393896, 0.0 ], [ 78.270061591, 15.649393896, 0.0 ], [ 78.270061658, 15.649393894, 0.0 ], [ 78.270061725, 15.64939389, 0.0 ], [ 78.270061791, 15.649393884, 0.0 ], [ 78.270061857, 15.649393876, 0.0 ], [ 78.270061923, 15.649393866, 0.0 ], [ 78.270061989, 15.649393855, 0.0 ], [ 78.270062055, 15.649393841, 0.0 ], [ 78.27006212, 15.649393826, 0.0 ], [ 78.270062184, 15.649393809, 0.0 ], [ 78.270062248, 15.64939379, 0.0 ], [ 78.270062312, 15.64939377, 0.0 ], [ 78.270062375, 15.649393748, 0.0 ], [ 78.270062437, 15.649393724, 0.0 ], [ 78.270062498, 15.649393698, 0.0 ], [ 78.270062559, 15.64939367, 0.0 ], [ 78.270062619, 15.649393641, 0.0 ], [ 78.270062679, 15.64939361, 0.0 ], [ 78.270062737, 15.649393578, 0.0 ], [ 78.270062794, 15.649393544, 0.0 ], [ 78.270062851, 15.649393508, 0.0 ], [ 78.270062906, 15.649393471, 0.0 ], [ 78.270062961, 15.649393432, 0.0 ], [ 78.270063014, 15.649393392, 0.0 ], [ 78.270063066, 15.64939335, 0.0 ], [ 78.270063117, 15.649393307, 0.0 ], [ 78.270063167, 15.649393263, 0.0 ], [ 78.270063215, 15.649393217, 0.0 ], [ 78.270063262, 15.64939317, 0.0 ], [ 78.270063308, 15.649393121, 0.0 ], [ 78.270063353, 15.649393071, 0.0 ], [ 78.270063396, 15.64939302, 0.0 ], [ 78.270063437, 15.649392968, 0.0 ], [ 78.270063477, 15.649392915, 0.0 ], [ 78.270063516, 15.64939286, 0.0 ], [ 78.270063553, 15.649392805, 0.0 ], [ 78.270063589, 15.649392749, 0.0 ], [ 78.270063623, 15.649392691, 0.0 ], [ 78.270063655, 15.649392633, 0.0 ], [ 78.270063686, 15.649392573, 0.0 ], [ 78.270063715, 15.649392513, 0.0 ], [ 78.270063742, 15.649392452, 0.0 ], [ 78.270063768, 15.649392391, 0.0 ], [ 78.270063792, 15.649392329, 0.0 ], [ 78.270063814, 15.649392266, 0.0 ], [ 78.270063835, 15.649392202, 0.0 ], [ 78.270063853, 15.649392138, 0.0 ], [ 78.27006387, 15.649392073, 0.0 ], [ 78.270063885, 15.649392008, 0.0 ], [ 78.270063899, 15.649391943, 0.0 ], [ 78.27006391, 15.649391877, 0.0 ], [ 78.27006392, 15.649391811, 0.0 ], [ 78.270063927, 15.649391745, 0.0 ], [ 78.270063933, 15.649391678, 0.0 ], [ 78.270063937, 15.649391612, 0.0 ], [ 78.27006394, 15.649391545, 0.0 ], [ 78.27006394, 15.649391478, 0.0 ], [ 78.270063938, 15.649391412, 0.0 ], [ 78.270063935, 15.649391345, 0.0 ], [ 78.27006393, 15.649391278, 0.0 ], [ 78.270063923, 15.649391212, 0.0 ], [ 78.270063914, 15.649391146, 0.0 ], [ 78.270063903, 15.64939108, 0.0 ], [ 78.27006389, 15.649391014, 0.0 ], [ 78.270063876, 15.649390949, 0.0 ], [ 78.27006386, 15.649390884, 0.0 ], [ 78.270063842, 15.64939082, 0.0 ], [ 78.270063822, 15.649390756, 0.0 ], [ 78.2700638, 15.649390693, 0.0 ], [ 78.270063777, 15.649390631, 0.0 ], [ 78.270063752, 15.649390569, 0.0 ], [ 78.270063725, 15.649390508, 0.0 ], [ 78.270063697, 15.649390447, 0.0 ], [ 78.270063667, 15.649390388, 0.0 ], [ 78.270063635, 15.649390329, 0.0 ], [ 78.270063602, 15.649390271, 0.0 ], [ 78.270063567, 15.649390214, 0.0 ], [ 78.27006353, 15.649390159, 0.0 ], [ 78.270063492, 15.649390104, 0.0 ], [ 78.270063452, 15.64939005, 0.0 ], [ 78.270063411, 15.649389997, 0.0 ], [ 78.270063369, 15.649389946, 0.0 ], [ 78.270063325, 15.649389896, 0.0 ], [ 78.270063279, 15.649389847, 0.0 ], [ 78.270063233, 15.649389799, 0.0 ], [ 78.270063185, 15.649389753, 0.0 ], [ 78.270063135, 15.649389708, 0.0 ], [ 78.270063085, 15.649389664, 0.0 ], [ 78.270063033, 15.649389622, 0.0 ], [ 78.27006298, 15.649389581, 0.0 ], [ 78.270062926, 15.649389542, 0.0 ], [ 78.270062871, 15.649389504, 0.0 ], [ 78.270062815, 15.649389468, 0.0 ], [ 78.270062758, 15.649389433, 0.0 ], [ 78.2700627, 15.6493894, 0.0 ], [ 78.270062641, 15.649389369, 0.0 ], [ 78.270062582, 15.649389339, 0.0 ], [ 78.270062521, 15.649389311, 0.0 ], [ 78.27006246, 15.649389284, 0.0 ], [ 78.270062398, 15.64938926, 0.0 ], [ 78.270062335, 15.649389237, 0.0 ], [ 78.270062272, 15.649389216, 0.0 ], [ 78.270062208, 15.649389196, 0.0 ], [ 78.270062143, 15.649389179, 0.0 ], [ 78.270062079, 15.649389163, 0.0 ], [ 78.270062013, 15.649389149, 0.0 ], [ 78.270061948, 15.649389137, 0.0 ], [ 78.270061882, 15.649389126, 0.0 ], [ 78.270061816, 15.649389118, 0.0 ], [ 78.270061749, 15.649389111, 0.0 ], [ 78.270061683, 15.649389106, 0.0 ], [ 78.270061616, 15.649389103, 0.0 ], [ 78.270061549, 15.649389102, 0.0 ], [ 78.270061482, 15.649389103, 0.0 ], [ 78.270061416, 15.649389106, 0.0 ], [ 78.270061349, 15.64938911, 0.0 ], [ 78.270061283, 15.649389116, 0.0 ], [ 78.270061216, 15.649389125, 0.0 ], [ 78.27006115, 15.649389135, 0.0 ], [ 78.270061085, 15.649389146, 0.0 ], [ 78.270061019, 15.64938916, 0.0 ], [ 78.270060954, 15.649389176, 0.0 ], [ 78.27006089, 15.649389193, 0.0 ], [ 78.270060826, 15.649389212, 0.0 ], [ 78.270060763, 15.649389233, 0.0 ], [ 78.2700607, 15.649389255, 0.0 ], [ 78.270060638, 15.64938928, 0.0 ], [ 78.270060576, 15.649389306, 0.0 ], [ 78.270060516, 15.649389334, 0.0 ], [ 78.270060456, 15.649389363, 0.0 ], [ 78.270060397, 15.649389394, 0.0 ], [ 78.270060338, 15.649389427, 0.0 ], [ 78.270060281, 15.649389461, 0.0 ], [ 78.270060225, 15.649389497, 0.0 ], [ 78.27006017, 15.649389535, 0.0 ], [ 78.270060115, 15.649389574, 0.0 ], [ 78.270060062, 15.649389614, 0.0 ], [ 78.27006001, 15.649389656, 0.0 ], [ 78.27005996, 15.649389699, 0.0 ], [ 78.27005991, 15.649389744, 0.0 ], [ 78.270059862, 15.64938979, 0.0 ], [ 78.270059815, 15.649389838, 0.0 ], [ 78.270059769, 15.649389886, 0.0 ], [ 78.270059725, 15.649389936, 0.0 ], [ 78.270059682, 15.649389988, 0.0 ], [ 78.270059641, 15.64939004, 0.0 ], [ 78.270059601, 15.649390094, 0.0 ], [ 78.270059563, 15.649390148, 0.0 ], [ 78.270059526, 15.649390204, 0.0 ], [ 78.270059491, 15.649390261, 0.0 ], [ 78.270059457, 15.649390318, 0.0 ], [ 78.270059425, 15.649390377, 0.0 ], [ 78.270059394, 15.649390436, 0.0 ], [ 78.270059366, 15.649390496, 0.0 ], [ 78.270059339, 15.649390557, 0.0 ], [ 78.270059313, 15.649390619, 0.0 ], [ 78.27005929, 15.649390681, 0.0 ], [ 78.270059268, 15.649390745, 0.0 ], [ 78.270059248, 15.649390808, 0.0 ], [ 78.270059229, 15.649390872, 0.0 ], [ 78.270059213, 15.649390937, 0.0 ], [ 78.270059198, 15.649391002, 0.0 ], [ 78.270059185, 15.649391068, 0.0 ], [ 78.270059174, 15.649391133, 0.0 ], [ 78.270059165, 15.6493912, 0.0 ], [ 78.270059157, 15.649391266, 0.0 ], [ 78.270059152, 15.649391332, 0.0 ], [ 78.270059148, 15.649391399, 0.0 ], [ 78.270059148, 15.649391399, 0.0 ], [ 78.270569849, 15.649412786, 0.0 ], [ 78.270801796, 15.649736241, 0.0 ], [ 78.271102192, 15.649834816, 0.0 ], [ 78.272612404, 15.649730713, 0.0 ], [ 78.27274697, 15.650088689, 0.0 ], [ 78.273616297, 15.65009643, 0.0 ], [ 78.274427073, 15.651170966, 0.0 ], [ 78.274613295, 15.651599788, 0.0 ], [ 78.274616992, 15.652206318, 0.0 ], [ 78.275131718, 15.652013804, 0.0 ], [ 78.275782739, 15.651859499, 0.0 ], [ 78.276300501, 15.651975475, 0.0 ], [ 78.276474852, 15.652647306, 0.0 ], [ 78.276765151, 15.652236225, 0.0 ], [ 78.276968743, 15.652352847, 0.0 ], [ 78.277070455, 15.652284592, 0.0 ], [ 78.277974072, 15.652362233, 0.0 ], [ 78.277956967, 15.652484562, 0.0 ], [ 78.278032421, 15.652602185, 0.0 ], [ 78.278284648, 15.652826426, 0.0 ], [ 78.278455753, 15.652940635, 0.0 ], [ 78.278492174, 15.653231847, 0.0 ], [ 78.278754741, 15.653236739, 0.0 ], [ 78.278992378, 15.653171578, 0.0 ], [ 78.279160649, 15.653287632, 0.0 ], [ 78.279379868, 15.653172965, 0.0 ], [ 78.279530154, 15.652910634, 0.0 ], [ 78.279774565, 15.653189302, 0.0 ], [ 78.279980521, 15.652696207, 0.0 ], [ 78.281038735, 15.653039887, 0.0 ], [ 78.280972446, 15.652704569, 0.0 ], [ 78.281285983, 15.652744821, 0.0 ], [ 78.281890115, 15.65295676, 0.0 ], [ 78.28182801, 15.650376552, 0.0 ], [ 78.283049959, 15.64975731, 0.0 ], [ 78.282901497, 15.651566431, 0.0 ], [ 78.282884879, 15.651648049, 0.0 ], [ 78.282796171, 15.652865395, 0.0 ], [ 78.283959837, 15.652828556, 0.0 ], [ 78.284303247, 15.652819906, 0.0 ], [ 78.284721383, 15.652809374, 0.0 ], [ 78.2849895, 15.652802621, 0.0 ], [ 78.28511502, 15.652796823, 0.0 ], [ 78.2860232, 15.652754878, 0.0 ], [ 78.286391276, 15.652737878, 0.0 ], [ 78.287847466, 15.65262444, 0.0 ], [ 78.287850419, 15.653443917, 0.0 ], [ 78.288750622, 15.654058936, 0.0 ], [ 78.289062707, 15.654190124, 0.0 ], [ 78.290630688, 15.654722081, 0.0 ], [ 78.290648354, 15.654728075, 0.0 ], [ 78.290786742, 15.654775025, 0.0 ], [ 78.292231778, 15.655124199, 0.0 ], [ 78.292354614, 15.655165182, 0.0 ], [ 78.293890337, 15.655677574, 0.0 ], [ 78.293924046, 15.655688821, 0.0 ], [ 78.293957296, 15.655892281, 0.0 ], [ 78.294367775, 15.655866371, 0.0 ], [ 78.295156031, 15.655803397, 0.0 ], [ 78.295683139, 15.655784752, 0.0 ], [ 78.295804836, 15.656651848, 0.0 ], [ 78.295691585, 15.657010401, 0.0 ], [ 78.295334756, 15.657408976, 0.0 ], [ 78.29480744, 15.65743453, 0.0 ], [ 78.294249158, 15.65730294, 0.0 ], [ 78.294353453, 15.657817177, 0.0 ], [ 78.294177332, 15.658003775, 0.0 ], [ 78.2946648, 15.659588708, 0.0 ], [ 78.295319306, 15.659305941, 0.0 ], [ 78.295439561, 15.65978249, 0.0 ], [ 78.295527101, 15.660209375, 0.0 ], [ 78.294826388, 15.660496107, 0.0 ], [ 78.29503789, 15.661234574, 0.0 ], [ 78.295188082, 15.661811366, 0.0 ], [ 78.295078697, 15.661879071, 0.0 ], [ 78.294855182, 15.662017421, 0.0 ], [ 78.294764715, 15.662073417, 0.0 ], [ 78.294098714, 15.661818829, 0.0 ], [ 78.292405926, 15.661926249, 0.0 ], [ 78.292499211, 15.662220139, 0.0 ], [ 78.291719296, 15.66198292, 0.0 ], [ 78.290808952, 15.662219891, 0.0 ], [ 78.290459035, 15.662418777, 0.0 ], [ 78.290750497, 15.663532518, 0.0 ], [ 78.290289831, 15.663681294, 0.0 ], [ 78.289953783, 15.663956142, 0.0 ], [ 78.28965306, 15.663872096, 0.0 ], [ 78.290036765, 15.665110542, 0.0 ], [ 78.290111538, 15.665095368, 0.0 ], [ 78.291920683, 15.664728226, 0.0 ], [ 78.291942741, 15.664017025, 0.0 ], [ 78.292089332, 15.664006595, 0.0 ], [ 78.292485029, 15.663688994, 0.0 ], [ 78.29301312, 15.663919407, 0.0 ], [ 78.293655584, 15.663912587, 0.0 ], [ 78.29415543, 15.66368521, 0.0 ], [ 78.294678048, 15.662934383, 0.0 ], [ 78.294815877, 15.662551621, 0.0 ], [ 78.295142166, 15.662879442, 0.0 ], [ 78.294545528, 15.663566116, 0.0 ], [ 78.293857626, 15.664045327, 0.0 ], [ 78.293420362, 15.664170487, 0.0 ], [ 78.292392659, 15.664726601, 0.0 ], [ 78.292263787, 15.665123234, 0.0 ], [ 78.292265874, 15.665699084, 0.0 ], [ 78.292983989, 15.665477561, 0.0 ], [ 78.29321879, 15.667206489, 0.0 ], [ 78.293435115, 15.667620621, 0.0 ], [ 78.293417994, 15.667575136, 0.0 ], [ 78.294711342, 15.667379333, 0.0 ], [ 78.296035574, 15.667148435, 0.0 ], [ 78.29724063, 15.666657134, 0.0 ], [ 78.298183206, 15.66640882, 0.0 ], [ 78.298869139, 15.666378985, 0.0 ], [ 78.298683368, 15.666291905, 0.0 ], [ 78.299096133, 15.666273951, 0.0 ], [ 78.299398999, 15.666258982, 0.0 ], [ 78.299590237, 15.666349511, 0.0 ], [ 78.304134135, 15.665545498, 0.0 ], [ 78.304161779, 15.665692068, 0.0 ], [ 78.301824499, 15.666247126, 0.0 ], [ 78.301872239, 15.666457661, 0.0 ], [ 78.300763472, 15.666904798, 0.0 ], [ 78.30033624, 15.667066688, 0.0 ], [ 78.300110308, 15.6671523, 0.0 ], [ 78.300175617, 15.667511741, 0.0 ], [ 78.300474964, 15.669150287, 0.0 ], [ 78.30060033, 15.670182237, 0.0 ], [ 78.300699706, 15.670699999, 0.0 ], [ 78.301010274, 15.672308636, 0.0 ], [ 78.301104194, 15.67293339, 0.0 ], [ 78.301418261, 15.674395485, 0.0 ], [ 78.301526898, 15.67468508, 0.0 ], [ 78.301828198, 15.675488261, 0.0 ], [ 78.302446724, 15.676473142, 0.0 ], [ 78.302490551, 15.67665927, 0.0 ], [ 78.3017247, 15.677446709, 0.0 ], [ 78.301071502, 15.678192193, 0.0 ], [ 78.299721349, 15.67848056, 0.0 ], [ 78.298291495, 15.679578964, 0.0 ], [ 78.297219556, 15.680161384, 0.0 ], [ 78.296153123, 15.680918324, 0.0 ], [ 78.296612335, 15.68276802, 0.0 ], [ 78.29570271, 15.683266132, 0.0 ], [ 78.294824178, 15.684018299, 0.0 ], [ 78.293716067, 15.684942896, 0.0 ], [ 78.292258306, 15.686040092, 0.0 ], [ 78.29160451, 15.686513666, 0.0 ], [ 78.290816436, 15.687042152, 0.0 ], [ 78.29026576, 15.68740282, 0.0 ], [ 78.28962669, 15.687831283, 0.0 ], [ 78.288790092, 15.688295967, 0.0 ], [ 78.288236094, 15.688581032, 0.0 ], [ 78.287957505, 15.688724382, 0.0 ], [ 78.287645065, 15.688879711, 0.0 ], [ 78.287547466, 15.688928232, 0.0 ], [ 78.286385293, 15.689628938, 0.0 ], [ 78.285820291, 15.689961209, 0.0 ], [ 78.284895052, 15.690490674, 0.0 ], [ 78.284026044, 15.691087658, 0.0 ], [ 78.283371298, 15.691539233, 0.0 ], [ 78.283117194, 15.691674071, 0.0 ], [ 78.282145384, 15.692097847, 0.0 ], [ 78.28172589, 15.692281237, 0.0 ], [ 78.281584207, 15.692343177, 0.0 ], [ 78.280546988, 15.692813762, 0.0 ], [ 78.279832031, 15.693216548, 0.0 ], [ 78.279416675, 15.693485112, 0.0 ], [ 78.278978728, 15.693781997, 0.0 ], [ 78.278087303, 15.694343967, 0.0 ], [ 78.276498752, 15.695761294, 0.0 ], [ 78.275479127, 15.696549237, 0.0 ], [ 78.274819756, 15.697058785, 0.0 ], [ 78.273968198, 15.697708533, 0.0 ], [ 78.272854624, 15.698343536, 0.0 ], [ 78.272143623, 15.698492302, 0.0 ], [ 78.271952143, 15.698479068, 0.0 ], [ 78.271750926, 15.698270978, 0.0 ], [ 78.271443185, 15.698069325, 0.0 ], [ 78.270792071, 15.69748276, 0.0 ], [ 78.270977544, 15.698398886, 0.0 ], [ 78.271879542, 15.699482791, 0.0 ], [ 78.272930853, 15.698961008, 0.0 ], [ 78.273343651, 15.699271707, 0.0 ], [ 78.27421925, 15.700641936, 0.0 ], [ 78.2742336, 15.701602897, 0.0 ], [ 78.274239728, 15.701990118, 0.0 ], [ 78.274510702, 15.703188631, 0.0 ], [ 78.274905953, 15.70391551, 0.0 ], [ 78.274444024, 15.704092711, 0.0 ], [ 78.27277071, 15.704614694, 0.0 ], [ 78.272560527, 15.704133468, 0.0 ], [ 78.271551893, 15.704050177, 0.0 ], [ 78.270838657, 15.703502344, 0.0 ], [ 78.270050848, 15.702962326, 0.0 ], [ 78.269794178, 15.702934767, 0.0 ], [ 78.269677981, 15.702922291, 0.0 ], [ 78.269468715, 15.701979194, 0.0 ], [ 78.269253703, 15.7010428, 0.0 ], [ 78.268611489, 15.701457838, 0.0 ], [ 78.267348231, 15.70227241, 0.0 ], [ 78.26621957, 15.702997159, 0.0 ], [ 78.266357488, 15.703467615, 0.0 ], [ 78.264403183, 15.703917637, 0.0 ], [ 78.264503901, 15.702682227, 0.0 ], [ 78.264371735, 15.701482471, 0.0 ], [ 78.264288818, 15.700690105, 0.0 ], [ 78.264800741, 15.69808923, 0.0 ], [ 78.265212646, 15.69639146, 0.0 ], [ 78.265332388, 15.694942577, 0.0 ], [ 78.265391543, 15.693872711, 0.0 ], [ 78.26386366, 15.694319693, 0.0 ], [ 78.263651051, 15.69350443, 0.0 ], [ 78.263404688, 15.69258665, 0.0 ], [ 78.262388264, 15.692906277, 0.0 ], [ 78.262043953, 15.69139695, 0.0 ], [ 78.260324072, 15.691836004, 0.0 ], [ 78.259209702, 15.692144678, 0.0 ], [ 78.258861855, 15.691007096, 0.0 ], [ 78.258594241, 15.690151349, 0.0 ], [ 78.256931349, 15.690718158, 0.0 ], [ 78.256094799, 15.691004034, 0.0 ], [ 78.256432548, 15.691771679, 0.0 ], [ 78.255429531, 15.692204667, 0.0 ], [ 78.255100618, 15.69206886, 0.0 ], [ 78.254531372, 15.692292665, 0.0 ], [ 78.253724434, 15.692587592, 0.0 ], [ 78.253208111, 15.693392865, 0.0 ], [ 78.253389624, 15.694521977, 0.0 ], [ 78.252771657, 15.694792518, 0.0 ], [ 78.252944487, 15.693130243, 0.0 ], [ 78.252803244, 15.692825819, 0.0 ], [ 78.25264729, 15.692260331, 0.0 ], [ 78.252529205, 15.691941874, 0.0 ], [ 78.251423817, 15.692387906, 0.0 ], [ 78.251217663, 15.692087531, 0.0 ], [ 78.25119184, 15.691797662, 0.0 ], [ 78.250707016, 15.689980974, 0.0 ], [ 78.250452744, 15.688878748, 0.0 ], [ 78.250229835, 15.687867064, 0.0 ], [ 78.248224911, 15.685219227, 0.0 ], [ 78.246454758, 15.685671837, 0.0 ], [ 78.245695541, 15.685933047, 0.0 ], [ 78.244735017, 15.683411329, 0.0 ], [ 78.242823699, 15.683912429, 0.0 ], [ 78.242492746, 15.6819453, 0.0 ], [ 78.243538979, 15.681496137, 0.0 ], [ 78.243316746, 15.680834017, 0.0 ], [ 78.242895674, 15.680928672, 0.0 ], [ 78.242474602, 15.681023326, 0.0 ], [ 78.242433203, 15.681196225, 0.0 ], [ 78.242391804, 15.681369124, 0.0 ], [ 78.24242887, 15.681697909, 0.0 ], [ 78.241159849, 15.682176094, 0.0 ], [ 78.241154655, 15.683189895, 0.0 ], [ 78.23987031, 15.683445349, 0.0 ], [ 78.240106034, 15.684906065, 0.0 ], [ 78.240048565, 15.685715125, 0.0 ], [ 78.239984724, 15.686282123, 0.0 ], [ 78.2398047, 15.687757527, 0.0 ], [ 78.238530289, 15.688035551, 0.0 ], [ 78.238250282, 15.686271065, 0.0 ], [ 78.236795789, 15.686669714, 0.0 ], [ 78.236649076, 15.685819311, 0.0 ], [ 78.235235188, 15.685617703, 0.0 ], [ 78.23518489, 15.685675089, 0.0 ], [ 78.234868824, 15.687231085, 0.0 ], [ 78.233020402, 15.687807068, 0.0 ], [ 78.231072862, 15.688233335, 0.0 ], [ 78.230755922, 15.688748739, 0.0 ], [ 78.23030298, 15.689279593, 0.0 ], [ 78.230138217, 15.690107755, 0.0 ], [ 78.230077574, 15.690109374, 0.0 ], [ 78.229361402, 15.688156615, 0.0 ], [ 78.229760869, 15.687973542, 0.0 ], [ 78.230163457, 15.68766903, 0.0 ], [ 78.230990058, 15.687379097, 0.0 ], [ 78.231170492, 15.686847966, 0.0 ], [ 78.230515794, 15.686949185, 0.0 ], [ 78.230297548, 15.685067069, 0.0 ], [ 78.23057432, 15.68499338, 0.0 ], [ 78.230718745, 15.684968545, 0.0 ], [ 78.23260323, 15.684644491, 0.0 ], [ 78.233317273, 15.683450259, 0.0 ], [ 78.233622795, 15.682752209, 0.0 ], [ 78.233650298, 15.682689371, 0.0 ], [ 78.235189364, 15.681741048, 0.0 ], [ 78.235115989, 15.681618768, 0.0 ], [ 78.234187123, 15.681625394, 0.0 ], [ 78.234344968, 15.681300418, 0.0 ], [ 78.234476742, 15.680856184, 0.0 ], [ 78.234612273, 15.680364872, 0.0 ], [ 78.23477681, 15.679206303, 0.0 ], [ 78.234792029, 15.677654167, 0.0 ], [ 78.233209918, 15.678120805, 0.0 ], [ 78.232815024, 15.676588785, 0.0 ], [ 78.233043993, 15.67640675, 0.0 ], [ 78.233018015, 15.675696472, 0.0 ], [ 78.232152452, 15.675994815, 0.0 ], [ 78.231286889, 15.676293158, 0.0 ], [ 78.230916842, 15.676430817, 0.0 ], [ 78.230692992, 15.677142132, 0.0 ], [ 78.230469142, 15.677853447, 0.0 ], [ 78.23070895, 15.678204115, 0.0 ], [ 78.230994523, 15.679036968, 0.0 ], [ 78.229012651, 15.679446075, 0.0 ], [ 78.229058749, 15.679747714, 0.0 ], [ 78.227405383, 15.680340277, 0.0 ], [ 78.227520513, 15.681114862, 0.0 ], [ 78.225166368, 15.681579319, 0.0 ], [ 78.224981299, 15.680394116, 0.0 ], [ 78.223749911, 15.680725911, 0.0 ], [ 78.223840658, 15.681850621, 0.0 ], [ 78.222211594, 15.68227337, 0.0 ], [ 78.222217154, 15.683188751, 0.0 ], [ 78.220551582, 15.683538868, 0.0 ], [ 78.220520663, 15.683544906, 0.0 ], [ 78.219708289, 15.683715348, 0.0 ], [ 78.21883003, 15.683894023, 0.0 ], [ 78.218593265, 15.683943184, 0.0 ], [ 78.217520295, 15.684162568, 0.0 ], [ 78.217115809, 15.683042091, 0.0 ], [ 78.216933932, 15.682439061, 0.0 ], [ 78.21670558, 15.6814756, 0.0 ], [ 78.21665337, 15.681225134, 0.0 ], [ 78.218165599, 15.680471162, 0.0 ] ] ] } },
{ "type": "Feature", "properties": { "Name": null, "description": "L00", "timestamp": null, "begin": null, "end": null, "altitudeMode": null, "tessellate": -1, "extrude": 1, "visibility": -1, "drawOrder": null, "icon": null }, "geometry": { "type": "Polygon", "coordinates": [ [ [ 78.257403363, 15.670916262, 0.0 ], [ 78.257638166, 15.67013994, 0.0 ], [ 78.257638166, 15.67013994, 0.0 ], [ 78.257638133, 15.670134895, 0.0 ], [ 78.257638081, 15.670129851, 0.0 ], [ 78.25763801, 15.670124806, 0.0 ], [ 78.257637921, 15.670119762, 0.0 ], [ 78.257637813, 15.670114718, 0.0 ], [ 78.257637687, 15.670109675, 0.0 ], [ 78.257637541, 15.670104632, 0.0 ], [ 78.257637378, 15.670099589, 0.0 ], [ 78.257637195, 15.670094548, 0.0 ], [ 78.257636995, 15.670089507, 0.0 ], [ 78.257636775, 15.670084466, 0.0 ], [ 78.257636537, 15.670079427, 0.0 ], [ 78.25763628, 15.670074388, 0.0 ], [ 78.257636005, 15.670069351, 0.0 ], [ 78.257635711, 15.670064315, 0.0 ], [ 78.257635399, 15.670059279, 0.0 ], [ 78.257635068, 15.670054245, 0.0 ], [ 78.257634718, 15.670049212, 0.0 ], [ 78.25763435, 15.670044181, 0.0 ], [ 78.257633963, 15.670039151, 0.0 ], [ 78.257633558, 15.670034122, 0.0 ], [ 78.257633134, 15.670029095, 0.0 ], [ 78.257632691, 15.670024069, 0.0 ], [ 78.25763223, 15.670019045, 0.0 ], [ 78.257631751, 15.670014023, 0.0 ], [ 78.257631253, 15.670009003, 0.0 ], [ 78.257630736, 15.670003984, 0.0 ], [ 78.257630201, 15.669998968, 0.0 ], [ 78.257629648, 15.669993953, 0.0 ], [ 78.257629075, 15.669988941, 0.0 ], [ 78.257628485, 15.66998393, 0.0 ], [ 78.257627876, 15.669978922, 0.0 ], [ 78.257627248, 15.669973916, 0.0 ], [ 78.257626602, 15.669968913, 0.0 ], [ 78.257625938, 15.669963912, 0.0 ], [ 78.257625255, 15.669958913, 0.0 ], [ 78.257624553, 15.669953917, 0.0 ], [ 78.257623833, 15.669948924, 0.0 ], [ 78.257623095, 15.669943933, 0.0 ], [ 78.257622339, 15.669938945, 0.0 ], [ 78.257621563, 15.66993396, 0.0 ], [ 78.25762077, 15.669928978, 0.0 ], [ 78.257619958, 15.669923999, 0.0 ], [ 78.257619128, 15.669919022, 0.0 ], [ 78.257618279, 15.669914049, 0.0 ], [ 78.257617412, 15.669909079, 0.0 ], [ 78.257616527, 15.669904112, 0.0 ], [ 78.257615624, 15.669899149, 0.0 ], [ 78.257614702, 15.669894189, 0.0 ], [ 78.257613762, 15.669889232, 0.0 ], [ 78.257612803, 15.669884279, 0.0 ], [ 78.257611826, 15.66987933, 0.0 ], [ 78.257610831, 15.669874384, 0.0 ], [ 78.257609818, 15.669869442, 0.0 ], [ 78.257608787, 15.669864503, 0.0 ], [ 78.257607737, 15.669859569, 0.0 ], [ 78.257606669, 15.669854638, 0.0 ], [ 78.257605583, 15.669849711, 0.0 ], [ 78.257604479, 15.669844788, 0.0 ], [ 78.257603356, 15.66983987, 0.0 ], [ 78.257602216, 15.669834956, 0.0 ], [ 78.257601057, 15.669830045, 0.0 ], [ 78.25759988, 15.66982514, 0.0 ], [ 78.257598685, 15.669820238, 0.0 ], [ 78.257597472, 15.669815341, 0.0 ], [ 78.257596241, 15.669810449, 0.0 ], [ 78.257594992, 15.669805561, 0.0 ], [ 78.257593725, 15.669800677, 0.0 ], [ 78.25759244, 15.669795799, 0.0 ], [ 78.257591136, 15.669790925, 0.0 ], [ 78.257589815, 15.669786056, 0.0 ], [ 78.257588476, 15.669781192, 0.0 ], [ 78.257587119, 15.669776333, 0.0 ], [ 78.257585744, 15.669771479, 0.0 ], [ 78.257584351, 15.66976663, 0.0 ], [ 78.25758294, 15.669761786, 0.0 ], [ 78.257581512, 15.669756948, 0.0 ], [ 78.257580065, 15.669752115, 0.0 ], [ 78.257578601, 15.669747287, 0.0 ], [ 78.257577119, 15.669742464, 0.0 ], [ 78.257575619, 15.669737647, 0.0 ], [ 78.257574101, 15.669732836, 0.0 ], [ 78.257572566, 15.66972803, 0.0 ], [ 78.257571013, 15.66972323, 0.0 ], [ 78.257569442, 15.669718436, 0.0 ], [ 78.257567854, 15.669713648, 0.0 ], [ 78.257566247, 15.669708865, 0.0 ], [ 78.257564624, 15.669704089, 0.0 ], [ 78.257562982, 15.669699318, 0.0 ], [ 78.257561323, 15.669694554, 0.0 ], [ 78.257559647, 15.669689796, 0.0 ], [ 78.257557952, 15.669685043, 0.0 ], [ 78.257556241, 15.669680298, 0.0 ], [ 78.257554511, 15.669675558, 0.0 ], [ 78.257552765, 15.669670825, 0.0 ], [ 78.257551001, 15.669666099, 0.0 ], [ 78.257549219, 15.669661379, 0.0 ], [ 78.25754742, 15.669656665, 0.0 ], [ 78.257545604, 15.669651959, 0.0 ], [ 78.25754377, 15.669647259, 0.0 ], [ 78.257541919, 15.669642566, 0.0 ], [ 78.257540051, 15.669637879, 0.0 ], [ 78.257538165, 15.6696332, 0.0 ], [ 78.257536262, 15.669628528, 0.0 ], [ 78.257534342, 15.669623862, 0.0 ], [ 78.257532405, 15.669619204, 0.0 ], [ 78.25753045, 15.669614553, 0.0 ], [ 78.257528479, 15.669609909, 0.0 ], [ 78.25752649, 15.669605273, 0.0 ], [ 78.257524484, 15.669600644, 0.0 ], [ 78.257522461, 15.669596022, 0.0 ], [ 78.257520421, 15.669591408, 0.0 ], [ 78.257518364, 15.669586801, 0.0 ], [ 78.25751629, 15.669582202, 0.0 ], [ 78.257514199, 15.669577611, 0.0 ], [ 78.257512091, 15.669573027, 0.0 ], [ 78.257509967, 15.669568452, 0.0 ], [ 78.257507825, 15.669563884, 0.0 ], [ 78.257505667, 15.669559324, 0.0 ], [ 78.257503491, 15.669554772, 0.0 ], [ 78.257501299, 15.669550228, 0.0 ], [ 78.25749909, 15.669545692, 0.0 ], [ 78.257496865, 15.669541165, 0.0 ], [ 78.257494622, 15.669536645, 0.0 ], [ 78.257492364, 15.669532134, 0.0 ], [ 78.257490088, 15.669527632, 0.0 ], [ 78.257487796, 15.669523137, 0.0 ], [ 78.257485487, 15.669518652, 0.0 ], [ 78.257483162, 15.669514174, 0.0 ], [ 78.25748082, 15.669509706, 0.0 ], [ 78.257478462, 15.669505246, 0.0 ], [ 78.257476087, 15.669500795, 0.0 ], [ 78.257473696, 15.669496352, 0.0 ], [ 78.257471288, 15.669491919, 0.0 ], [ 78.257468865, 15.669487494, 0.0 ], [ 78.257466424, 15.669483079, 0.0 ], [ 78.257463968, 15.669478672, 0.0 ], [ 78.257461495, 15.669474274, 0.0 ], [ 78.257459006, 15.669469886, 0.0 ], [ 78.257456501, 15.669465507, 0.0 ], [ 78.25745398, 15.669461137, 0.0 ], [ 78.257451443, 15.669456777, 0.0 ], [ 78.25744889, 15.669452425, 0.0 ], [ 78.25744632, 15.669448084, 0.0 ], [ 78.257443735, 15.669443752, 0.0 ], [ 78.257441133, 15.669439429, 0.0 ], [ 78.257438516, 15.669435116, 0.0 ], [ 78.257435883, 15.669430813, 0.0 ], [ 78.257433234, 15.669426519, 0.0 ], [ 78.257430569, 15.669422236, 0.0 ], [ 78.257427888, 15.669417962, 0.0 ], [ 78.257425191, 15.669413698, 0.0 ], [ 78.257422479, 15.669409444, 0.0 ], [ 78.257419751, 15.6694052, 0.0 ], [ 78.257417008, 15.669400966, 0.0 ], [ 78.257414249, 15.669396742, 0.0 ], [ 78.257411474, 15.669392529, 0.0 ], [ 78.257408684, 15.669388326, 0.0 ], [ 78.257405878, 15.669384133, 0.0 ], [ 78.257403057, 15.669379951, 0.0 ], [ 78.25740022, 15.669375778, 0.0 ], [ 78.257397368, 15.669371617, 0.0 ], [ 78.257394501, 15.669367466, 0.0 ], [ 78.257391618, 15.669363326, 0.0 ], [ 78.25738872, 15.669359196, 0.0 ], [ 78.257385807, 15.669355077, 0.0 ], [ 78.257382879, 15.669350969, 0.0 ], [ 78.257379936, 15.669346871, 0.0 ], [ 78.257376977, 15.669342785, 0.0 ], [ 78.257374003, 15.669338709, 0.0 ], [ 78.257371015, 15.669334645, 0.0 ], [ 78.257368011, 15.669330591, 0.0 ], [ 78.257364993, 15.669326549, 0.0 ], [ 78.257361959, 15.669322518, 0.0 ], [ 78.257358911, 15.669318498, 0.0 ], [ 78.257355848, 15.669314489, 0.0 ], [ 78.25735277, 15.669310492, 0.0 ], [ 78.257349677, 15.669306506, 0.0 ], [ 78.25734657, 15.669302531, 0.0 ], [ 78.257343448, 15.669298568, 0.0 ], [ 78.257343448, 15.669298568, 0.0 ], [ 78.25564169, 15.666955086, 0.0 ], [ 78.255304191, 15.666470228, 0.0 ], [ 78.255304191, 15.666470228, 0.0 ], [ 78.255303076, 15.666468589, 0.0 ], [ 78.255301972, 15.666466943, 0.0 ], [ 78.255300878, 15.66646529, 0.0 ], [ 78.255299795, 15.66646363, 0.0 ], [ 78.255298722, 15.666461963, 0.0 ], [ 78.25529766, 15.666460289, 0.0 ], [ 78.255296608, 15.666458609, 0.0 ], [ 78.255295567, 15.666456922, 0.0 ], [ 78.255294537, 15.666455228, 0.0 ], [ 78.255293518, 15.666453528, 0.0 ], [ 78.25529251, 15.666451822, 0.0 ], [ 78.255291512, 15.666450109, 0.0 ], [ 78.255290526, 15.66644839, 0.0 ], [ 78.25528955, 15.666446664, 0.0 ], [ 78.255288585, 15.666444932, 0.0 ], [ 78.255287632, 15.666443195, 0.0 ], [ 78.255286689, 15.666441451, 0.0 ], [ 78.255285758, 15.666439701, 0.0 ], [ 78.255284837, 15.666437946, 0.0 ], [ 78.255283928, 15.666436184, 0.0 ], [ 78.25528303, 15.666434417, 0.0 ], [ 78.255282144, 15.666432644, 0.0 ], [ 78.255281268, 15.666430866, 0.0 ], [ 78.255280404, 15.666429082, 0.0 ], [ 78.255279552, 15.666427293, 0.0 ], [ 78.25527871, 15.666425498, 0.0 ], [ 78.255277881, 15.666423698, 0.0 ], [ 78.255277062, 15.666421892, 0.0 ], [ 78.255276255, 15.666420082, 0.0 ], [ 78.25527546, 15.666418266, 0.0 ], [ 78.255274676, 15.666416445, 0.0 ], [ 78.255273904, 15.66641462, 0.0 ], [ 78.255273143, 15.666412789, 0.0 ], [ 78.255272395, 15.666410954, 0.0 ], [ 78.255271657, 15.666409114, 0.0 ], [ 78.255270932, 15.66640727, 0.0 ], [ 78.255270218, 15.66640542, 0.0 ], [ 78.255269516, 15.666403567, 0.0 ], [ 78.255268826, 15.666401708, 0.0 ], [ 78.255268147, 15.666399846, 0.0 ], [ 78.255267481, 15.666397979, 0.0 ], [ 78.255266826, 15.666396108, 0.0 ], [ 78.255266184, 15.666394233, 0.0 ], [ 78.255265553, 15.666392354, 0.0 ], [ 78.255264934, 15.666390471, 0.0 ], [ 78.255264327, 15.666388584, 0.0 ], [ 78.255263732, 15.666386693, 0.0 ], [ 78.25526315, 15.666384798, 0.0 ], [ 78.255262579, 15.6663829, 0.0 ], [ 78.25526202, 15.666380998, 0.0 ], [ 78.255261474, 15.666379093, 0.0 ], [ 78.255260939, 15.666377184, 0.0 ], [ 78.255260417, 15.666375272, 0.0 ], [ 78.255259907, 15.666373357, 0.0 ], [ 78.255259409, 15.666371438, 0.0 ], [ 78.255258923, 15.666369516, 0.0 ], [ 78.25525845, 15.666367591, 0.0 ], [ 78.255257989, 15.666365664, 0.0 ], [ 78.25525754, 15.666363733, 0.0 ], [ 78.255257103, 15.666361799, 0.0 ], [ 78.255256679, 15.666359863, 0.0 ], [ 78.255256267, 15.666357924, 0.0 ], [ 78.255255867, 15.666355983, 0.0 ], [ 78.25525548, 15.666354039, 0.0 ], [ 78.255255105, 15.666352093, 0.0 ], [ 78.255254742, 15.666350144, 0.0 ], [ 78.255254392, 15.666348193, 0.0 ], [ 78.255254054, 15.66634624, 0.0 ], [ 78.255253729, 15.666344284, 0.0 ], [ 78.255253416, 15.666342327, 0.0 ], [ 78.255253116, 15.666340368, 0.0 ], [ 78.255252828, 15.666338406, 0.0 ], [ 78.255252552, 15.666336444, 0.0 ], [ 78.255252289, 15.666334479, 0.0 ], [ 78.255252038, 15.666332513, 0.0 ], [ 78.2552518, 15.666330545, 0.0 ], [ 78.255251575, 15.666328575, 0.0 ], [ 78.255251362, 15.666326605, 0.0 ], [ 78.255251162, 15.666324633, 0.0 ], [ 78.255250974, 15.666322659, 0.0 ], [ 78.255250798, 15.666320685, 0.0 ], [ 78.255250636, 15.66631871, 0.0 ], [ 78.255250485, 15.666316733, 0.0 ], [ 78.255250348, 15.666314756, 0.0 ], [ 78.255250223, 15.666312777, 0.0 ], [ 78.25525011, 15.666310798, 0.0 ], [ 78.25525001, 15.666308819, 0.0 ], [ 78.255249923, 15.666306838, 0.0 ], [ 78.255249848, 15.666304858, 0.0 ], [ 78.255249786, 15.666302876, 0.0 ], [ 78.255249737, 15.666300895, 0.0 ], [ 78.2552497, 15.666298913, 0.0 ], [ 78.255249675, 15.666296931, 0.0 ], [ 78.255249664, 15.666294949, 0.0 ], [ 78.255249665, 15.666292967, 0.0 ], [ 78.255249678, 15.666290985, 0.0 ], [ 78.255249704, 15.666289003, 0.0 ], [ 78.255249743, 15.666287021, 0.0 ], [ 78.255249794, 15.666285039, 0.0 ], [ 78.255249858, 15.666283058, 0.0 ], [ 78.255249935, 15.666281077, 0.0 ], [ 78.255250024, 15.666279097, 0.0 ], [ 78.255250125, 15.666277118, 0.0 ], [ 78.25525024, 15.666275139, 0.0 ], [ 78.255250367, 15.666273161, 0.0 ], [ 78.255250506, 15.666271183, 0.0 ], [ 78.255250658, 15.666269207, 0.0 ], [ 78.255250823, 15.666267232, 0.0 ], [ 78.255251, 15.666265257, 0.0 ], [ 78.255251189, 15.666263284, 0.0 ], [ 78.255251392, 15.666261312, 0.0 ], [ 78.255251606, 15.666259342, 0.0 ], [ 78.255251834, 15.666257373, 0.0 ], [ 78.255252073, 15.666255405, 0.0 ], [ 78.255252326, 15.666253439, 0.0 ], [ 78.255252591, 15.666251475, 0.0 ], [ 78.255252868, 15.666249512, 0.0 ], [ 78.255253158, 15.666247551, 0.0 ], [ 78.25525346, 15.666245592, 0.0 ], [ 78.255253775, 15.666243635, 0.0 ], [ 78.255254102, 15.66624168, 0.0 ], [ 78.255254441, 15.666239727, 0.0 ], [ 78.255254793, 15.666237776, 0.0 ], [ 78.255255158, 15.666235828, 0.0 ], [ 78.255255534, 15.666233882, 0.0 ], [ 78.255255923, 15.666231938, 0.0 ], [ 78.255256325, 15.666229997, 0.0 ], [ 78.255256739, 15.666228059, 0.0 ], [ 78.255257165, 15.666226123, 0.0 ], [ 78.255257603, 15.66622419, 0.0 ], [ 78.255258054, 15.66622226, 0.0 ], [ 78.255258517, 15.666220332, 0.0 ], [ 78.255258992, 15.666218408, 0.0 ], [ 78.255259479, 15.666216486, 0.0 ], [ 78.255259979, 15.666214568, 0.0 ], [ 78.255260491, 15.666212653, 0.0 ], [ 78.255261015, 15.666210742, 0.0 ], [ 78.255261551, 15.666208833, 0.0 ], [ 78.255262099, 15.666206928, 0.0 ], [ 78.25526266, 15.666205027, 0.0 ], [ 78.255263232, 15.666203129, 0.0 ], [ 78.255263817, 15.666201235, 0.0 ], [ 78.255264413, 15.666199345, 0.0 ], [ 78.255265022, 15.666197459, 0.0 ], [ 78.255265642, 15.666195576, 0.0 ], [ 78.255266275, 15.666193698, 0.0 ], [ 78.255266919, 15.666191823, 0.0 ], [ 78.255267575, 15.666189953, 0.0 ], [ 78.255268244, 15.666188086, 0.0 ], [ 78.255268924, 15.666186225, 0.0 ], [ 78.255269616, 15.666184367, 0.0 ], [ 78.255270319, 15.666182514, 0.0 ], [ 78.255271035, 15.666180665, 0.0 ], [ 78.255271762, 15.666178821, 0.0 ], [ 78.255272501, 15.666176982, 0.0 ], [ 78.255273251, 15.666175148, 0.0 ], [ 78.255274014, 15.666173318, 0.0 ], [ 78.255274787, 15.666171493, 0.0 ], [ 78.255275573, 15.666169673, 0.0 ], [ 78.25527637, 15.666167858, 0.0 ], [ 78.255277178, 15.666166048, 0.0 ], [ 78.255277998, 15.666164244, 0.0 ], [ 78.25527883, 15.666162444, 0.0 ], [ 78.255279673, 15.66616065, 0.0 ], [ 78.255280527, 15.666158862, 0.0 ], [ 78.255281393, 15.666157078, 0.0 ], [ 78.25528227, 15.666155301, 0.0 ], [ 78.255283158, 15.666153529, 0.0 ], [ 78.255284057, 15.666151762, 0.0 ], [ 78.255284968, 15.666150002, 0.0 ], [ 78.25528589, 15.666148247, 0.0 ], [ 78.255286823, 15.666146498, 0.0 ], [ 78.255287767, 15.666144755, 0.0 ], [ 78.255288722, 15.666143018, 0.0 ], [ 78.255289689, 15.666141288, 0.0 ], [ 78.255290666, 15.666139563, 0.0 ], [ 78.255291654, 15.666137845, 0.0 ], [ 78.255292653, 15.666136133, 0.0 ], [ 78.255293663, 15.666134427, 0.0 ], [ 78.255294684, 15.666132728, 0.0 ], [ 78.255294684, 15.666132728, 0.0 ], [ 78.255525655, 15.665596275, 0.0 ], [ 78.255633617, 15.666317164, 0.0 ], [ 78.25677801, 15.66656584, 0.0 ], [ 78.257935546, 15.666929626, 0.0 ], [ 78.25917661, 15.667151026, 0.0 ], [ 78.26001962, 15.667618743, 0.0 ], [ 78.260912573, 15.668221232, 0.0 ], [ 78.261641709, 15.668631964, 0.0 ], [ 78.262804927, 15.668921367, 0.0 ], [ 78.264526012, 15.669289118, 0.0 ], [ 78.26381891, 15.669987989, 0.0 ], [ 78.262941442, 15.669996051, 0.0 ], [ 78.263113061, 15.670379955, 0.0 ], [ 78.264420242, 15.671629558, 0.0 ], [ 78.265272861, 15.671405934, 0.0 ], [ 78.265419809, 15.671404537, 0.0 ], [ 78.267113169, 15.671388435, 0.0 ], [ 78.267199331, 15.672240575, 0.0 ], [ 78.268283867, 15.672674476, 0.0 ], [ 78.268814531, 15.672903434, 0.0 ], [ 78.268667666, 15.671957855, 0.0 ], [ 78.269892622, 15.671943423, 0.0 ], [ 78.269824859, 15.670374954, 0.0 ], [ 78.26980152, 15.669832559, 0.0 ], [ 78.269793949, 15.669700582, 0.0 ], [ 78.270117223, 15.66972166, 0.0 ], [ 78.271438449, 15.669477624, 0.0 ], [ 78.272293073, 15.669318631, 0.0 ], [ 78.280474432, 15.667796584, 0.0 ], [ 78.280835689, 15.667729376, 0.0 ], [ 78.280987812, 15.667730575, 0.0 ], [ 78.283452012, 15.667749988, 0.0 ], [ 78.284951411, 15.668166595, 0.0 ], [ 78.286637016, 15.668156451, 0.0 ], [ 78.286488294, 15.66827314, 0.0 ], [ 78.286168878, 15.669001227, 0.0 ], [ 78.28584371, 15.669729105, 0.0 ], [ 78.28621577, 15.669860099, 0.0 ], [ 78.286383677, 15.669976438, 0.0 ], [ 78.285907189, 15.669999242, 0.0 ], [ 78.285816929, 15.670594205, 0.0 ], [ 78.285616036, 15.670873075, 0.0 ], [ 78.285753792, 15.672876025, 0.0 ], [ 78.284562338, 15.673951279, 0.0 ], [ 78.283709832, 15.674330999, 0.0 ], [ 78.282811835, 15.674736503, 0.0 ], [ 78.282879829, 15.675078965, 0.0 ], [ 78.282432138, 15.675343726, 0.0 ], [ 78.281275539, 15.676093288, 0.0 ], [ 78.281314604, 15.676469786, 0.0 ], [ 78.280533992, 15.676650008, 0.0 ], [ 78.280472379, 15.676664233, 0.0 ], [ 78.279368264, 15.676589441, 0.0 ], [ 78.278828246, 15.676661875, 0.0 ], [ 78.277142862, 15.676137106, 0.0 ], [ 78.277292121, 15.674841384, 0.0 ], [ 78.276574311, 15.674934857, 0.0 ], [ 78.275857147, 15.674596768, 0.0 ], [ 78.27578493, 15.674282342, 0.0 ], [ 78.2753543, 15.674514143, 0.0 ], [ 78.275208082, 15.67460754, 0.0 ], [ 78.274377031, 15.675054741, 0.0 ], [ 78.274433309, 15.675235707, 0.0 ], [ 78.273633808, 15.676100799, 0.0 ], [ 78.272109236, 15.677289995, 0.0 ], [ 78.27174097, 15.677586633, 0.0 ], [ 78.271228382, 15.676801995, 0.0 ], [ 78.27075313, 15.675936823, 0.0 ], [ 78.270169156, 15.676279506, 0.0 ], [ 78.269754998, 15.676543807, 0.0 ], [ 78.269902455, 15.676987903, 0.0 ], [ 78.270147709, 15.677646547, 0.0 ], [ 78.270359977, 15.678354728, 0.0 ], [ 78.268723199, 15.678971875, 0.0 ], [ 78.268372169, 15.679104231, 0.0 ], [ 78.267985552, 15.677248877, 0.0 ], [ 78.267354237, 15.677057871, 0.0 ], [ 78.267257765, 15.677085487, 0.0 ], [ 78.266509815, 15.677299588, 0.0 ], [ 78.26667206, 15.677640434, 0.0 ], [ 78.265678917, 15.677774711, 0.0 ], [ 78.265846078, 15.678716211, 0.0 ], [ 78.266009779, 15.679670003, 0.0 ], [ 78.266231833, 15.680914169, 0.0 ], [ 78.266533506, 15.681616463, 0.0 ], [ 78.265888232, 15.681849976, 0.0 ], [ 78.265288837, 15.682066887, 0.0 ], [ 78.264744929, 15.68224194, 0.0 ], [ 78.264182738, 15.680824258, 0.0 ], [ 78.264098402, 15.680074095, 0.0 ], [ 78.264014065, 15.679323932, 0.0 ], [ 78.263914686, 15.679328588, 0.0 ], [ 78.263774934, 15.679445754, 0.0 ], [ 78.263642414, 15.679556856, 0.0 ], [ 78.263418289, 15.680051349, 0.0 ], [ 78.263184258, 15.681249548, 0.0 ], [ 78.262604215, 15.681894608, 0.0 ], [ 78.262459901, 15.681923, 0.0 ], [ 78.26153948, 15.677863088, 0.0 ], [ 78.260611106, 15.674562568, 0.0 ], [ 78.260087696, 15.673193027, 0.0 ], [ 78.259663531, 15.671932604, 0.0 ], [ 78.259112638, 15.671805277, 0.0 ], [ 78.257546834, 15.671691354, 0.0 ], [ 78.257458513, 15.67092138, 0.0 ], [ 78.257403363, 15.670916262, 0.0 ] ] ] } }
]
}
