{
"type": "FeatureCollection",
"name": "Area_Features___10_",
"crs": { "type": "name", "properties": { "name": "urn:ogc:def:crs:OGC:1.3:CRS84" } },
"features": [
{ "type": "Feature", "properties": { "Name": null, "description": "P.Road", "timestamp": null, "begin": null, "end": null, "altitudeMode": null, "tessellate": -1, "extrude": 1, "visibility": -1, "drawOrder": null, "icon": null }, "geometry": { "type": "Polygon", "coordinates": [ [ [ 78.066259362, 14.97692396, 0.0 ], [ 78.066990584, 14.980684561, 0.0 ], [ 78.067006701, 14.980767453, 0.0 ], [ 78.067645431, 14.981461466, 0.0 ], [ 78.067859329, 14.981693876, 0.0 ], [ 78.068084129, 14.981938131, 0.0 ], [ 78.069518222, 14.98349632, 0.0 ], [ 78.0696206, 14.983607555, 0.0 ], [ 78.070021993, 14.983866072, 0.0 ], [ 78.07020572, 14.983998053, 0.0 ], [ 78.071337717, 14.98481122, 0.0 ], [ 78.073240461, 14.984810618, 0.0 ], [ 78.074227962, 14.985707517, 0.0 ], [ 78.074760504, 14.986073602, 0.0 ], [ 78.068541034, 14.988732744, 0.0 ], [ 78.066468302, 14.988387464, 0.0 ], [ 78.063741571, 14.989344829, 0.0 ], [ 78.061808588, 14.990243943, 0.0 ], [ 78.061278694, 14.990457863, 0.0 ], [ 78.061148492, 14.990510425, 0.0 ], [ 78.060904882, 14.990608771, 0.0 ], [ 78.059573606, 14.990831141, 0.0 ], [ 78.054072837, 14.991989112, 0.0 ], [ 78.05089993, 14.992591899, 0.0 ], [ 78.050431684, 14.992657873, 0.0 ], [ 78.048198384, 14.992628926, 0.0 ], [ 78.047996537, 14.992626308, 0.0 ], [ 78.04751063, 14.99426033, 0.0 ], [ 78.046894252, 14.994235642, 0.0 ], [ 78.046220602, 14.994510817, 0.0 ], [ 78.042100122, 14.994364186, 0.0 ], [ 78.042106813, 14.992549857, 0.0 ], [ 78.042222403, 14.992138058, 0.0 ], [ 78.043017477, 14.989654593, 0.0 ], [ 78.0429278, 14.988515564, 0.0 ], [ 78.042916769, 14.988375456, 0.0 ], [ 78.042433696, 14.987928452, 0.0 ], [ 78.041147826, 14.986676731, 0.0 ], [ 78.040402546, 14.985930835, 0.0 ], [ 78.039575913, 14.985627981, 0.0 ], [ 78.038514496, 14.985239104, 0.0 ], [ 78.039430064, 14.980186987, 0.0 ], [ 78.039664904, 14.979338922, 0.0 ], [ 78.040246936, 14.977237022, 0.0 ], [ 78.04601668, 14.973766644, 0.0 ], [ 78.046815171, 14.973286347, 0.0 ], [ 78.047283644, 14.97264855, 0.0 ], [ 78.048312089, 14.972350607, 0.0 ], [ 78.04892162, 14.971894638, 0.0 ], [ 78.048929247, 14.971337881, 0.0 ], [ 78.048879411, 14.971195931, 0.0 ], [ 78.050652767, 14.971218883, 0.0 ], [ 78.052426126, 14.971241822, 0.0 ], [ 78.052479728, 14.972143321, 0.0 ], [ 78.052052281, 14.972892607, 0.0 ], [ 78.052074511, 14.973795343, 0.0 ], [ 78.052146926, 14.974096645, 0.0 ], [ 78.051251445, 14.974663691, 0.0 ], [ 78.051013124, 14.974854932, 0.0 ], [ 78.050811448, 14.97517049, 0.0 ], [ 78.051398733, 14.975142756, 0.0 ], [ 78.051492686, 14.975047876, 0.0 ], [ 78.053134344, 14.9740188, 0.0 ], [ 78.053529682, 14.973770978, 0.0 ], [ 78.053464784, 14.973654382, 0.0 ], [ 78.053448139, 14.972978409, 0.0 ], [ 78.053594806, 14.972712899, 0.0 ], [ 78.053878252, 14.972191386, 0.0 ], [ 78.053867292, 14.97161843, 0.0 ], [ 78.053827533, 14.971226227, 0.0 ], [ 78.054530619, 14.968972415, 0.0 ], [ 78.054614476, 14.968535603, 0.0 ], [ 78.054647731, 14.968175837, 0.0 ], [ 78.054660629, 14.96795261, 0.0 ], [ 78.055013562, 14.967624776, 0.0 ], [ 78.055278159, 14.967628784, 0.0 ], [ 78.055615933, 14.967315028, 0.0 ], [ 78.055675371, 14.967285295, 0.0 ], [ 78.056355915, 14.967002276, 0.0 ], [ 78.056630753, 14.967281899, 0.0 ], [ 78.057875463, 14.966125672, 0.0 ], [ 78.058028569, 14.965983448, 0.0 ], [ 78.058090126, 14.96532064, 0.0 ], [ 78.058143623, 14.964806264, 0.0 ], [ 78.058188714, 14.96426601, 0.0 ], [ 78.058357558, 14.963829735, 0.0 ], [ 78.057823611, 14.963157123, 0.0 ], [ 78.05701818, 14.962144403, 0.0 ], [ 78.055317482, 14.960703026, 0.0 ], [ 78.054990215, 14.960523332, 0.0 ], [ 78.054010741, 14.959985821, 0.0 ], [ 78.052201582, 14.958598877, 0.0 ], [ 78.051827039, 14.958180803, 0.0 ], [ 78.051830486, 14.957928711, 0.0 ], [ 78.051944917, 14.956489002, 0.0 ], [ 78.05219581, 14.95514597, 0.0 ], [ 78.051713192, 14.954805734, 0.0 ], [ 78.050823639, 14.954178701, 0.0 ], [ 78.050984682, 14.953128927, 0.0 ], [ 78.051027052, 14.952757857, 0.0 ], [ 78.051230516, 14.952048653, 0.0 ], [ 78.051874222, 14.951139014, 0.0 ], [ 78.052105532, 14.950368316, 0.0 ], [ 78.052108076, 14.950368089, 0.0 ], [ 78.052152903, 14.950218956, 0.0 ], [ 78.052609829, 14.949290885, 0.0 ], [ 78.052617192, 14.949275931, 0.0 ], [ 78.05292017, 14.948267955, 0.0 ], [ 78.052904835, 14.947361944, 0.0 ], [ 78.053135391, 14.946594894, 0.0 ], [ 78.053265377, 14.946200242, 0.0 ], [ 78.053408049, 14.945767068, 0.0 ], [ 78.053421162, 14.945727255, 0.0 ], [ 78.053432858, 14.945691746, 0.0 ], [ 78.053582193, 14.94471123, 0.0 ], [ 78.05361479, 14.943699567, 0.0 ], [ 78.053614841, 14.943698012, 0.0 ], [ 78.053621435, 14.943243055, 0.0 ], [ 78.053628009, 14.942789505, 0.0 ], [ 78.053307494, 14.942453925, 0.0 ], [ 78.052986979, 14.942118344, 0.0 ], [ 78.051457875, 14.940871836, 0.0 ], [ 78.049477395, 14.940654404, 0.0 ], [ 78.049727571, 14.939960331, 0.0 ], [ 78.050700614, 14.937260718, 0.0 ], [ 78.060654248, 14.936300874, 0.0 ], [ 78.063595104, 14.937823319, 0.0 ], [ 78.065931384, 14.937384508, 0.0 ], [ 78.066339423, 14.937307866, 0.0 ], [ 78.066454215, 14.937286304, 0.0 ], [ 78.068004532, 14.935624484, 0.0 ], [ 78.070209526, 14.935631233, 0.0 ], [ 78.071479742, 14.936597161, 0.0 ], [ 78.07420564, 14.939876808, 0.0 ], [ 78.074231704, 14.940977203, 0.0 ], [ 78.074223861, 14.940984434, 0.0 ], [ 78.074085369, 14.941068612, 0.0 ], [ 78.073999149, 14.941101603, 0.0 ], [ 78.073933994, 14.941151261, 0.0 ], [ 78.073784964, 14.94117011, 0.0 ], [ 78.073533123, 14.941302302, 0.0 ], [ 78.073400636, 14.941714611, 0.0 ], [ 78.07333548, 14.941789921, 0.0 ], [ 78.073253689, 14.941863934, 0.0 ], [ 78.073067048, 14.941987097, 0.0 ], [ 78.072849029, 14.942152759, 0.0 ], [ 78.072619215, 14.942316803, 0.0 ], [ 78.072567421, 14.942347598, 0.0 ], [ 78.072491129, 14.942272179, 0.0 ], [ 78.072185462, 14.941918118, 0.0 ], [ 78.072096304, 14.941506608, 0.0 ], [ 78.072063907, 14.941299486, 0.0 ], [ 78.072052603, 14.941037617, 0.0 ], [ 78.072051558, 14.941013414, 0.0 ], [ 78.071992199, 14.940978505, 0.0 ], [ 78.069243001, 14.941425047, 0.0 ], [ 78.069373013, 14.942116403, 0.0 ], [ 78.069085768, 14.942352778, 0.0 ], [ 78.06956229, 14.943122908, 0.0 ], [ 78.069732416, 14.944027568, 0.0 ], [ 78.069710362, 14.944042126, 0.0 ], [ 78.06944893, 14.944183475, 0.0 ], [ 78.069183415, 14.94429447, 0.0 ], [ 78.068886277, 14.94437571, 0.0 ], [ 78.068532263, 14.944457667, 0.0 ], [ 78.068369625, 14.944501721, 0.0 ], [ 78.068040522, 14.944597864, 0.0 ], [ 78.067790327, 14.944677046, 0.0 ], [ 78.067531289, 14.944767085, 0.0 ], [ 78.067196279, 14.944885107, 0.0 ], [ 78.066965977, 14.944978327, 0.0 ], [ 78.066812688, 14.945042743, 0.0 ], [ 78.066656008, 14.945107444, 0.0 ], [ 78.066301863, 14.945355158, 0.0 ], [ 78.063722491, 14.945433026, 0.0 ], [ 78.06009086, 14.944602966, 0.0 ], [ 78.062240746, 14.9458809, 0.0 ], [ 78.062547355, 14.946063152, 0.0 ], [ 78.061868192, 14.947172862, 0.0 ], [ 78.062690618, 14.948972479, 0.0 ], [ 78.063639867, 14.950923109, 0.0 ], [ 78.063681876, 14.951009434, 0.0 ], [ 78.0637554, 14.951160519, 0.0 ], [ 78.063818416, 14.951305406, 0.0 ], [ 78.063851245, 14.951566172, 0.0 ], [ 78.063938934, 14.951736143, 0.0 ], [ 78.063849856, 14.951842502, 0.0 ], [ 78.063921878, 14.953510606, 0.0 ], [ 78.063204712, 14.953623051, 0.0 ], [ 78.062663699, 14.953819617, 0.0 ], [ 78.062714054, 14.954128002, 0.0 ], [ 78.063207962, 14.954479945, 0.0 ], [ 78.062222142, 14.956142477, 0.0 ], [ 78.061457629, 14.956916774, 0.0 ], [ 78.059370091, 14.957112154, 0.0 ], [ 78.060876211, 14.958231433, 0.0 ], [ 78.061318692, 14.958262159, 0.0 ], [ 78.061526275, 14.958531614, 0.0 ], [ 78.062129563, 14.958760045, 0.0 ], [ 78.062462411, 14.959504811, 0.0 ], [ 78.062153485, 14.959867658, 0.0 ], [ 78.062578175, 14.96077694, 0.0 ], [ 78.063393406, 14.960698564, 0.0 ], [ 78.063608051, 14.961148863, 0.0 ], [ 78.063369765, 14.961638819, 0.0 ], [ 78.063978206, 14.962069443, 0.0 ], [ 78.064824195, 14.963064466, 0.0 ], [ 78.065273214, 14.963473484, 0.0 ], [ 78.065348323, 14.963648558, 0.0 ], [ 78.065425338, 14.963706191, 0.0 ], [ 78.065711342, 14.964331153, 0.0 ], [ 78.065525302, 14.964716632, 0.0 ], [ 78.065517718, 14.965272924, 0.0 ], [ 78.065625815, 14.965715394, 0.0 ], [ 78.06571115, 14.965843576, 0.0 ], [ 78.066302552, 14.966774958, 0.0 ], [ 78.066283881, 14.966888044, 0.0 ], [ 78.066255848, 14.967057837, 0.0 ], [ 78.066225158, 14.967211095, 0.0 ], [ 78.066219329, 14.967366297, 0.0 ], [ 78.066102191, 14.967512513, 0.0 ], [ 78.066100275, 14.967514904, 0.0 ], [ 78.066244997, 14.967959908, 0.0 ], [ 78.066273333, 14.968047038, 0.0 ], [ 78.066276088, 14.968047155, 0.0 ], [ 78.066793124, 14.968694722, 0.0 ], [ 78.066836971, 14.968859252, 0.0 ], [ 78.066750018, 14.968962496, 0.0 ], [ 78.066459608, 14.969307315, 0.0 ], [ 78.066400338, 14.969377689, 0.0 ], [ 78.066323395, 14.970252698, 0.0 ], [ 78.064303806, 14.971888384, 0.0 ], [ 78.063442383, 14.97334977, 0.0 ], [ 78.063284089, 14.97361831, 0.0 ], [ 78.062829785, 14.974389013, 0.0 ], [ 78.063339509, 14.974568869, 0.0 ], [ 78.064202636, 14.975473117, 0.0 ], [ 78.064538717, 14.975764494, 0.0 ], [ 78.064795608, 14.975533648, 0.0 ], [ 78.064989226, 14.976365992, 0.0 ], [ 78.066259362, 14.97692396, 0.0 ] ] ] } }
]
}
