{
"type": "FeatureCollection",
"name": "Area_Features___4_",
"crs": { "type": "name", "properties": { "name": "urn:ogc:def:crs:OGC:1.3:CRS84" } },
"features": [
{ "type": "Feature", "properties": { "Name": null, "description": "0", "timestamp": null, "begin": null, "end": null, "altitudeMode": null, "tessellate": -1, "extrude": 1, "visibility": -1, "drawOrder": null, "icon": null }, "geometry": { "type": "Polygon", "coordinates": [ [ [ 78.289958597, 14.957930401, 0.0 ], [ 78.290717485, 14.961618255, 0.0 ], [ 78.289561342, 14.963398346, 0.0 ], [ 78.281729198, 14.968388074, 0.0 ], [ 78.281692659, 14.968305444, 0.0 ], [ 78.28129303, 14.967401695, 0.0 ], [ 78.280636376, 14.965673373, 0.0 ], [ 78.278648181, 14.966034212, 0.0 ], [ 78.278655082, 14.966067194, 0.0 ], [ 78.278266455, 14.96612669, 0.0 ], [ 78.278572588, 14.967661475, 0.0 ], [ 78.27672418, 14.967750928, 0.0 ], [ 78.276828545, 14.968457962, 0.0 ], [ 78.276231136, 14.968241849, 0.0 ], [ 78.275456236, 14.96839514, 0.0 ], [ 78.271905395, 14.967636473, 0.0 ], [ 78.269960851, 14.967211708, 0.0 ], [ 78.269644898, 14.967318025, 0.0 ], [ 78.269317675, 14.967813886, 0.0 ], [ 78.268709537, 14.968151314, 0.0 ], [ 78.267948373, 14.967831287, 0.0 ], [ 78.267765603, 14.967899302, 0.0 ], [ 78.267660297, 14.968089971, 0.0 ], [ 78.26745893, 14.968208773, 0.0 ], [ 78.267304471, 14.968379114, 0.0 ], [ 78.267006535, 14.968099695, 0.0 ], [ 78.266840639, 14.968200049, 0.0 ], [ 78.264450794, 14.970332269, 0.0 ], [ 78.26369953, 14.970236024, 0.0 ], [ 78.263130843, 14.968828783, 0.0 ], [ 78.262340637, 14.96686338, 0.0 ], [ 78.262986086, 14.966579247, 0.0 ], [ 78.264854963, 14.966047047, 0.0 ], [ 78.266631866, 14.96547677, 0.0 ], [ 78.268473483, 14.964897326, 0.0 ], [ 78.270266746, 14.964364045, 0.0 ], [ 78.270270809, 14.964382516, 0.0 ], [ 78.271853477, 14.964270537, 0.0 ], [ 78.273957441, 14.963942396, 0.0 ], [ 78.275542688, 14.963678711, 0.0 ], [ 78.278401144, 14.962706026, 0.0 ], [ 78.278138531, 14.962349379, 0.0 ], [ 78.281670534, 14.960585101, 0.0 ], [ 78.283338765, 14.959807871, 0.0 ], [ 78.284172128, 14.958574647, 0.0 ], [ 78.28575987, 14.956619115, 0.0 ], [ 78.286043145, 14.955912617, 0.0 ], [ 78.286541695, 14.955198786, 0.0 ], [ 78.286936205, 14.954333663, 0.0 ], [ 78.287375167, 14.952695734, 0.0 ], [ 78.287287068, 14.951691941, 0.0 ], [ 78.287403136, 14.951653026, 0.0 ], [ 78.287237231, 14.951142429, 0.0 ], [ 78.289082892, 14.949198671, 0.0 ], [ 78.289143652, 14.949168745, 0.0 ], [ 78.291055959, 14.948222914, 0.0 ], [ 78.293393409, 14.948305246, 0.0 ], [ 78.293991961, 14.94843442, 0.0 ], [ 78.293871224, 14.949842993, 0.0 ], [ 78.294011923, 14.950928205, 0.0 ], [ 78.293736219, 14.95281029, 0.0 ], [ 78.293431296, 14.953336915, 0.0 ], [ 78.292866632, 14.954165287, 0.0 ], [ 78.291749732, 14.955637504, 0.0 ], [ 78.290517657, 14.957031646, 0.0 ], [ 78.289958597, 14.957930401, 0.0 ] ] ] } },
{ "type": "Feature", "properties": { "Name": null, "description": "0", "timestamp": null, "begin": null, "end": null, "altitudeMode": null, "tessellate": -1, "extrude": 1, "visibility": -1, "drawOrder": null, "icon": null }, "geometry": { "type": "Polygon", "coordinates": [ [ [ 78.29558802, 14.955691791, 0.0 ], [ 78.295236301, 14.956626917, 0.0 ], [ 78.295036714, 14.957150309, 0.0 ], [ 78.294807817, 14.95775186, 0.0 ], [ 78.294745997, 14.957946673, 0.0 ], [ 78.294917485, 14.958755843, 0.0 ], [ 78.295293813, 14.959157452, 0.0 ], [ 78.295567755, 14.959463945, 0.0 ], [ 78.294880929, 14.959229564, 0.0 ], [ 78.294239146, 14.95907092, 0.0 ], [ 78.293528092, 14.958911463, 0.0 ], [ 78.293001532, 14.958831511, 0.0 ], [ 78.29196445, 14.958554492, 0.0 ], [ 78.291314473, 14.958380875, 0.0 ], [ 78.293086615, 14.954762276, 0.0 ], [ 78.294261799, 14.953114418, 0.0 ], [ 78.294544543, 14.950908768, 0.0 ], [ 78.294310529, 14.948503169, 0.0 ], [ 78.297121286, 14.949109733, 0.0 ], [ 78.296796261, 14.947858981, 0.0 ], [ 78.298255751, 14.94790272, 0.0 ], [ 78.298014939, 14.948545999, 0.0 ], [ 78.297938754, 14.950352348, 0.0 ], [ 78.297969696, 14.951442139, 0.0 ], [ 78.297358456, 14.951452105, 0.0 ], [ 78.296716079, 14.952508939, 0.0 ], [ 78.296631114, 14.952853803, 0.0 ], [ 78.296449059, 14.953695936, 0.0 ], [ 78.296445972, 14.953931212, 0.0 ], [ 78.296066265, 14.954497544, 0.0 ], [ 78.295974596, 14.954647126, 0.0 ], [ 78.295792574, 14.95497462, 0.0 ], [ 78.29558802, 14.955691791, 0.0 ] ] ] } },
{ "type": "Feature", "properties": { "Name": null, "description": "0", "timestamp": null, "begin": null, "end": null, "altitudeMode": null, "tessellate": -1, "extrude": 1, "visibility": -1, "drawOrder": null, "icon": null }, "geometry": { "type": "Polygon", "coordinates": [ [ [ 78.237717773, 14.958775001, 0.0 ], [ 78.238044439, 14.959875428, 0.0 ], [ 78.238491929, 14.961394011, 0.0 ], [ 78.238491934, 14.961394033, 0.0 ], [ 78.238491929, 14.961394009, 0.0 ], [ 78.239633893, 14.961052993, 0.0 ], [ 78.241013496, 14.9606706, 0.0 ], [ 78.242369876, 14.960286779, 0.0 ], [ 78.244701453, 14.959622549, 0.0 ], [ 78.245904948, 14.959281504, 0.0 ], [ 78.245976818, 14.959603785, 0.0 ], [ 78.245434472, 14.959744053, 0.0 ], [ 78.245014832, 14.959873008, 0.0 ], [ 78.244803169, 14.959934304, 0.0 ], [ 78.24457369, 14.960143824, 0.0 ], [ 78.244614188, 14.960300108, 0.0 ], [ 78.244284319, 14.96063939, 0.0 ], [ 78.244253891, 14.960780425, 0.0 ], [ 78.24428973, 14.960998899, 0.0 ], [ 78.244394372, 14.961195745, 0.0 ], [ 78.244423456, 14.96143085, 0.0 ], [ 78.244419713, 14.96170045, 0.0 ], [ 78.244492656, 14.961980867, 0.0 ], [ 78.244539669, 14.962012686, 0.0 ], [ 78.244693507, 14.962230449, 0.0 ], [ 78.245122703, 14.96294972, 0.0 ], [ 78.245828081, 14.964037665, 0.0 ], [ 78.246265824, 14.963928971, 0.0 ], [ 78.246559537, 14.964856319, 0.0 ], [ 78.246788625, 14.964769387, 0.0 ], [ 78.247014613, 14.964682436, 0.0 ], [ 78.246930879, 14.964241274, 0.0 ], [ 78.247204019, 14.964192279, 0.0 ], [ 78.247208949, 14.963883421, 0.0 ], [ 78.247576789, 14.963870037, 0.0 ], [ 78.247643094, 14.964306352, 0.0 ], [ 78.247941437, 14.965082925, 0.0 ], [ 78.248601159, 14.965128098, 0.0 ], [ 78.248495234, 14.964379977, 0.0 ], [ 78.249724388, 14.964232062, 0.0 ], [ 78.249807103, 14.964595484, 0.0 ], [ 78.250580577, 14.964379484, 0.0 ], [ 78.250671079, 14.963919149, 0.0 ], [ 78.251027196, 14.963272149, 0.0 ], [ 78.251247888, 14.963256166, 0.0 ], [ 78.251474583, 14.963397443, 0.0 ], [ 78.251537788, 14.964307519, 0.0 ], [ 78.251948906, 14.964266744, 0.0 ], [ 78.251985499, 14.964075368, 0.0 ], [ 78.252144271, 14.964011861, 0.0 ], [ 78.252052947, 14.963556709, 0.0 ], [ 78.252177617, 14.96351956, 0.0 ], [ 78.252128057, 14.962827386, 0.0 ], [ 78.251979514, 14.962392308, 0.0 ], [ 78.252038131, 14.962242468, 0.0 ], [ 78.253010142, 14.962532883, 0.0 ], [ 78.253556199, 14.962537751, 0.0 ], [ 78.254468032, 14.962526591, 0.0 ], [ 78.25451425, 14.961996608, 0.0 ], [ 78.254459616, 14.961840249, 0.0 ], [ 78.254378111, 14.961533645, 0.0 ], [ 78.253744813, 14.961202271, 0.0 ], [ 78.253571451, 14.961051453, 0.0 ], [ 78.252915442, 14.960528197, 0.0 ], [ 78.252511095, 14.959758822, 0.0 ], [ 78.25208745, 14.959708673, 0.0 ], [ 78.252088666, 14.959379589, 0.0 ], [ 78.251666567, 14.958986753, 0.0 ], [ 78.251634841, 14.95894983, 0.0 ], [ 78.250029827, 14.958784932, 0.0 ], [ 78.249054934, 14.95869537, 0.0 ], [ 78.248997255, 14.958471624, 0.0 ], [ 78.25072609, 14.958014153, 0.0 ], [ 78.252003657, 14.957695528, 0.0 ], [ 78.253486809, 14.957567129, 0.0 ], [ 78.254676359, 14.957481422, 0.0 ], [ 78.25545094, 14.957409917, 0.0 ], [ 78.257336855, 14.957410011, 0.0 ], [ 78.258576788, 14.957414441, 0.0 ], [ 78.258828206, 14.95735886, 0.0 ], [ 78.260154055, 14.957072983, 0.0 ], [ 78.260220639, 14.957068765, 0.0 ], [ 78.259826416, 14.956240386, 0.0 ], [ 78.259000089, 14.954614364, 0.0 ], [ 78.25769068, 14.951875929, 0.0 ], [ 78.259576252, 14.950928773, 0.0 ], [ 78.263001073, 14.95040378, 0.0 ], [ 78.26322441, 14.950135946, 0.0 ], [ 78.263920799, 14.949165331, 0.0 ], [ 78.265464203, 14.947061501, 0.0 ], [ 78.267154304, 14.94407412, 0.0 ], [ 78.267754926, 14.94533764, 0.0 ], [ 78.268845582, 14.947553457, 0.0 ], [ 78.26903038, 14.947468365, 0.0 ], [ 78.269321526, 14.947269074, 0.0 ], [ 78.269497453, 14.947125983, 0.0 ], [ 78.270275187, 14.94680189, 0.0 ], [ 78.270405377, 14.946782793, 0.0 ], [ 78.270476728, 14.946732559, 0.0 ], [ 78.270546543, 14.946702296, 0.0 ], [ 78.271219232, 14.946410699, 0.0 ], [ 78.271814376, 14.946152715, 0.0 ], [ 78.272660412, 14.946375706, 0.0 ], [ 78.272873628, 14.946436558, 0.0 ], [ 78.27329874, 14.946568063, 0.0 ], [ 78.273371433, 14.94659055, 0.0 ], [ 78.273807588, 14.946711279, 0.0 ], [ 78.274065746, 14.946745113, 0.0 ], [ 78.274505931, 14.947096535, 0.0 ], [ 78.274722173, 14.947270113, 0.0 ], [ 78.276303265, 14.948551889, 0.0 ], [ 78.276409135, 14.948637539, 0.0 ], [ 78.276829727, 14.948977803, 0.0 ], [ 78.277148895, 14.949209657, 0.0 ], [ 78.277343373, 14.949349222, 0.0 ], [ 78.277898572, 14.949802334, 0.0 ], [ 78.278464926, 14.950247734, 0.0 ], [ 78.279230109, 14.950876636, 0.0 ], [ 78.27987, 14.951401651, 0.0 ], [ 78.280535817, 14.951941519, 0.0 ], [ 78.281257177, 14.952514406, 0.0 ], [ 78.281881972, 14.953009632, 0.0 ], [ 78.282574513, 14.953593812, 0.0 ], [ 78.283799752, 14.954552592, 0.0 ], [ 78.281543738, 14.957349783, 0.0 ], [ 78.280876891, 14.958075717, 0.0 ], [ 78.280531158, 14.958244788, 0.0 ], [ 78.276461417, 14.960126353, 0.0 ], [ 78.276631313, 14.960352303, 0.0 ], [ 78.274424759, 14.961148907, 0.0 ], [ 78.272554372, 14.961517897, 0.0 ], [ 78.272148796, 14.961468732, 0.0 ], [ 78.271893445, 14.960916312, 0.0 ], [ 78.270542061, 14.960888679, 0.0 ], [ 78.270526868, 14.96010921, 0.0 ], [ 78.27157173, 14.960220314, 0.0 ], [ 78.271434984, 14.959924478, 0.0 ], [ 78.270572016, 14.958894535, 0.0 ], [ 78.270323248, 14.95801862, 0.0 ], [ 78.270908666, 14.95786378, 0.0 ], [ 78.27061898, 14.95697072, 0.0 ], [ 78.270043679, 14.957119301, 0.0 ], [ 78.269694812, 14.955938033, 0.0 ], [ 78.269601396, 14.955621725, 0.0 ], [ 78.270136792, 14.955373242, 0.0 ], [ 78.26928105, 14.953688388, 0.0 ], [ 78.26755663, 14.954562552, 0.0 ], [ 78.265814692, 14.955405825, 0.0 ], [ 78.264038878, 14.956253584, 0.0 ], [ 78.264863347, 14.957964695, 0.0 ], [ 78.265392063, 14.959287164, 0.0 ], [ 78.26578138, 14.960248879, 0.0 ], [ 78.265699419, 14.960300271, 0.0 ], [ 78.264437788, 14.960847954, 0.0 ], [ 78.264858394, 14.961638741, 0.0 ], [ 78.264513979, 14.962122781, 0.0 ], [ 78.264111563, 14.962924382, 0.0 ], [ 78.262455732, 14.963003035, 0.0 ], [ 78.262220771, 14.963002469, 0.0 ], [ 78.261374152, 14.963000427, 0.0 ], [ 78.260881377, 14.963211895, 0.0 ], [ 78.259834237, 14.96331531, 0.0 ], [ 78.259609945, 14.962743488, 0.0 ], [ 78.261199995, 14.962599643, 0.0 ], [ 78.261191876, 14.961833946, 0.0 ], [ 78.259871377, 14.961663834, 0.0 ], [ 78.258650768, 14.961622297, 0.0 ], [ 78.258560529, 14.962055865, 0.0 ], [ 78.258521096, 14.962390676, 0.0 ], [ 78.258508399, 14.962496142, 0.0 ], [ 78.257654491, 14.962693227, 0.0 ], [ 78.257404336, 14.962740764, 0.0 ], [ 78.257452889, 14.963116194, 0.0 ], [ 78.257484844, 14.963700038, 0.0 ], [ 78.257213571, 14.963936968, 0.0 ], [ 78.257294561, 14.964237824, 0.0 ], [ 78.255688959, 14.96459163, 0.0 ], [ 78.254342062, 14.964958312, 0.0 ], [ 78.254467827, 14.965356479, 0.0 ], [ 78.254235754, 14.965802771, 0.0 ], [ 78.253849516, 14.966210467, 0.0 ], [ 78.253012667, 14.966124636, 0.0 ], [ 78.252197275, 14.966671807, 0.0 ], [ 78.251900566, 14.966715764, 0.0 ], [ 78.251489172, 14.966349942, 0.0 ], [ 78.248871336, 14.966349942, 0.0 ], [ 78.24781991, 14.966135365, 0.0 ], [ 78.246865044, 14.966199738, 0.0 ], [ 78.246178398, 14.966113908, 0.0 ], [ 78.245759974, 14.966285569, 0.0 ], [ 78.245405922, 14.966446502, 0.0 ], [ 78.244070182, 14.966521603, 0.0 ], [ 78.243024121, 14.966650349, 0.0 ], [ 78.242219458, 14.966875655, 0.0 ], [ 78.241599357, 14.966981437, 0.0 ], [ 78.241583319, 14.966869561, 0.0 ], [ 78.241485945, 14.966122322, 0.0 ], [ 78.241088007, 14.966059605, 0.0 ], [ 78.240720485, 14.96606978, 0.0 ], [ 78.24056319, 14.965513411, 0.0 ], [ 78.240364471, 14.964743804, 0.0 ], [ 78.240630871, 14.964702487, 0.0 ], [ 78.240585646, 14.964358438, 0.0 ], [ 78.239892702, 14.964250905, 0.0 ], [ 78.239397174, 14.964434194, 0.0 ], [ 78.239322472, 14.964467212, 0.0 ], [ 78.23882315, 14.964595923, 0.0 ], [ 78.238734056, 14.964483297, 0.0 ], [ 78.238592747, 14.964312904, 0.0 ], [ 78.23820699, 14.964230223, 0.0 ], [ 78.23780985, 14.964284515, 0.0 ], [ 78.237336131, 14.964684312, 0.0 ], [ 78.237460186, 14.965236365, 0.0 ], [ 78.237185022, 14.966133639, 0.0 ], [ 78.236505162, 14.966430795, 0.0 ], [ 78.236199999, 14.966274169, 0.0 ], [ 78.235726583, 14.965759221, 0.0 ], [ 78.235588733, 14.965753272, 0.0 ], [ 78.235389756, 14.96537707, 0.0 ], [ 78.234972129, 14.965314609, 0.0 ], [ 78.234521518, 14.964982015, 0.0 ], [ 78.234285484, 14.964563591, 0.0 ], [ 78.234103093, 14.964590413, 0.0 ], [ 78.233974347, 14.965207321, 0.0 ], [ 78.233781228, 14.965357525, 0.0 ], [ 78.233132134, 14.965641839, 0.0 ], [ 78.233191142, 14.965775949, 0.0 ], [ 78.233357439, 14.965915424, 0.0 ], [ 78.233582745, 14.966248018, 0.0 ], [ 78.233502279, 14.966430408, 0.0 ], [ 78.233287702, 14.966585976, 0.0 ], [ 78.232777367, 14.966849375, 0.0 ], [ 78.232622514, 14.966929299, 0.0 ], [ 78.232483039, 14.967106325, 0.0 ], [ 78.232493768, 14.967353088, 0.0 ], [ 78.232536683, 14.967556936, 0.0 ], [ 78.232595692, 14.967712504, 0.0 ], [ 78.232316742, 14.967739326, 0.0 ], [ 78.231968055, 14.96770714, 0.0 ], [ 78.230936868, 14.96771526, 0.0 ], [ 78.229695647, 14.966294224, 0.0 ], [ 78.22925116, 14.96529844, 0.0 ], [ 78.229243706, 14.964667385, 0.0 ], [ 78.22896581, 14.963509954, 0.0 ], [ 78.229381036, 14.963220563, 0.0 ], [ 78.230270411, 14.962841449, 0.0 ], [ 78.230914439, 14.963109686, 0.0 ], [ 78.232077089, 14.963232982, 0.0 ], [ 78.232123209, 14.962639475, 0.0 ], [ 78.23077322, 14.959719086, 0.0 ], [ 78.228264101, 14.960346884, 0.0 ], [ 78.227023649, 14.961139153, 0.0 ], [ 78.226628109, 14.960677321, 0.0 ], [ 78.224322963, 14.959324522, 0.0 ], [ 78.224416179, 14.961275123, 0.0 ], [ 78.225149515, 14.963020231, 0.0 ], [ 78.227795412, 14.96233876, 0.0 ], [ 78.227937148, 14.964042296, 0.0 ], [ 78.226817053, 14.964582156, 0.0 ], [ 78.226087324, 14.964900235, 0.0 ], [ 78.226192602, 14.965303899, 0.0 ], [ 78.226385525, 14.96586928, 0.0 ], [ 78.226597269, 14.966651749, 0.0 ], [ 78.227132429, 14.967012946, 0.0 ], [ 78.227263579, 14.967382121, 0.0 ], [ 78.228152794, 14.96824571, 0.0 ], [ 78.229199035, 14.96943576, 0.0 ], [ 78.228846212, 14.969707103, 0.0 ], [ 78.229239712, 14.970574958, 0.0 ], [ 78.228912482, 14.970617873, 0.0 ], [ 78.228617439, 14.970703704, 0.0 ], [ 78.22829021, 14.970971925, 0.0 ], [ 78.228118549, 14.971030933, 0.0 ], [ 78.227753768, 14.971127493, 0.0 ], [ 78.227523098, 14.971186501, 0.0 ], [ 78.227190504, 14.971256239, 0.0 ], [ 78.226911554, 14.971224052, 0.0 ], [ 78.226782808, 14.971315247, 0.0 ], [ 78.226734529, 14.971395714, 0.0 ], [ 78.226471672, 14.972608072, 0.0 ], [ 78.226198087, 14.973364455, 0.0 ], [ 78.225913773, 14.974094016, 0.0 ], [ 78.225361238, 14.974780661, 0.0 ], [ 78.224658499, 14.975585324, 0.0 ], [ 78.224197925, 14.976224827, 0.0 ], [ 78.223912845, 14.976620657, 0.0 ], [ 78.223478327, 14.977157099, 0.0 ], [ 78.223135004, 14.977763278, 0.0 ], [ 78.222997177, 14.97796282, 0.0 ], [ 78.222512699, 14.977931613, 0.0 ], [ 78.220758792, 14.977786282, 0.0 ], [ 78.219309722, 14.977677272, 0.0 ], [ 78.218236688, 14.977602803, 0.0 ], [ 78.217485677, 14.9775514, 0.0 ], [ 78.214679143, 14.976920716, 0.0 ], [ 78.212298594, 14.979688636, 0.0 ], [ 78.210759147, 14.982099387, 0.0 ], [ 78.209451808, 14.98087653, 0.0 ], [ 78.20871399, 14.981117526, 0.0 ], [ 78.206526135, 14.976431294, 0.0 ], [ 78.20577348, 14.974714451, 0.0 ], [ 78.208234525, 14.975349982, 0.0 ], [ 78.2102316, 14.975726084, 0.0 ], [ 78.210838199, 14.975617439, 0.0 ], [ 78.210601416, 14.974670671, 0.0 ], [ 78.208089814, 14.974067999, 0.0 ], [ 78.204940625, 14.97289038, 0.0 ], [ 78.203928273, 14.969518038, 0.0 ], [ 78.203270759, 14.967745684, 0.0 ], [ 78.201477349, 14.963805216, 0.0 ], [ 78.200873619, 14.961327744, 0.0 ], [ 78.201233035, 14.959691597, 0.0 ], [ 78.201506621, 14.958489967, 0.0 ], [ 78.201597816, 14.95791061, 0.0 ], [ 78.202275306, 14.955372432, 0.0 ], [ 78.201974701, 14.955498514, 0.0 ], [ 78.200307464, 14.956418048, 0.0 ], [ 78.196675702, 14.957935147, 0.0 ], [ 78.195013901, 14.958640155, 0.0 ], [ 78.192566351, 14.959592886, 0.0 ], [ 78.191206177, 14.96009154, 0.0 ], [ 78.190363516, 14.960423468, 0.0 ], [ 78.186251497, 14.961968133, 0.0 ], [ 78.183983597, 14.962878025, 0.0 ], [ 78.183581915, 14.963025542, 0.0 ], [ 78.182258295, 14.963508463, 0.0 ], [ 78.180554913, 14.963700652, 0.0 ], [ 78.179730762, 14.96378523, 0.0 ], [ 78.176959617, 14.964005187, 0.0 ], [ 78.176557617, 14.964239278, 0.0 ], [ 78.174082129, 14.9640942, 0.0 ], [ 78.170823639, 14.963937193, 0.0 ], [ 78.169034211, 14.963719454, 0.0 ], [ 78.166778888, 14.963682666, 0.0 ], [ 78.165011718, 14.963460443, 0.0 ], [ 78.162862293, 14.963186496, 0.0 ], [ 78.159771388, 14.962816185, 0.0 ], [ 78.15883915, 14.962723964, 0.0 ], [ 78.157906913, 14.96263174, 0.0 ], [ 78.157470666, 14.962588584, 0.0 ], [ 78.157556884, 14.961682314, 0.0 ], [ 78.1578528, 14.961482595, 0.0 ], [ 78.158578244, 14.961072824, 0.0 ], [ 78.15900752, 14.960821665, 0.0 ], [ 78.159425489, 14.960584779, 0.0 ], [ 78.160194144, 14.957427821, 0.0 ], [ 78.160121187, 14.958578523, 0.0 ], [ 78.160310911, 14.959013667, 0.0 ], [ 78.160356246, 14.959801193, 0.0 ], [ 78.16066681, 14.960522588, 0.0 ], [ 78.16068164, 14.960601032, 0.0 ], [ 78.160668719, 14.961348884, 0.0 ], [ 78.161631038, 14.960866011, 0.0 ], [ 78.163084758, 14.96051133, 0.0 ], [ 78.164512415, 14.959820522, 0.0 ], [ 78.164708236, 14.959717734, 0.0 ], [ 78.164895757, 14.959630046, 0.0 ], [ 78.164946576, 14.959728083, 0.0 ], [ 78.166467167, 14.959845483, 0.0 ], [ 78.166546003, 14.959851585, 0.0 ], [ 78.167048721, 14.959397615, 0.0 ], [ 78.168197673, 14.959095295, 0.0 ], [ 78.169520464, 14.958747224, 0.0 ], [ 78.170738668, 14.958668144, 0.0 ], [ 78.171716451, 14.958604666, 0.0 ], [ 78.17401615, 14.95838471, 0.0 ], [ 78.174202276, 14.958250916, 0.0 ], [ 78.174497857, 14.958247794, 0.0 ], [ 78.174572553, 14.958238123, 0.0 ], [ 78.175966267, 14.95809436, 0.0 ], [ 78.176622171, 14.958247158, 0.0 ], [ 78.176875485, 14.958286366, 0.0 ], [ 78.177347558, 14.958129947, 0.0 ], [ 78.178931481, 14.95815838, 0.0 ], [ 78.179743442, 14.958166349, 0.0 ], [ 78.180461908, 14.958199205, 0.0 ], [ 78.181354138, 14.958331956, 0.0 ], [ 78.18194155, 14.958408969, 0.0 ], [ 78.182051558, 14.958943656, 0.0 ], [ 78.182694865, 14.958995402, 0.0 ], [ 78.183254151, 14.958989119, 0.0 ], [ 78.183910758, 14.95907173, 0.0 ], [ 78.184343589, 14.959115595, 0.0 ], [ 78.184388227, 14.958898415, 0.0 ], [ 78.185449481, 14.95911585, 0.0 ], [ 78.186487988, 14.959336214, 0.0 ], [ 78.187672134, 14.958897903, 0.0 ], [ 78.190099537, 14.957939778, 0.0 ], [ 78.190222676, 14.957339843, 0.0 ], [ 78.189922253, 14.956918759, 0.0 ], [ 78.189851501, 14.956828806, 0.0 ], [ 78.189058971, 14.956720711, 0.0 ], [ 78.188990283, 14.95616893, 0.0 ], [ 78.189804833, 14.956323532, 0.0 ], [ 78.19077821, 14.956315483, 0.0 ], [ 78.19058836, 14.955810963, 0.0 ], [ 78.18916148, 14.955507847, 0.0 ], [ 78.189077737, 14.955216727, 0.0 ], [ 78.187816357, 14.955103471, 0.0 ], [ 78.187747215, 14.953718303, 0.0 ], [ 78.187750815, 14.953632396, 0.0 ], [ 78.18769838, 14.953365576, 0.0 ], [ 78.18787356, 14.952544679, 0.0 ], [ 78.186693872, 14.952921164, 0.0 ], [ 78.186118365, 14.953103189, 0.0 ], [ 78.185892709, 14.953220207, 0.0 ], [ 78.185674448, 14.953561089, 0.0 ], [ 78.185302436, 14.953250679, 0.0 ], [ 78.185067107, 14.952862677, 0.0 ], [ 78.184777799, 14.952813057, 0.0 ], [ 78.183365497, 14.953091906, 0.0 ], [ 78.183008763, 14.952764239, 0.0 ], [ 78.18248118, 14.952939646, 0.0 ], [ 78.182613832, 14.95249461, 0.0 ], [ 78.183018349, 14.952310996, 0.0 ], [ 78.182727314, 14.951158284, 0.0 ], [ 78.182259091, 14.951208203, 0.0 ], [ 78.177986034, 14.952765183, 0.0 ], [ 78.177365933, 14.95290273, 0.0 ], [ 78.177081066, 14.952718736, 0.0 ], [ 78.176691512, 14.952725809, 0.0 ], [ 78.175875587, 14.952703883, 0.0 ], [ 78.175906176, 14.952948472, 0.0 ], [ 78.175189196, 14.952588066, 0.0 ], [ 78.174738281, 14.952865176, 0.0 ], [ 78.173949423, 14.952900414, 0.0 ], [ 78.173866263, 14.952513814, 0.0 ], [ 78.173815785, 14.952138015, 0.0 ], [ 78.173609893, 14.95215782, 0.0 ], [ 78.173327104, 14.952584851, 0.0 ], [ 78.173227114, 14.95277271, 0.0 ], [ 78.172940729, 14.953026451, 0.0 ], [ 78.172741077, 14.952886875, 0.0 ], [ 78.172353186, 14.952985332, 0.0 ], [ 78.172173705, 14.953012623, 0.0 ], [ 78.172276598, 14.953270879, 0.0 ], [ 78.171310256, 14.953368067, 0.0 ], [ 78.171180886, 14.953331851, 0.0 ], [ 78.171066816, 14.953310636, 0.0 ], [ 78.170906339, 14.953268102, 0.0 ], [ 78.170837544, 14.953087381, 0.0 ], [ 78.170298168, 14.95317329, 0.0 ], [ 78.170062992, 14.952643579, 0.0 ], [ 78.170820974, 14.952255115, 0.0 ], [ 78.172761604, 14.95130422, 0.0 ], [ 78.174215352, 14.95046821, 0.0 ], [ 78.17599974, 14.949148305, 0.0 ], [ 78.177748255, 14.948156711, 0.0 ], [ 78.179175474, 14.947386097, 0.0 ], [ 78.179284107, 14.94672804, 0.0 ], [ 78.179549069, 14.94663148, 0.0 ], [ 78.180141604, 14.946446205, 0.0 ], [ 78.181055785, 14.94612454, 0.0 ], [ 78.182143628, 14.945758649, 0.0 ], [ 78.182365942, 14.94573674, 0.0 ], [ 78.18468682, 14.945548291, 0.0 ], [ 78.185547538, 14.945450506, 0.0 ], [ 78.185295699, 14.94560166, 0.0 ], [ 78.184781521, 14.945697677, 0.0 ], [ 78.184407752, 14.945919262, 0.0 ], [ 78.183862491, 14.946162445, 0.0 ], [ 78.183977801, 14.94707509, 0.0 ], [ 78.183559828, 14.947645336, 0.0 ], [ 78.1840422, 14.948310575, 0.0 ], [ 78.184923168, 14.947794426, 0.0 ], [ 78.185543967, 14.947258758, 0.0 ], [ 78.188231698, 14.946684213, 0.0 ], [ 78.188579977, 14.946918906, 0.0 ], [ 78.1886679, 14.946932806, 0.0 ], [ 78.188883909, 14.947218534, 0.0 ], [ 78.189175453, 14.947992886, 0.0 ], [ 78.189357522, 14.948513603, 0.0 ], [ 78.189677689, 14.949021763, 0.0 ], [ 78.190212424, 14.949584224, 0.0 ], [ 78.190428875, 14.950267167, 0.0 ], [ 78.191067146, 14.950139583, 0.0 ], [ 78.191374209, 14.949931431, 0.0 ], [ 78.191418714, 14.950029848, 0.0 ], [ 78.191557364, 14.950341811, 0.0 ], [ 78.191934614, 14.950331346, 0.0 ], [ 78.193319963, 14.950282106, 0.0 ], [ 78.19310565, 14.949700453, 0.0 ], [ 78.193583047, 14.949605762, 0.0 ], [ 78.193642027, 14.949396851, 0.0 ], [ 78.193923379, 14.949460234, 0.0 ], [ 78.193811811, 14.948801655, 0.0 ], [ 78.19432179, 14.948642586, 0.0 ], [ 78.194410634, 14.94835708, 0.0 ], [ 78.194434121, 14.948020345, 0.0 ], [ 78.19457026, 14.947944504, 0.0 ], [ 78.194384748, 14.947258036, 0.0 ], [ 78.194900932, 14.947132367, 0.0 ], [ 78.195546511, 14.946929134, 0.0 ], [ 78.196498077, 14.946837247, 0.0 ], [ 78.19681306, 14.948882387, 0.0 ], [ 78.198072393, 14.948433275, 0.0 ], [ 78.199388997, 14.948747344, 0.0 ], [ 78.199521975, 14.94810591, 0.0 ], [ 78.200350905, 14.947806673, 0.0 ], [ 78.201653085, 14.9475294, 0.0 ], [ 78.202247568, 14.947564029, 0.0 ], [ 78.202422399, 14.947297563, 0.0 ], [ 78.202899355, 14.947002754, 0.0 ], [ 78.203525444, 14.946846383, 0.0 ], [ 78.204165604, 14.947065932, 0.0 ], [ 78.20521646, 14.946755554, 0.0 ], [ 78.205345321, 14.946923273, 0.0 ], [ 78.206155135, 14.946931261, 0.0 ], [ 78.206138584, 14.946916242, 0.0 ], [ 78.206246192, 14.945422057, 0.0 ], [ 78.206318665, 14.94463474, 0.0 ], [ 78.206450424, 14.943344515, 0.0 ], [ 78.206700222, 14.943434485, 0.0 ], [ 78.207632211, 14.943119052, 0.0 ], [ 78.208211474, 14.942601772, 0.0 ], [ 78.208976025, 14.942137805, 0.0 ], [ 78.20945192, 14.94165927, 0.0 ], [ 78.209404394, 14.941419262, 0.0 ], [ 78.209510774, 14.941388843, 0.0 ], [ 78.210439964, 14.941201427, 0.0 ], [ 78.210931974, 14.940976587, 0.0 ], [ 78.211233276, 14.940928944, 0.0 ], [ 78.212428328, 14.940798539, 0.0 ], [ 78.212450107, 14.94064133, 0.0 ], [ 78.212405715, 14.940495404, 0.0 ], [ 78.214080138, 14.9401713, 0.0 ], [ 78.215531947, 14.939903371, 0.0 ], [ 78.216207067, 14.939781445, 0.0 ], [ 78.216497568, 14.940701558, 0.0 ], [ 78.216711039, 14.94108854, 0.0 ], [ 78.216624157, 14.941514673, 0.0 ], [ 78.216466058, 14.942407391, 0.0 ], [ 78.216277932, 14.943397517, 0.0 ], [ 78.21527174, 14.944823099, 0.0 ], [ 78.214273489, 14.946012606, 0.0 ], [ 78.214247151, 14.946050041, 0.0 ], [ 78.212919903, 14.947539695, 0.0 ], [ 78.212437041, 14.948067545, 0.0 ], [ 78.211838413, 14.948575426, 0.0 ], [ 78.210827785, 14.949425954, 0.0 ], [ 78.210333615, 14.949843111, 0.0 ], [ 78.209989286, 14.950133777, 0.0 ], [ 78.209775665, 14.950317237, 0.0 ], [ 78.209842074, 14.950594249, 0.0 ], [ 78.210965677, 14.952756492, 0.0 ], [ 78.213386874, 14.953241502, 0.0 ], [ 78.215509971, 14.953939188, 0.0 ], [ 78.217861443, 14.95477416, 0.0 ], [ 78.218876655, 14.955146763, 0.0 ], [ 78.219376694, 14.95534149, 0.0 ], [ 78.220579969, 14.955687848, 0.0 ], [ 78.221321062, 14.955723862, 0.0 ], [ 78.221383478, 14.955723256, 0.0 ], [ 78.223419556, 14.9557035, 0.0 ], [ 78.224110043, 14.955621966, 0.0 ], [ 78.224626481, 14.955563981, 0.0 ], [ 78.224840396, 14.955539962, 0.0 ], [ 78.226105568, 14.955397908, 0.0 ], [ 78.226981363, 14.955268583, 0.0 ], [ 78.228043577, 14.955114554, 0.0 ], [ 78.229451551, 14.954821564, 0.0 ], [ 78.230034304, 14.954814102, 0.0 ], [ 78.230414193, 14.954809237, 0.0 ], [ 78.230716269, 14.954789597, 0.0 ], [ 78.231401115, 14.954744607, 0.0 ], [ 78.232810434, 14.954652026, 0.0 ], [ 78.233109736, 14.954632364, 0.0 ], [ 78.233835324, 14.954636773, 0.0 ], [ 78.234349499, 14.954642649, 0.0 ], [ 78.23481604, 14.95464798, 0.0 ], [ 78.235581758, 14.954661207, 0.0 ], [ 78.236462435, 14.954634626, 0.0 ], [ 78.236521528, 14.954811983, 0.0 ], [ 78.236740421, 14.955505868, 0.0 ], [ 78.237012369, 14.956415164, 0.0 ], [ 78.237562249, 14.958251092, 0.0 ], [ 78.237717773, 14.958775001, 0.0 ] ] ] } }
]
}
