{
"type": "FeatureCollection",
"name": "Area_Features___2_",
"crs": { "type": "name", "properties": { "name": "urn:ogc:def:crs:OGC:1.3:CRS84" } },
"features": [
{ "type": "Feature", "properties": { "Name": null, "description": "temple", "timestamp": null, "begin": null, "end": null, "altitudeMode": null, "tessellate": -1, "extrude": 1, "visibility": -1, "drawOrder": null, "icon": null }, "geometry": { "type": "Polygon", "coordinates": [ [ [ 78.086435489, 14.983032766, 256.636 ], [ 78.086274409, 14.982745953, 256.636 ], [ 78.085987596, 14.982539934, 256.636 ], [ 78.085729061, 14.982121161, 256.636 ], [ 78.085827358, 14.981916487, 256.636 ], [ 78.085681932, 14.981715853, 256.636 ], [ 78.082659626, 14.977142336, 256.636 ], [ 78.082259302, 14.976395429, 256.636 ], [ 78.081921723, 14.976514849, 256.636 ], [ 78.081575727, 14.97638781, 256.636 ], [ 78.080313285, 14.976735683, 256.636 ], [ 78.079999541, 14.975860433, 256.636 ], [ 78.080667423, 14.974808786, 256.636 ], [ 78.080621503, 14.974309096, 256.636 ], [ 78.080575185, 14.973972586, 256.636 ], [ 78.080472848, 14.973426565, 256.636 ], [ 78.079946478, 14.972732499, 256.636 ], [ 78.079778258, 14.972690444, 256.636 ], [ 78.0797637, 14.972539207, 256.636 ], [ 78.078476675, 14.971496123, 256.636 ], [ 78.078416828, 14.971253497, 256.636 ], [ 78.078430577, 14.971178284, 256.636 ], [ 78.078985378, 14.97114108, 256.636 ], [ 78.078922296, 14.97059113, 256.636 ], [ 78.077842918, 14.970647339, 256.636 ], [ 78.077757191, 14.969862851, 256.636 ], [ 78.079050786, 14.969888932, 256.636 ], [ 78.080196885, 14.96999589, 256.636 ], [ 78.08038128, 14.969500933, 256.636 ], [ 78.080033518, 14.969090089, 256.636 ], [ 78.080023813, 14.969043182, 256.636 ], [ 78.080945787, 14.968719681, 256.636 ], [ 78.080989359, 14.968918835, 256.636 ], [ 78.082149106, 14.968656799, 256.636 ], [ 78.082330266, 14.968959272, 256.636 ], [ 78.082844512, 14.968868555, 256.636 ], [ 78.083345009, 14.968787739, 256.636 ], [ 78.08364782, 14.968515875, 256.636 ], [ 78.083542681, 14.968004744, 256.636 ], [ 78.084743675, 14.967669112, 256.636 ], [ 78.084314532, 14.966773219, 256.636 ], [ 78.08428663, 14.966602572, 256.636 ], [ 78.084185536, 14.965750958, 256.636 ], [ 78.083677641, 14.96563369, 256.636 ], [ 78.083522361, 14.965329599, 256.636 ], [ 78.083753241, 14.965281865, 256.636 ], [ 78.085118833, 14.965122559, 256.636 ], [ 78.085198898, 14.964843944, 256.636 ], [ 78.084733059, 14.964636905, 256.636 ], [ 78.084513078, 14.962833796, 256.636 ], [ 78.087567913, 14.962378211, 256.636 ], [ 78.088437778, 14.963226532, 256.636 ], [ 78.088379812, 14.964622547, 256.636 ], [ 78.087271017, 14.965456369, 256.636 ], [ 78.086639789, 14.96748876, 256.636 ], [ 78.086926798, 14.9684713, 256.636 ], [ 78.090479132, 14.968294901, 256.636 ], [ 78.092031738, 14.970283119, 256.636 ], [ 78.087295913, 14.972597434, 256.636 ], [ 78.088661273, 14.977093133, 256.636 ], [ 78.088537427, 14.977924299, 256.636 ], [ 78.08896645, 14.979701429, 256.636 ], [ 78.088973635, 14.979863511, 256.636 ], [ 78.088595301, 14.98010764, 256.636 ], [ 78.088652927, 14.980236244, 256.636 ], [ 78.088767266, 14.980664278, 256.636 ], [ 78.088695069, 14.980834975, 256.636 ], [ 78.088778172, 14.980974922, 256.636 ], [ 78.089026622, 14.981517815, 256.636 ], [ 78.089151252, 14.982281734, 256.636 ], [ 78.089055581, 14.982436239, 256.636 ], [ 78.08890857, 14.982693503, 256.636 ], [ 78.088770384, 14.982597833, 256.636 ], [ 78.087608322, 14.982459141, 256.636 ], [ 78.086435489, 14.983032766, 256.636 ] ] ] } },
{ "type": "Feature", "properties": { "Name": null, "description": "temple", "timestamp": null, "begin": null, "end": null, "altitudeMode": null, "tessellate": -1, "extrude": 1, "visibility": -1, "drawOrder": null, "icon": null }, "geometry": { "type": "Polygon", "coordinates": [ [ [ 78.082997276, 14.959951814, 0.0 ], [ 78.083091496, 14.96018069, 0.0 ], [ 78.083271039, 14.960720936, 0.0 ], [ 78.083411358, 14.96118435, 0.0 ], [ 78.083340188, 14.962180326, 0.0 ], [ 78.083328461, 14.96223896, 0.0 ], [ 78.082831889, 14.962902945, 0.0 ], [ 78.082269404, 14.963620711, 0.0 ], [ 78.082179026, 14.96376669, 0.0 ], [ 78.081359763, 14.964123349, 0.0 ], [ 78.081158727, 14.963719865, 0.0 ], [ 78.080705284, 14.96280806, 0.0 ], [ 78.079931232, 14.961246837, 0.0 ], [ 78.079565525, 14.960565443, 0.0 ], [ 78.078655359, 14.95927071, 0.0 ], [ 78.078209295, 14.958596696, 0.0 ], [ 78.077791111, 14.957976799, 0.0 ], [ 78.077179413, 14.957050233, 0.0 ], [ 78.076876024, 14.956577931, 0.0 ], [ 78.076402082, 14.955861277, 0.0 ], [ 78.076136412, 14.955452932, 0.0 ], [ 78.075737906, 14.954803517, 0.0 ], [ 78.075619859, 14.954626601, 0.0 ], [ 78.075605301, 14.95458859, 0.0 ], [ 78.076254727, 14.953859096, 0.0 ], [ 78.076371187, 14.953725653, 0.0 ], [ 78.076546685, 14.953419136, 0.0 ], [ 78.076704391, 14.953330982, 0.0 ], [ 78.076769091, 14.953317234, 0.0 ], [ 78.076883125, 14.953258195, 0.0 ], [ 78.077103914, 14.953147396, 0.0 ], [ 78.077370801, 14.953017187, 0.0 ], [ 78.077710476, 14.952960574, 0.0 ], [ 78.077798629, 14.952958147, 0.0 ], [ 78.078415706, 14.953055198, 0.0 ], [ 78.079166225, 14.953136073, 0.0 ], [ 78.079585158, 14.953140115, 0.0 ], [ 78.079794624, 14.953120705, 0.0 ], [ 78.080745714, 14.953165995, 0.0 ], [ 78.081525348, 14.952686405, 0.0 ], [ 78.08172794, 14.952582885, 0.0 ], [ 78.082205103, 14.953579266, 0.0 ], [ 78.08030535, 14.954325743, 0.0 ], [ 78.080356302, 14.955394911, 0.0 ], [ 78.080900591, 14.956698617, 0.0 ], [ 78.081111675, 14.957071451, 0.0 ], [ 78.081415361, 14.957561149, 0.0 ], [ 78.081488957, 14.957634745, 0.0 ], [ 78.081569428, 14.957690145, 0.0 ], [ 78.082088645, 14.958125252, 0.0 ], [ 78.082381413, 14.958815115, 0.0 ], [ 78.082997276, 14.959951814, 0.0 ] ] ] } }
]
}
