{
"type": "FeatureCollection",
"name": "Area_Features___9_",
"crs": { "type": "name", "properties": { "name": "urn:ogc:def:crs:OGC:1.3:CRS84" } },
"features": [
{ "type": "Feature", "properties": { "Name": null, "description": "Sy. No Bo", "timestamp": null, "begin": null, "end": null, "altitudeMode": null, "tessellate": -1, "extrude": 1, "visibility": -1, "drawOrder": null, "icon": null }, "geometry": { "type": "Polygon", "coordinates": [ [ [ 78.424445734, 14.109390258, 0.0 ], [ 78.42487871, 14.109763654, 0.0 ], [ 78.42485719, 14.109911405, 0.0 ], [ 78.424723457, 14.110134196, 0.0 ], [ 78.424922443, 14.110335565, 0.0 ], [ 78.424984591, 14.110966775, 0.0 ], [ 78.425854613, 14.11096835, 0.0 ], [ 78.425735489, 14.111218611, 0.0 ], [ 78.425863712, 14.111816179, 0.0 ], [ 78.426246487, 14.111731046, 0.0 ], [ 78.426301015, 14.111322092, 0.0 ], [ 78.426487392, 14.110808673, 0.0 ], [ 78.425999563, 14.110668547, 0.0 ], [ 78.426500073, 14.110624727, 0.0 ], [ 78.426611686, 14.110233581, 0.0 ], [ 78.427074148, 14.109382266, 0.0 ], [ 78.427323448, 14.108943739, 0.0 ], [ 78.427385901, 14.108690296, 0.0 ], [ 78.42746993, 14.108013175, 0.0 ], [ 78.427912806, 14.107147312, 0.0 ], [ 78.427804265, 14.105780406, 0.0 ], [ 78.427669073, 14.105149081, 0.0 ], [ 78.427923952, 14.105329385, 0.0 ], [ 78.4279437, 14.10606613, 0.0 ], [ 78.428059864, 14.106456874, 0.0 ], [ 78.427996452, 14.106645498, 0.0 ], [ 78.42805707, 14.107087081, 0.0 ], [ 78.427623423, 14.107928597, 0.0 ], [ 78.427549706, 14.10817294, 0.0 ], [ 78.42742961, 14.108948086, 0.0 ], [ 78.427142067, 14.109458769, 0.0 ], [ 78.426652167, 14.110385442, 0.0 ], [ 78.426627317, 14.110632217, 0.0 ], [ 78.426929099, 14.110523351, 0.0 ], [ 78.427297817, 14.110756602, 0.0 ], [ 78.427463605, 14.110620263, 0.0 ], [ 78.428122686, 14.110782615, 0.0 ], [ 78.428003733, 14.110949885, 0.0 ], [ 78.427606527, 14.110983817, 0.0 ], [ 78.427564414, 14.111446207, 0.0 ], [ 78.428085318, 14.111599113, 0.0 ], [ 78.428091077, 14.111374718, 0.0 ], [ 78.429006604, 14.111472485, 0.0 ], [ 78.429196393, 14.111871699, 0.0 ], [ 78.429477913, 14.111838478, 0.0 ], [ 78.429346008, 14.112339715, 0.0 ], [ 78.430423797, 14.112562203, 0.0 ], [ 78.430595607, 14.112306914, 0.0 ], [ 78.4307279, 14.111149962, 0.0 ], [ 78.430164323, 14.110587702, 0.0 ], [ 78.429979085, 14.110696271, 0.0 ], [ 78.429835693, 14.110615796, 0.0 ], [ 78.429783953, 14.11031229, 0.0 ], [ 78.429953813, 14.110260415, 0.0 ], [ 78.429915273, 14.109959917, 0.0 ], [ 78.43084892, 14.109527444, 0.0 ], [ 78.431751946, 14.109731807, 0.0 ], [ 78.432896825, 14.110251205, 0.0 ], [ 78.432391395, 14.110687647, 0.0 ], [ 78.432370309, 14.110558046, 0.0 ], [ 78.431941766, 14.11047065, 0.0 ], [ 78.431513931, 14.110546107, 0.0 ], [ 78.431552987, 14.111427265, 0.0 ], [ 78.431651524, 14.111649604, 0.0 ], [ 78.431569226, 14.111709797, 0.0 ], [ 78.43182557, 14.112263365, 0.0 ], [ 78.432034301, 14.112355947, 0.0 ], [ 78.432311504, 14.111719749, 0.0 ], [ 78.432723573, 14.111291241, 0.0 ], [ 78.43287804, 14.111172998, 0.0 ], [ 78.432981914, 14.111127063, 0.0 ], [ 78.433245546, 14.11086266, 0.0 ], [ 78.433434876, 14.110676563, 0.0 ], [ 78.433601887, 14.110566875, 0.0 ], [ 78.434616793, 14.109854815, 0.0 ], [ 78.435405275, 14.109195973, 0.0 ], [ 78.435922773, 14.108416331, 0.0 ], [ 78.436535148, 14.107278078, 0.0 ], [ 78.436696853, 14.107264887, 0.0 ], [ 78.435868352, 14.108640078, 0.0 ], [ 78.435457943, 14.109226799, 0.0 ], [ 78.434654378, 14.109905523, 0.0 ], [ 78.433725667, 14.110604496, 0.0 ], [ 78.433550153, 14.11064849, 0.0 ], [ 78.433295512, 14.110902834, 0.0 ], [ 78.432906866, 14.111291885, 0.0 ], [ 78.433093086, 14.112006361, 0.0 ], [ 78.433253247, 14.112079013, 0.0 ], [ 78.433329596, 14.112501395, 0.0 ], [ 78.433221176, 14.112930451, 0.0 ], [ 78.433685554, 14.112909084, 0.0 ], [ 78.434305859, 14.112623908, 0.0 ], [ 78.434461199, 14.112277291, 0.0 ], [ 78.434372236, 14.111920855, 0.0 ], [ 78.434074947, 14.11156579, 0.0 ], [ 78.43406854, 14.111354915, 0.0 ], [ 78.434200704, 14.111059153, 0.0 ], [ 78.434101646, 14.110805225, 0.0 ], [ 78.434918529, 14.111224285, 0.0 ], [ 78.436000481, 14.111231063, 0.0 ], [ 78.436046688, 14.111988543, 0.0 ], [ 78.437306496, 14.11363072, 0.0 ], [ 78.43770272, 14.11335902, 0.0 ], [ 78.437766308, 14.11349082, 0.0 ], [ 78.438132936, 14.113328342, 0.0 ], [ 78.438118824, 14.113586145, 0.0 ], [ 78.4383325, 14.113642051, 0.0 ], [ 78.438685607, 14.11451322, 0.0 ], [ 78.439252741, 14.114691202, 0.0 ], [ 78.439291037, 14.114865533, 0.0 ], [ 78.440202586, 14.114870238, 0.0 ], [ 78.440240745, 14.115037572, 0.0 ], [ 78.440732577, 14.114992193, 0.0 ], [ 78.44127276, 14.114658956, 0.0 ], [ 78.441191813, 14.113941732, 0.0 ], [ 78.440715493, 14.114007, 0.0 ], [ 78.440609553, 14.11339552, 0.0 ], [ 78.440366899, 14.113368329, 0.0 ], [ 78.440261915, 14.113063266, 0.0 ], [ 78.43996846, 14.113154842, 0.0 ], [ 78.439830236, 14.112385742, 0.0 ], [ 78.439928666, 14.112299069, 0.0 ], [ 78.439944893, 14.111995649, 0.0 ], [ 78.439928233, 14.111256331, 0.0 ], [ 78.440202077, 14.111252251, 0.0 ], [ 78.440282662, 14.111846019, 0.0 ], [ 78.440206079, 14.112020446, 0.0 ], [ 78.440273829, 14.11219542, 0.0 ], [ 78.4401767, 14.112404651, 0.0 ], [ 78.440298073, 14.112426191, 0.0 ], [ 78.440301943, 14.112513962, 0.0 ], [ 78.440655135, 14.112485164, 0.0 ], [ 78.440984751, 14.112234867, 0.0 ], [ 78.442166441, 14.112239433, 0.0 ], [ 78.442562171, 14.112566083, 0.0 ], [ 78.442405074, 14.112730499, 0.0 ], [ 78.44264588, 14.112917345, 0.0 ], [ 78.443116077, 14.112918024, 0.0 ], [ 78.443223659, 14.112690212, 0.0 ], [ 78.443867645, 14.11266592, 0.0 ], [ 78.443979736, 14.112808518, 0.0 ], [ 78.444154338, 14.113533286, 0.0 ], [ 78.444062574, 14.113835583, 0.0 ], [ 78.444360542, 14.114413936, 0.0 ], [ 78.444545552, 14.114460747, 0.0 ], [ 78.444498688, 14.114923417, 0.0 ], [ 78.444567698, 14.115223208, 0.0 ], [ 78.44559632, 14.114817263, 0.0 ], [ 78.445475999, 14.114389165, 0.0 ], [ 78.445216422, 14.114386569, 0.0 ], [ 78.444998123, 14.114213625, 0.0 ], [ 78.444848317, 14.113866171, 0.0 ], [ 78.445072392, 14.113735989, 0.0 ], [ 78.445153395, 14.113795205, 0.0 ], [ 78.445411347, 14.113651933, 0.0 ], [ 78.445432364, 14.113497274, 0.0 ], [ 78.445636165, 14.113349042, 0.0 ], [ 78.445569392, 14.113157638, 0.0 ], [ 78.445411951, 14.113052785, 0.0 ], [ 78.445137941, 14.112800888, 0.0 ], [ 78.445006337, 14.112126949, 0.0 ], [ 78.444482212, 14.112224215, 0.0 ], [ 78.444272551, 14.112181519, 0.0 ], [ 78.444209423, 14.111820027, 0.0 ], [ 78.444361627, 14.110590504, 0.0 ], [ 78.44413723, 14.110613085, 0.0 ], [ 78.444124318, 14.110518982, 0.0 ], [ 78.444272445, 14.109057977, 0.0 ], [ 78.445067213, 14.107805973, 0.0 ], [ 78.445582765, 14.107818001, 0.0 ], [ 78.445584628, 14.107190102, 0.0 ], [ 78.445597825, 14.106949559, 0.0 ], [ 78.445822359, 14.106953964, 0.0 ], [ 78.445689425, 14.107840276, 0.0 ], [ 78.445916242, 14.107880487, 0.0 ], [ 78.445913132, 14.108210681, 0.0 ], [ 78.446883308, 14.108470324, 0.0 ], [ 78.447108337, 14.108342988, 0.0 ], [ 78.447111753, 14.108778495, 0.0 ], [ 78.447487404, 14.108668173, 0.0 ], [ 78.447442794, 14.108518107, 0.0 ], [ 78.44802083, 14.108137111, 0.0 ], [ 78.449056167, 14.107762079, 0.0 ], [ 78.448642334, 14.106845493, 0.0 ], [ 78.449515731, 14.106810217, 0.0 ], [ 78.450768529, 14.106759563, 0.0 ], [ 78.453489204, 14.105906909, 0.0 ], [ 78.455224236, 14.105340617, 0.0 ], [ 78.456999341, 14.104818211, 0.0 ], [ 78.45838822, 14.104375784, 0.0 ], [ 78.460140591, 14.103192847, 0.0 ], [ 78.461014972, 14.102046627, 0.0 ], [ 78.461069245, 14.102675843, 0.0 ], [ 78.461152695, 14.104929937, 0.0 ], [ 78.461328043, 14.107544322, 0.0 ], [ 78.459970555, 14.109839383, 0.0 ], [ 78.458734202, 14.111977041, 0.0 ], [ 78.45690056, 14.113522352, 0.0 ], [ 78.454779794, 14.115324566, 0.0 ], [ 78.454360597, 14.115973493, 0.0 ], [ 78.45389903, 14.116852263, 0.0 ], [ 78.453172942, 14.117984498, 0.0 ], [ 78.452597553, 14.118917514, 0.0 ], [ 78.452131154, 14.119684281, 0.0 ], [ 78.45069497, 14.121731412, 0.0 ], [ 78.450543655, 14.122686818, 0.0 ], [ 78.450267539, 14.125534425, 0.0 ], [ 78.450042337, 14.127094603, 0.0 ], [ 78.449796568, 14.128550077, 0.0 ], [ 78.449651125, 14.129517197, 0.0 ], [ 78.449375057, 14.131103158, 0.0 ], [ 78.448685463, 14.131973058, 0.0 ], [ 78.447013186, 14.134176714, 0.0 ], [ 78.446235099, 14.135192314, 0.0 ], [ 78.445665925, 14.135944385, 0.0 ], [ 78.444415718, 14.137537298, 0.0 ], [ 78.443490263, 14.137345331, 0.0 ], [ 78.442728587, 14.137301101, 0.0 ], [ 78.442076581, 14.137467562, 0.0 ], [ 78.441913299, 14.137505169, 0.0 ], [ 78.442003454, 14.137291133, 0.0 ], [ 78.440786517, 14.137537003, 0.0 ], [ 78.440740298, 14.136059273, 0.0 ], [ 78.440177231, 14.135523862, 0.0 ], [ 78.438832361, 14.134318471, 0.0 ], [ 78.438756798, 14.134804897, 0.0 ], [ 78.438669722, 14.135365435, 0.0 ], [ 78.438425852, 14.136866744, 0.0 ], [ 78.438295531, 14.137573377, 0.0 ], [ 78.437655728, 14.13588057, 0.0 ], [ 78.435298543, 14.136659469, 0.0 ], [ 78.435130932, 14.137835719, 0.0 ], [ 78.433918677, 14.137928014, 0.0 ], [ 78.432160425, 14.138252154, 0.0 ], [ 78.431654889, 14.137530809, 0.0 ], [ 78.431247977, 14.136929854, 0.0 ], [ 78.430647244, 14.136057993, 0.0 ], [ 78.430284909, 14.135549723, 0.0 ], [ 78.43020459, 14.134681701, 0.0 ], [ 78.430753648, 14.134624194, 0.0 ], [ 78.431110171, 14.13414861, 0.0 ], [ 78.432088949, 14.133588152, 0.0 ], [ 78.431801062, 14.132976565, 0.0 ], [ 78.431692805, 14.132694932, 0.0 ], [ 78.431045861, 14.132475096, 0.0 ], [ 78.430916754, 14.13254469, 0.0 ], [ 78.430096452, 14.132291735, 0.0 ], [ 78.430246759, 14.133687346, 0.0 ], [ 78.430342182, 14.134282106, 0.0 ], [ 78.430250908, 14.134389447, 0.0 ], [ 78.43020459, 14.134681701, 0.0 ], [ 78.430168455, 14.134221405, 0.0 ], [ 78.430067326, 14.132661786, 0.0 ], [ 78.429938572, 14.131383848, 0.0 ], [ 78.429865359, 14.130669193, 0.0 ], [ 78.430072158, 14.130679243, 0.0 ], [ 78.430504873, 14.129687994, 0.0 ], [ 78.43019267, 14.129533077, 0.0 ], [ 78.429893604, 14.129815513, 0.0 ], [ 78.429801898, 14.129845167, 0.0 ], [ 78.429853366, 14.13006791, 0.0 ], [ 78.429794974, 14.130080664, 0.0 ], [ 78.429781314, 14.130238384, 0.0 ], [ 78.429601605, 14.130215688, 0.0 ], [ 78.42933364, 14.129753837, 0.0 ], [ 78.429724228, 14.129778076, 0.0 ], [ 78.429879701, 14.129588472, 0.0 ], [ 78.430030353, 14.129287446, 0.0 ], [ 78.429823597, 14.128945226, 0.0 ], [ 78.429495915, 14.128975505, 0.0 ], [ 78.429343009, 14.128896024, 0.0 ], [ 78.429159601, 14.127711839, 0.0 ], [ 78.428720954, 14.127735027, 0.0 ], [ 78.428394718, 14.128118888, 0.0 ], [ 78.428137353, 14.127674082, 0.0 ], [ 78.427365284, 14.12633373, 0.0 ], [ 78.428311555, 14.12585396, 0.0 ], [ 78.428416383, 14.125929253, 0.0 ], [ 78.428612035, 14.125844434, 0.0 ], [ 78.4288266, 14.125160884, 0.0 ], [ 78.42834745, 14.124953958, 0.0 ], [ 78.428202751, 14.124529838, 0.0 ], [ 78.427811556, 14.124691278, 0.0 ], [ 78.42703853, 14.125795941, 0.0 ], [ 78.426755923, 14.125309561, 0.0 ], [ 78.427185073, 14.123340388, 0.0 ], [ 78.428261498, 14.123331107, 0.0 ], [ 78.428291386, 14.124050081, 0.0 ], [ 78.428808808, 14.124001722, 0.0 ], [ 78.428941887, 14.124547971, 0.0 ], [ 78.429312319, 14.124336368, 0.0 ], [ 78.429412339, 14.123658813, 0.0 ], [ 78.429690608, 14.123388645, 0.0 ], [ 78.430051305, 14.122297782, 0.0 ], [ 78.429924072, 14.122041536, 0.0 ], [ 78.429347345, 14.12090976, 0.0 ], [ 78.4289883, 14.121256336, 0.0 ], [ 78.428605661, 14.120915319, 0.0 ], [ 78.428027575, 14.121212782, 0.0 ], [ 78.427888988, 14.121671883, 0.0 ], [ 78.427785188, 14.121743916, 0.0 ], [ 78.427878702, 14.121987308, 0.0 ], [ 78.427495418, 14.121770688, 0.0 ], [ 78.427674468, 14.121139042, 0.0 ], [ 78.428183881, 14.118686613, 0.0 ], [ 78.427683172, 14.118692066, 0.0 ], [ 78.427008936, 14.118679617, 0.0 ], [ 78.426717797, 14.117465484, 0.0 ], [ 78.426687514, 14.117331318, 0.0 ], [ 78.426435855, 14.116401245, 0.0 ], [ 78.426127469, 14.115225077, 0.0 ], [ 78.425886205, 14.114352841, 0.0 ], [ 78.425394559, 14.11270316, 0.0 ], [ 78.423580518, 14.114031165, 0.0 ], [ 78.422726552, 14.11466917, 0.0 ], [ 78.42246246, 14.114868338, 0.0 ], [ 78.420889461, 14.115990539, 0.0 ], [ 78.419905763, 14.116609982, 0.0 ], [ 78.418682791, 14.117526009, 0.0 ], [ 78.41720736, 14.118683927, 0.0 ], [ 78.417135508, 14.118389409, 0.0 ], [ 78.416726019, 14.11865182, 0.0 ], [ 78.416982912, 14.118116429, 0.0 ], [ 78.417283679, 14.116733508, 0.0 ], [ 78.416203193, 14.116415263, 0.0 ], [ 78.41581011, 14.117133316, 0.0 ], [ 78.414853998, 14.116625449, 0.0 ], [ 78.414836683, 14.116320267, 0.0 ], [ 78.413295436, 14.11634498, 0.0 ], [ 78.413293754, 14.117731184, 0.0 ], [ 78.413672667, 14.118603043, 0.0 ], [ 78.413485154, 14.118986921, 0.0 ], [ 78.413496414, 14.119319414, 0.0 ], [ 78.413814429, 14.11963545, 0.0 ], [ 78.414241528, 14.119653764, 0.0 ], [ 78.415053613, 14.119456162, 0.0 ], [ 78.415080644, 14.120041823, 0.0 ], [ 78.41518241, 14.120076743, 0.0 ], [ 78.414725133, 14.120383029, 0.0 ], [ 78.414442321, 14.120765584, 0.0 ], [ 78.413892904, 14.121455164, 0.0 ], [ 78.413037777, 14.122606613, 0.0 ], [ 78.41274855, 14.123001533, 0.0 ], [ 78.412520967, 14.122555951, 0.0 ], [ 78.412701151, 14.121776675, 0.0 ], [ 78.411892677, 14.121906386, 0.0 ], [ 78.41168287, 14.122547587, 0.0 ], [ 78.411820487, 14.122802163, 0.0 ], [ 78.411955789, 14.123646837, 0.0 ], [ 78.411785908, 14.123739712, 0.0 ], [ 78.411634478, 14.124435153, 0.0 ], [ 78.411351235, 14.124793215, 0.0 ], [ 78.410263609, 14.126201866, 0.0 ], [ 78.409752629, 14.12687654, 0.0 ], [ 78.409322327, 14.12750475, 0.0 ], [ 78.407832949, 14.128539015, 0.0 ], [ 78.407687105, 14.128647047, 0.0 ], [ 78.405619683, 14.130176622, 0.0 ], [ 78.405440798, 14.130185459, 0.0 ], [ 78.4046968, 14.130705154, 0.0 ], [ 78.404642487, 14.130743092, 0.0 ], [ 78.403759568, 14.130239456, 0.0 ], [ 78.403193389, 14.130036063, 0.0 ], [ 78.401846678, 14.12935945, 0.0 ], [ 78.401718146, 14.129294873, 0.0 ], [ 78.401711889, 14.129296967, 0.0 ], [ 78.401781459, 14.129143584, 0.0 ], [ 78.40261467, 14.127306575, 0.0 ], [ 78.404001495, 14.124009969, 0.0 ], [ 78.407079323, 14.118325029, 0.0 ], [ 78.408479719, 14.115567613, 0.0 ], [ 78.409816, 14.112860533, 0.0 ], [ 78.411152281, 14.110149756, 0.0 ], [ 78.413588159, 14.10615817, 0.0 ], [ 78.414739531, 14.104257298, 0.0 ], [ 78.4166661, 14.102557993, 0.0 ], [ 78.417177349, 14.10207001, 0.0 ], [ 78.418892599, 14.100849866, 0.0 ], [ 78.419750053, 14.100179338, 0.0 ], [ 78.421333414, 14.098213213, 0.0 ], [ 78.422195093, 14.097469876, 0.0 ], [ 78.42358877, 14.096954475, 0.0 ], [ 78.423708229, 14.097360561, 0.0 ], [ 78.424260865, 14.098958088, 0.0 ], [ 78.424314179, 14.099179582, 0.0 ], [ 78.424709101, 14.100823097, 0.0 ], [ 78.425071551, 14.101648671, 0.0 ], [ 78.425230101, 14.101969483, 0.0 ], [ 78.425482374, 14.102479935, 0.0 ], [ 78.42617194, 14.10400176, 0.0 ], [ 78.425895824, 14.103474838, 0.0 ], [ 78.425636285, 14.103358234, 0.0 ], [ 78.425228157, 14.102731216, 0.0 ], [ 78.424628545, 14.102825077, 0.0 ], [ 78.424490455, 14.102368199, 0.0 ], [ 78.424239423, 14.102330697, 0.0 ], [ 78.424143357, 14.102613987, 0.0 ], [ 78.422699655, 14.102938551, 0.0 ], [ 78.422623256, 14.102794034, 0.0 ], [ 78.422005705, 14.103019056, 0.0 ], [ 78.421712337, 14.103269662, 0.0 ], [ 78.421673916, 14.103107281, 0.0 ], [ 78.42095618, 14.103393356, 0.0 ], [ 78.420561248, 14.103134802, 0.0 ], [ 78.420309135, 14.103033663, 0.0 ], [ 78.420242037, 14.102846908, 0.0 ], [ 78.419824612, 14.102617467, 0.0 ], [ 78.419285146, 14.102640593, 0.0 ], [ 78.419319126, 14.103542602, 0.0 ], [ 78.41958184, 14.104157885, 0.0 ], [ 78.419266641, 14.104179877, 0.0 ], [ 78.419180753, 14.105064466, 0.0 ], [ 78.419353488, 14.105323807, 0.0 ], [ 78.419573689, 14.10525333, 0.0 ], [ 78.419643502, 14.106305789, 0.0 ], [ 78.419526936, 14.10692561, 0.0 ], [ 78.419543481, 14.107022515, 0.0 ], [ 78.418555246, 14.105866507, 0.0 ], [ 78.418665466, 14.105301764, 0.0 ], [ 78.416799481, 14.105816436, 0.0 ], [ 78.416799661, 14.105800439, 0.0 ], [ 78.416833141, 14.106437814, 0.0 ], [ 78.417233638, 14.107258068, 0.0 ], [ 78.417443288, 14.108224115, 0.0 ], [ 78.418659674, 14.108021821, 0.0 ], [ 78.418749938, 14.107952147, 0.0 ], [ 78.419105377, 14.107748264, 0.0 ], [ 78.419640897, 14.107593083, 0.0 ], [ 78.420130782, 14.107847774, 0.0 ], [ 78.42017663, 14.108273452, 0.0 ], [ 78.420503907, 14.108784314, 0.0 ], [ 78.420758655, 14.108764258, 0.0 ], [ 78.420897754, 14.108856912, 0.0 ], [ 78.421919164, 14.10870521, 0.0 ], [ 78.422121213, 14.109080934, 0.0 ], [ 78.422021347, 14.109153338, 0.0 ], [ 78.422325397, 14.109765851, 0.0 ], [ 78.422274154, 14.110218882, 0.0 ], [ 78.422677161, 14.109928346, 0.0 ], [ 78.42281654, 14.110027866, 0.0 ], [ 78.423201858, 14.109737612, 0.0 ], [ 78.423146754, 14.1095949, 0.0 ], [ 78.42347245, 14.109392824, 0.0 ], [ 78.42398224, 14.108703248, 0.0 ], [ 78.424191741, 14.108528101, 0.0 ], [ 78.424274351, 14.108241219, 0.0 ], [ 78.424929611, 14.107980977, 0.0 ], [ 78.425313589, 14.107516248, 0.0 ], [ 78.424868367, 14.108430073, 0.0 ], [ 78.42487333, 14.108580643, 0.0 ], [ 78.425117366, 14.10855016, 0.0 ], [ 78.425374044, 14.108767402, 0.0 ], [ 78.425365436, 14.108971389, 0.0 ], [ 78.42496826, 14.10883942, 0.0 ], [ 78.424956079, 14.108717458, 0.0 ], [ 78.424570739, 14.108736127, 0.0 ], [ 78.424445734, 14.109390258, 0.0 ], [ 78.424387297, 14.109051621, 0.0 ], [ 78.424124181, 14.109025052, 0.0 ], [ 78.423747076, 14.109289699, 0.0 ], [ 78.423830159, 14.109986864, 0.0 ], [ 78.423978838, 14.110104008, 0.0 ], [ 78.424504887, 14.109675797, 0.0 ], [ 78.424445734, 14.109390258, 0.0 ] ] ] } },
{ "type": "Feature", "properties": { "Name": null, "description": "FOREST CA BOUNDARY", "timestamp": null, "begin": null, "end": null, "altitudeMode": null, "tessellate": -1, "extrude": 1, "visibility": -1, "drawOrder": null, "icon": null }, "geometry": { "type": "Polygon", "coordinates": [ [ [ 78.440451404, 14.132399415, 0.0 ], [ 78.440788771, 14.131432824, 0.0 ], [ 78.441209946, 14.131126284, 0.0 ], [ 78.442176538, 14.130750522, 0.0 ], [ 78.44180946, 14.130416548, 0.0 ], [ 78.44196851, 14.129840336, 0.0 ], [ 78.441720142, 14.129314442, 0.0 ], [ 78.441778072, 14.129291079, 0.0 ], [ 78.442023695, 14.127093952, 0.0 ], [ 78.440913938, 14.127123703, 0.0 ], [ 78.439694109, 14.127314787, 0.0 ], [ 78.439597106, 14.126319297, 0.0 ], [ 78.439895614, 14.12619719, 0.0 ], [ 78.439963005, 14.125732025, 0.0 ], [ 78.439479972, 14.125427165, 0.0 ], [ 78.436605715, 14.122948659, 0.0 ], [ 78.435726983, 14.121556411, 0.0 ], [ 78.437171012, 14.119689945, 0.0 ], [ 78.435269889, 14.118246008, 0.0 ], [ 78.435872844, 14.117704464, 0.0 ], [ 78.437186803, 14.117249482, 0.0 ], [ 78.444570826, 14.11522216, 0.0 ], [ 78.444434263, 14.117056834, 0.0 ], [ 78.445478353, 14.117513091, 0.0 ], [ 78.445467584, 14.117595343, 0.0 ], [ 78.445177918, 14.118161339, 0.0 ], [ 78.445071671, 14.119192333, 0.0 ], [ 78.445194297, 14.119876149, 0.0 ], [ 78.445642083, 14.120588506, 0.0 ], [ 78.446244477, 14.122726713, 0.0 ], [ 78.447699237, 14.122740313, 0.0 ], [ 78.448594984, 14.128677104, 0.0 ], [ 78.449784827, 14.128647905, 0.0 ], [ 78.449497306, 14.130417788, 0.0 ], [ 78.449378185, 14.13110211, 0.0 ], [ 78.444418846, 14.13753625, 0.0 ], [ 78.443493391, 14.137344283, 0.0 ], [ 78.442731715, 14.137300053, 0.0 ], [ 78.441916427, 14.137504121, 0.0 ], [ 78.442006582, 14.137290085, 0.0 ], [ 78.440789645, 14.137535955, 0.0 ], [ 78.440743426, 14.136058225, 0.0 ], [ 78.438835489, 14.134317423, 0.0 ], [ 78.438582999, 14.135935748, 0.0 ], [ 78.438298659, 14.13757233, 0.0 ], [ 78.437658856, 14.135879523, 0.0 ], [ 78.437243958, 14.134343263, 0.0 ], [ 78.436487947, 14.133465691, 0.0 ], [ 78.435851764, 14.132943704, 0.0 ], [ 78.435371024, 14.132080696, 0.0 ], [ 78.436732971, 14.131358173, 0.0 ], [ 78.438187777, 14.132601777, 0.0 ], [ 78.440451404, 14.132399415, 0.0 ] ] ] } }
]
}
