{
"type": "FeatureCollection",
"name": "Area_Features___8_",
"crs": { "type": "name", "properties": { "name": "urn:ogc:def:crs:OGC:1.3:CRS84" } },
"features": [
{ "type": "Feature", "properties": { "Name": null, "description": "CUBE_INDIA_PAPER_MILLS_PVT_LTD", "timestamp": null, "begin": null, "end": null, "altitudeMode": null, "tessellate": -1, "extrude": 1, "visibility": -1, "drawOrder": null, "icon": null }, "geometry": { "type": "Polygon", "coordinates": [ [ [ 79.937738813, 15.991128758, 0.0 ], [ 79.939704574, 15.990336514, 0.0 ], [ 79.939905202, 15.990790986, 0.0 ], [ 79.940119607, 15.990734301, 0.0 ], [ 79.940552697, 15.991878951, 0.0 ], [ 79.939025878, 15.992160952, 0.0 ], [ 79.939131779, 15.992521384, 0.0 ], [ 79.938378529, 15.992836827, 0.0 ], [ 79.937738813, 15.991128758, 0.0 ] ] ] } },
{ "type": "Feature", "properties": { "Name": null, "description": "CUBE_INDIA_PAPER_MILLS_PVT_LTD", "timestamp": null, "begin": null, "end": null, "altitudeMode": null, "tessellate": -1, "extrude": 1, "visibility": -1, "drawOrder": null, "icon": null }, "geometry": { "type": "Polygon", "coordinates": [ [ [ 79.937738813, 15.991128758, 0.0 ], [ 79.939704574, 15.990336514, 0.0 ], [ 79.939905202, 15.990790986, 0.0 ], [ 79.940119607, 15.990734301, 0.0 ], [ 79.940552697, 15.991878951, 0.0 ], [ 79.939025878, 15.992160952, 0.0 ], [ 79.939131779, 15.992521384, 0.0 ], [ 79.938378529, 15.992836827, 0.0 ], [ 79.937738813, 15.991128758, 0.0 ] ] ] } },
{ "type": "Feature", "properties": { "Name": null, "description": "Project Outer Boundary", "timestamp": null, "begin": null, "end": null, "altitudeMode": null, "tessellate": -1, "extrude": 1, "visibility": -1, "drawOrder": null, "icon": null }, "geometry": { "type": "Polygon", "coordinates": [ [ [ 79.943080543, 15.995811904, 0.0 ], [ 79.940350507, 15.99629209, 0.0 ], [ 79.940357384, 15.996067709, 0.0 ], [ 79.939959056, 15.995145511, 0.0 ], [ 79.939711663, 15.994875278, 0.0 ], [ 79.939012998, 15.994622017, 0.0 ], [ 79.938874737, 15.994482828, 0.0 ], [ 79.938981515, 15.993975557, 0.0 ], [ 79.938829872, 15.993699966, 0.0 ], [ 79.93880527, 15.992879303, 0.0 ], [ 79.938871438, 15.992832057, 0.0 ], [ 79.938874518, 15.992629119, 0.0 ], [ 79.938378529, 15.992836827, 0.0 ], [ 79.937891622, 15.991536767, 0.0 ], [ 79.937738813, 15.991128758, 0.0 ], [ 79.938491561, 15.990832998, 0.0 ], [ 79.938328794, 15.990475344, 0.0 ], [ 79.939554442, 15.990017317, 0.0 ], [ 79.939883174, 15.990747064, 0.0 ], [ 79.940069262, 15.990705091, 0.0 ], [ 79.940547951, 15.991862738, 0.0 ], [ 79.94058162, 15.992004728, 0.0 ], [ 79.940656696, 15.992082707, 0.0 ], [ 79.940834015, 15.992110888, 0.0 ], [ 79.940938252, 15.992170246, 0.0 ], [ 79.941272204, 15.992486913, 0.0 ], [ 79.941480768, 15.992466174, 0.0 ], [ 79.941812329, 15.992862697, 0.0 ], [ 79.941776195, 15.993453749, 0.0 ], [ 79.941233375, 15.993795384, 0.0 ], [ 79.941351117, 15.994468871, 0.0 ], [ 79.942063583, 15.994337416, 0.0 ], [ 79.942806648, 15.994560496, 0.0 ], [ 79.943114386, 15.995120472, 0.0 ], [ 79.943080543, 15.995811904, 0.0 ] ] ] } },
{ "type": "Feature", "properties": { "Name": null, "description": "Project Outer Boundary", "timestamp": null, "begin": null, "end": null, "altitudeMode": null, "tessellate": -1, "extrude": 1, "visibility": -1, "drawOrder": null, "icon": null }, "geometry": { "type": "Polygon", "coordinates": [ [ [ 79.937448209, 15.995929583, 0.0 ], [ 79.937293475, 15.995957761, 0.0 ], [ 79.937186864, 15.996842604, 0.0 ], [ 79.937030593, 15.997338275, 0.0 ], [ 79.936993574, 15.997475404, 0.0 ], [ 79.936797191, 15.997543916, 0.0 ], [ 79.93665579, 15.9976121, 0.0 ], [ 79.935500612, 15.997771132, 0.0 ], [ 79.934975066, 15.996736104, 0.0 ], [ 79.934607417, 15.995998118, 0.0 ], [ 79.934042393, 15.994876515, 0.0 ], [ 79.934126657, 15.994810613, 0.0 ], [ 79.934608892, 15.994433462, 0.0 ], [ 79.934865239, 15.994125152, 0.0 ], [ 79.935546857, 15.993695566, 0.0 ], [ 79.936065923, 15.99362914, 0.0 ], [ 79.937226642, 15.994730239, 0.0 ], [ 79.937104654, 15.995184564, 0.0 ], [ 79.937448209, 15.995929583, 0.0 ] ] ] } },
{ "type": "Feature", "properties": { "Name": null, "description": "Project Outer Boundary", "timestamp": null, "begin": null, "end": null, "altitudeMode": null, "tessellate": -1, "extrude": 1, "visibility": -1, "drawOrder": null, "icon": null }, "geometry": { "type": "Polygon", "coordinates": [ [ [ 79.947237146, 16.002401696, 0.0 ], [ 79.947138936, 16.002567887, 0.0 ], [ 79.94709466, 16.00266738, 0.0 ], [ 79.946614487, 16.002648105, 0.0 ], [ 79.945121004, 16.002984788, 0.0 ], [ 79.944355542, 16.003179861, 0.0 ], [ 79.943829153, 16.003333687, 0.0 ], [ 79.943332136, 16.003449962, 0.0 ], [ 79.942370083, 16.003675029, 0.0 ], [ 79.941228211, 16.003515858, 0.0 ], [ 79.941378536, 16.004080828, 0.0 ], [ 79.940722889, 16.003835797, 0.0 ], [ 79.940187279, 16.003645597, 0.0 ], [ 79.939387402, 16.003368317, 0.0 ], [ 79.939346168, 16.003405382, 0.0 ], [ 79.939282495, 16.003460965, 0.0 ], [ 79.939018429, 16.004610734, 0.0 ], [ 79.939465689, 16.005884073, 0.0 ], [ 79.93955383, 16.006242727, 0.0 ], [ 79.939626067, 16.00657273, 0.0 ], [ 79.939793858, 16.007291452, 0.0 ], [ 79.94009534, 16.007628832, 0.0 ], [ 79.940010485, 16.007961549, 0.0 ], [ 79.939902955, 16.008443226, 0.0 ], [ 79.93992204, 16.009183432, 0.0 ], [ 79.939954332, 16.010667167, 0.0 ], [ 79.93991445, 16.010829041, 0.0 ], [ 79.939869639, 16.011096259, 0.0 ], [ 79.939514474, 16.012572756, 0.0 ], [ 79.939428508, 16.012736418, 0.0 ], [ 79.938464528, 16.014384965, 0.0 ], [ 79.938319265, 16.014828933, 0.0 ], [ 79.938187851, 16.015571819, 0.0 ], [ 79.938000862, 16.016490024, 0.0 ], [ 79.937902081, 16.01701043, 0.0 ], [ 79.937884811, 16.017245053, 0.0 ], [ 79.937839047, 16.017657867, 0.0 ], [ 79.937686261, 16.018441883, 0.0 ], [ 79.93766306, 16.018602155, 0.0 ], [ 79.93744339, 16.018637585, 0.0 ], [ 79.936137022, 16.018871411, 0.0 ], [ 79.935077507, 16.019064496, 0.0 ], [ 79.934460306, 16.019198312, 0.0 ], [ 79.933998995, 16.019375985, 0.0 ], [ 79.933565511, 16.01958603, 0.0 ], [ 79.932870979, 16.019973625, 0.0 ], [ 79.932281882, 16.020293078, 0.0 ], [ 79.931690534, 16.020632504, 0.0 ], [ 79.929897669, 16.02076193, 0.0 ], [ 79.929962869, 16.021003229, 0.0 ], [ 79.930057132, 16.021414921, 0.0 ], [ 79.929238085, 16.021525704, 0.0 ], [ 79.929240959, 16.021634275, 0.0 ], [ 79.92871963, 16.021745032, 0.0 ], [ 79.928759795, 16.021898317, 0.0 ], [ 79.927942628, 16.022082909, 0.0 ], [ 79.927771112, 16.021319771, 0.0 ], [ 79.927108999, 16.021389446, 0.0 ], [ 79.926770079, 16.019743083, 0.0 ], [ 79.926619714, 16.019043126, 0.0 ], [ 79.926503908, 16.018643449, 0.0 ], [ 79.926429063, 16.018269801, 0.0 ], [ 79.925206777, 16.01825983, 0.0 ], [ 79.92507045, 16.017331524, 0.0 ], [ 79.924847593, 16.017318006, 0.0 ], [ 79.92416137, 16.017346571, 0.0 ], [ 79.92364751, 16.017374693, 0.0 ], [ 79.923799972, 16.017148842, 0.0 ], [ 79.924037378, 16.016785182, 0.0 ], [ 79.924444362, 16.016179904, 0.0 ], [ 79.924775812, 16.015672801, 0.0 ], [ 79.925092052, 16.015129877, 0.0 ], [ 79.925430256, 16.014494894, 0.0 ], [ 79.925527847, 16.014319689, 0.0 ], [ 79.925730867, 16.013935878, 0.0 ], [ 79.926033544, 16.013383505, 0.0 ], [ 79.926159757, 16.013045878, 0.0 ], [ 79.926247491, 16.012776132, 0.0 ], [ 79.92630244, 16.012563183, 0.0 ], [ 79.926315371, 16.012430418, 0.0 ], [ 79.926315659, 16.012296679, 0.0 ], [ 79.926283854, 16.01215979, 0.0 ], [ 79.926159093, 16.011956047, 0.0 ], [ 79.925922054, 16.011673404, 0.0 ], [ 79.925754653, 16.011451167, 0.0 ], [ 79.925467926, 16.011056775, 0.0 ], [ 79.925176378, 16.010642243, 0.0 ], [ 79.924913325, 16.010314194, 0.0 ], [ 79.924785615, 16.010097041, 0.0 ], [ 79.924506036, 16.009494567, 0.0 ], [ 79.924287784, 16.009017538, 0.0 ], [ 79.923985892, 16.008384517, 0.0 ], [ 79.923863624, 16.008177009, 0.0 ], [ 79.923705039, 16.008022353, 0.0 ], [ 79.923284375, 16.007679661, 0.0 ], [ 79.923061345, 16.007493168, 0.0 ], [ 79.922739813, 16.007239685, 0.0 ], [ 79.922597617, 16.007185445, 0.0 ], [ 79.922365395, 16.007134037, 0.0 ], [ 79.922102664, 16.007165329, 0.0 ], [ 79.921890046, 16.007265827, 0.0 ], [ 79.921537981, 16.007483899, 0.0 ], [ 79.92121822, 16.00767777, 0.0 ], [ 79.920677317, 16.008001107, 0.0 ], [ 79.920095201, 16.008364688, 0.0 ], [ 79.919825368, 16.008540993, 0.0 ], [ 79.919720558, 16.008602652, 0.0 ], [ 79.919549737, 16.008678688, 0.0 ], [ 79.919406727, 16.008719408, 0.0 ], [ 79.918735269, 16.008754879, 0.0 ], [ 79.918230647, 16.008792937, 0.0 ], [ 79.917868286, 16.008812566, 0.0 ], [ 79.917326437, 16.008857166, 0.0 ], [ 79.91710116, 16.008857919, 0.0 ], [ 79.916987564, 16.008856788, 0.0 ], [ 79.916830537, 16.008805673, 0.0 ], [ 79.916692815, 16.008728273, 0.0 ], [ 79.916522482, 16.008584339, 0.0 ], [ 79.916413864, 16.008187731, 0.0 ], [ 79.916248925, 16.00744431, 0.0 ], [ 79.916197165, 16.007226437, 0.0 ], [ 79.915951749, 16.006331365, 0.0 ], [ 79.915606276, 16.005053136, 0.0 ], [ 79.915485685, 16.00460724, 0.0 ], [ 79.915649826, 16.00458353, 0.0 ], [ 79.915617164, 16.004454497, 0.0 ], [ 79.915566928, 16.004331567, 0.0 ], [ 79.915832103, 16.003518484, 0.0 ], [ 79.916212129, 16.00275271, 0.0 ], [ 79.916399358, 16.002694744, 0.0 ], [ 79.916452178, 16.002375092, 0.0 ], [ 79.916627838, 16.002338637, 0.0 ], [ 79.916402966, 16.001386054, 0.0 ], [ 79.915890506, 15.999847265, 0.0 ], [ 79.916108624, 15.999619972, 0.0 ], [ 79.916242765, 15.998285655, 0.0 ], [ 79.91650963, 15.996148498, 0.0 ], [ 79.91669816, 15.994728266, 0.0 ], [ 79.916325799, 15.993771771, 0.0 ], [ 79.916483064, 15.993748363, 0.0 ], [ 79.917086104, 15.994274155, 0.0 ], [ 79.917349976, 15.994511868, 0.0 ], [ 79.91768293, 15.994613695, 0.0 ], [ 79.918625366, 15.994901941, 0.0 ], [ 79.91982623, 15.994940851, 0.0 ], [ 79.920438092, 15.995162876, 0.0 ], [ 79.920980311, 15.99521857, 0.0 ], [ 79.92119264, 15.99524067, 0.0 ], [ 79.922990743, 15.99528981, 0.0 ], [ 79.923757444, 15.995275437, 0.0 ], [ 79.92397589, 15.995268165, 0.0 ], [ 79.925804268, 15.99520723, 0.0 ], [ 79.927777142, 15.995025931, 0.0 ], [ 79.92849007, 15.994960413, 0.0 ], [ 79.92871023, 15.994931027, 0.0 ], [ 79.929168295, 15.99489191, 0.0 ], [ 79.929685606, 15.994484362, 0.0 ], [ 79.929816672, 15.994381116, 0.0 ], [ 79.930285469, 15.99406065, 0.0 ], [ 79.931089047, 15.993527819, 0.0 ], [ 79.931946119, 15.992944844, 0.0 ], [ 79.931951734, 15.992938562, 0.0 ], [ 79.932104146, 15.992865145, 0.0 ], [ 79.931884102, 15.992420206, 0.0 ], [ 79.932055998, 15.99243798, 0.0 ], [ 79.931086018, 15.990542402, 0.0 ], [ 79.932242447, 15.990004846, 0.0 ], [ 79.933028995, 15.988823248, 0.0 ], [ 79.933015329, 15.988416882, 0.0 ], [ 79.932645907, 15.98780953, 0.0 ], [ 79.932263487, 15.987056438, 0.0 ], [ 79.931949001, 15.986872459, 0.0 ], [ 79.931514461, 15.986151106, 0.0 ], [ 79.931698001, 15.985479627, 0.0 ], [ 79.931867801, 15.984447538, 0.0 ], [ 79.932118735, 15.983495107, 0.0 ], [ 79.932335601, 15.982392032, 0.0 ], [ 79.938077889, 15.977186538, 0.0 ], [ 79.938318569, 15.977006736, 0.0 ], [ 79.939149206, 15.978713792, 0.0 ], [ 79.939581169, 15.979920048, 0.0 ], [ 79.939973763, 15.98070495, 0.0 ], [ 79.940071677, 15.98083725, 0.0 ], [ 79.940107985, 15.981086357, 0.0 ], [ 79.940026301, 15.981956881, 0.0 ], [ 79.939813198, 15.982076774, 0.0 ], [ 79.938625184, 15.982658855, 0.0 ], [ 79.937388455, 15.983264804, 0.0 ], [ 79.93743249, 15.983789669, 0.0 ], [ 79.937610364, 15.984348341, 0.0 ], [ 79.937883747, 15.985056043, 0.0 ], [ 79.938161085, 15.985147532, 0.0 ], [ 79.938250269, 15.985296232, 0.0 ], [ 79.938629444, 15.985304241, 0.0 ], [ 79.938737031, 15.985176019, 0.0 ], [ 79.939159431, 15.986184128, 0.0 ], [ 79.939351984, 15.985960908, 0.0 ], [ 79.939553057, 15.985851288, 0.0 ], [ 79.940103382, 15.985732742, 0.0 ], [ 79.940545308, 15.985394371, 0.0 ], [ 79.94075694, 15.985344975, 0.0 ], [ 79.940782678, 15.985559229, 0.0 ], [ 79.940841253, 15.985714638, 0.0 ], [ 79.941177019, 15.986547717, 0.0 ], [ 79.941581295, 15.987550779, 0.0 ], [ 79.94196796, 15.98866235, 0.0 ], [ 79.942002839, 15.988767999, 0.0 ], [ 79.942040444, 15.989019941, 0.0 ], [ 79.942160687, 15.989415334, 0.0 ], [ 79.942270953, 15.989778028, 0.0 ], [ 79.942269988, 15.989961608, 0.0 ], [ 79.942603353, 15.990748809, 0.0 ], [ 79.942643759, 15.990926803, 0.0 ], [ 79.94289531, 15.991700182, 0.0 ], [ 79.943026669, 15.992155522, 0.0 ], [ 79.943059742, 15.992391896, 0.0 ], [ 79.943073938, 15.992503634, 0.0 ], [ 79.943156646, 15.992763915, 0.0 ], [ 79.943164087, 15.992941208, 0.0 ], [ 79.943174851, 15.993197474, 0.0 ], [ 79.943254507, 15.993350455, 0.0 ], [ 79.943479441, 15.993931591, 0.0 ], [ 79.943554687, 15.994287225, 0.0 ], [ 79.943725433, 15.994428523, 0.0 ], [ 79.943861526, 15.99501507, 0.0 ], [ 79.944003716, 15.995627868, 0.0 ], [ 79.944238557, 15.995581051, 0.0 ], [ 79.945294806, 15.995376265, 0.0 ], [ 79.947655745, 15.994793595, 0.0 ], [ 79.94895967, 15.994332854, 0.0 ], [ 79.950215553, 15.99390199, 0.0 ], [ 79.95042714, 15.993831838, 0.0 ], [ 79.950391962, 15.994129973, 0.0 ], [ 79.949054625, 15.994587999, 0.0 ], [ 79.947738706, 15.995052978, 0.0 ], [ 79.945357015, 15.99564077, 0.0 ], [ 79.945357006, 15.99564077, 0.0 ], [ 79.944294401, 15.995846788, 0.0 ], [ 79.943066866, 15.996091499, 0.0 ], [ 79.940342014, 15.996569185, 0.0 ], [ 79.940183331, 15.996570075, 0.0 ], [ 79.938724837, 15.997159675, 0.0 ], [ 79.936907662, 15.997793644, 0.0 ], [ 79.936861682, 15.997816985, 0.0 ], [ 79.937035301, 15.998136971, 0.0 ], [ 79.937154546, 15.998356107, 0.0 ], [ 79.937233407, 15.998502083, 0.0 ], [ 79.937343531, 15.998705044, 0.0 ], [ 79.937418033, 15.998842352, 0.0 ], [ 79.93761259, 15.999200921, 0.0 ], [ 79.937654488, 15.999271052, 0.0 ], [ 79.937691332, 15.999331868, 0.0 ], [ 79.937668362, 15.999486209, 0.0 ], [ 79.93759311, 15.999974697, 0.0 ], [ 79.93754863, 16.000290717, 0.0 ], [ 79.937522257, 16.00046793, 0.0 ], [ 79.937485257, 16.000716534, 0.0 ], [ 79.937477714, 16.000767222, 0.0 ], [ 79.938369393, 16.001392244, 0.0 ], [ 79.938372989, 16.001430458, 0.0 ], [ 79.938458808, 16.002342504, 0.0 ], [ 79.938516015, 16.002343557, 0.0 ], [ 79.938548525, 16.002344156, 0.0 ], [ 79.93860709, 16.002345234, 0.0 ], [ 79.93903173, 16.002353053, 0.0 ], [ 79.939725425, 16.003069617, 0.0 ], [ 79.940017658, 16.00303323, 0.0 ], [ 79.940978545, 16.0031958, 0.0 ], [ 79.941424087, 16.00325891, 0.0 ], [ 79.942356644, 16.003399185, 0.0 ], [ 79.943266226, 16.003186393, 0.0 ], [ 79.943755598, 16.003071906, 0.0 ], [ 79.944279261, 16.002918877, 0.0 ], [ 79.945053457, 16.002721578, 0.0 ], [ 79.946587999, 16.002375639, 0.0 ], [ 79.947237146, 16.002401696, 0.0 ] ] ] } },
{ "type": "Feature", "properties": { "Name": null, "description": "Project Boundary", "timestamp": null, "begin": null, "end": null, "altitudeMode": null, "tessellate": -1, "extrude": 1, "visibility": -1, "drawOrder": null, "icon": null }, "geometry": { "type": "Polygon", "coordinates": [ [ [ 79.925220768, 16.003513547, 0.0 ], [ 79.925778198, 16.007012937, 0.0 ], [ 79.926373342, 16.010554041, 0.0 ], [ 79.926977835, 16.014022171, 0.0 ], [ 79.927582077, 16.017525184, 0.0 ], [ 79.928180861, 16.020991648, 0.0 ], [ 79.928477344, 16.021962121, 0.0 ], [ 79.927942628, 16.022082909, 0.0 ], [ 79.927771112, 16.021319771, 0.0 ], [ 79.927108999, 16.021389446, 0.0 ], [ 79.926770079, 16.019743083, 0.0 ], [ 79.926619714, 16.019043126, 0.0 ], [ 79.926503908, 16.018643449, 0.0 ], [ 79.926429063, 16.018269801, 0.0 ], [ 79.925206777, 16.01825983, 0.0 ], [ 79.92507045, 16.017331524, 0.0 ], [ 79.924847593, 16.017318006, 0.0 ], [ 79.92416137, 16.017346571, 0.0 ], [ 79.92364751, 16.017374693, 0.0 ], [ 79.923799972, 16.017148842, 0.0 ], [ 79.924037378, 16.016785182, 0.0 ], [ 79.924444362, 16.016179904, 0.0 ], [ 79.924775812, 16.015672801, 0.0 ], [ 79.925092052, 16.015129877, 0.0 ], [ 79.925430256, 16.014494894, 0.0 ], [ 79.925527847, 16.014319689, 0.0 ], [ 79.925730867, 16.013935878, 0.0 ], [ 79.926033544, 16.013383505, 0.0 ], [ 79.926159757, 16.013045878, 0.0 ], [ 79.926247491, 16.012776132, 0.0 ], [ 79.92630244, 16.012563183, 0.0 ], [ 79.926315371, 16.012430418, 0.0 ], [ 79.926315659, 16.012296679, 0.0 ], [ 79.926283854, 16.01215979, 0.0 ], [ 79.926159093, 16.011956047, 0.0 ], [ 79.925922054, 16.011673404, 0.0 ], [ 79.925754653, 16.011451167, 0.0 ], [ 79.925467926, 16.011056775, 0.0 ], [ 79.925176378, 16.010642243, 0.0 ], [ 79.924913325, 16.010314194, 0.0 ], [ 79.924785615, 16.010097041, 0.0 ], [ 79.924506036, 16.009494567, 0.0 ], [ 79.924287784, 16.009017538, 0.0 ], [ 79.923985892, 16.008384517, 0.0 ], [ 79.923863624, 16.008177009, 0.0 ], [ 79.923705039, 16.008022353, 0.0 ], [ 79.923284375, 16.007679661, 0.0 ], [ 79.923061345, 16.007493168, 0.0 ], [ 79.922739813, 16.007239685, 0.0 ], [ 79.922597617, 16.007185445, 0.0 ], [ 79.922365395, 16.007134037, 0.0 ], [ 79.922102664, 16.007165329, 0.0 ], [ 79.921890046, 16.007265827, 0.0 ], [ 79.921537981, 16.007483899, 0.0 ], [ 79.92121822, 16.00767777, 0.0 ], [ 79.920677317, 16.008001107, 0.0 ], [ 79.920095201, 16.008364688, 0.0 ], [ 79.919825368, 16.008540993, 0.0 ], [ 79.919720558, 16.008602652, 0.0 ], [ 79.919549737, 16.008678688, 0.0 ], [ 79.919406727, 16.008719408, 0.0 ], [ 79.918735269, 16.008754879, 0.0 ], [ 79.918230647, 16.008792937, 0.0 ], [ 79.917868286, 16.008812566, 0.0 ], [ 79.917326437, 16.008857166, 0.0 ], [ 79.91710116, 16.008857919, 0.0 ], [ 79.916987564, 16.008856788, 0.0 ], [ 79.916830537, 16.008805673, 0.0 ], [ 79.916692815, 16.008728273, 0.0 ], [ 79.916522482, 16.008584339, 0.0 ], [ 79.916413864, 16.008187731, 0.0 ], [ 79.916248925, 16.00744431, 0.0 ], [ 79.916197165, 16.007226437, 0.0 ], [ 79.915951749, 16.006331365, 0.0 ], [ 79.915606276, 16.005053136, 0.0 ], [ 79.915485685, 16.00460724, 0.0 ], [ 79.915649826, 16.00458353, 0.0 ], [ 79.915617164, 16.004454497, 0.0 ], [ 79.915566928, 16.004331567, 0.0 ], [ 79.915832103, 16.003518484, 0.0 ], [ 79.916212129, 16.00275271, 0.0 ], [ 79.916399358, 16.002694744, 0.0 ], [ 79.916452178, 16.002375092, 0.0 ], [ 79.916627838, 16.002338637, 0.0 ], [ 79.916402966, 16.001386054, 0.0 ], [ 79.915890506, 15.999847265, 0.0 ], [ 79.916108624, 15.999619972, 0.0 ], [ 79.916242765, 15.998285655, 0.0 ], [ 79.91650963, 15.996148498, 0.0 ], [ 79.91669816, 15.994728266, 0.0 ], [ 79.916325799, 15.993771771, 0.0 ], [ 79.916483064, 15.993748363, 0.0 ], [ 79.917086104, 15.994274155, 0.0 ], [ 79.917349976, 15.994511868, 0.0 ], [ 79.91768293, 15.994613695, 0.0 ], [ 79.918625366, 15.994901941, 0.0 ], [ 79.91982623, 15.994940851, 0.0 ], [ 79.920438092, 15.995162876, 0.0 ], [ 79.920980311, 15.99521857, 0.0 ], [ 79.92119264, 15.99524067, 0.0 ], [ 79.922990743, 15.99528981, 0.0 ], [ 79.923745471, 15.995275661, 0.0 ], [ 79.923942276, 15.996469274, 0.0 ], [ 79.92455136, 15.999988184, 0.0 ], [ 79.925220768, 16.003513547, 0.0 ] ] ] } },
{ "type": "Feature", "properties": { "Name": null, "description": "Project Boundary", "timestamp": null, "begin": null, "end": null, "altitudeMode": null, "tessellate": -1, "extrude": 1, "visibility": -1, "drawOrder": null, "icon": null }, "geometry": { "type": "Polygon", "coordinates": [ [ [ 79.930328227, 16.006541312, 0.0 ], [ 79.929480323, 16.017051661, 0.0 ], [ 79.929317122, 16.020886788, 0.0 ], [ 79.929572309, 16.021480498, 0.0 ], [ 79.929238085, 16.021525704, 0.0 ], [ 79.929240959, 16.021634275, 0.0 ], [ 79.928750133, 16.021738551, 0.0 ], [ 79.928500214, 16.020920498, 0.0 ], [ 79.927904721, 16.017473124, 0.0 ], [ 79.927300428, 16.013969846, 0.0 ], [ 79.926696043, 16.010502365, 0.0 ], [ 79.926101264, 16.006963469, 0.0 ], [ 79.925543318, 16.003460875, 0.0 ], [ 79.92487352, 15.999933487, 0.0 ], [ 79.924265064, 15.996418241, 0.0 ], [ 79.924074892, 15.995264866, 0.0 ], [ 79.925804268, 15.99520723, 0.0 ], [ 79.927777142, 15.995025931, 0.0 ], [ 79.92849007, 15.994960413, 0.0 ], [ 79.92871023, 15.994931027, 0.0 ], [ 79.929168295, 15.99489191, 0.0 ], [ 79.929685606, 15.994484362, 0.0 ], [ 79.929816672, 15.994381116, 0.0 ], [ 79.930285469, 15.99406065, 0.0 ], [ 79.931089047, 15.993527819, 0.0 ], [ 79.931964138, 15.992932587, 0.0 ], [ 79.932104146, 15.992865145, 0.0 ], [ 79.931884102, 15.992420206, 0.0 ], [ 79.932055998, 15.99243798, 0.0 ], [ 79.931086018, 15.990542402, 0.0 ], [ 79.932242447, 15.990004846, 0.0 ], [ 79.933028995, 15.988823248, 0.0 ], [ 79.933015329, 15.988416882, 0.0 ], [ 79.932645907, 15.98780953, 0.0 ], [ 79.932263487, 15.987056438, 0.0 ], [ 79.931949001, 15.986872459, 0.0 ], [ 79.931514461, 15.986151106, 0.0 ], [ 79.931698001, 15.985479627, 0.0 ], [ 79.931867801, 15.984447538, 0.0 ], [ 79.932118735, 15.983495107, 0.0 ], [ 79.932335601, 15.982392032, 0.0 ], [ 79.938077889, 15.977186538, 0.0 ], [ 79.938318569, 15.977006736, 0.0 ], [ 79.938883921, 15.978168603, 0.0 ], [ 79.935748134, 15.98224147, 0.0 ], [ 79.934379204, 15.986833744, 0.0 ], [ 79.932326185, 15.993091299, 0.0 ], [ 79.930743446, 16.000115492, 0.0 ], [ 79.930328227, 16.006541312, 0.0 ] ] ] } },
{ "type": "Feature", "properties": { "Name": null, "description": "Project Boundary", "timestamp": null, "begin": null, "end": null, "altitudeMode": null, "tessellate": -1, "extrude": 1, "visibility": -1, "drawOrder": null, "icon": null }, "geometry": { "type": "Polygon", "coordinates": [ [ [ 79.942643759, 15.990926803, 0.0 ], [ 79.94289531, 15.991700182, 0.0 ], [ 79.943026669, 15.992155522, 0.0 ], [ 79.943059742, 15.992391896, 0.0 ], [ 79.943073938, 15.992503634, 0.0 ], [ 79.943156646, 15.992763915, 0.0 ], [ 79.943164087, 15.992941208, 0.0 ], [ 79.943174851, 15.993197474, 0.0 ], [ 79.943254507, 15.993350455, 0.0 ], [ 79.943479441, 15.993931591, 0.0 ], [ 79.943554687, 15.994287225, 0.0 ], [ 79.943725433, 15.994428523, 0.0 ], [ 79.943861526, 15.99501507, 0.0 ], [ 79.944003716, 15.995627868, 0.0 ], [ 79.944238557, 15.995581051, 0.0 ], [ 79.945294806, 15.995376265, 0.0 ], [ 79.947655745, 15.994793595, 0.0 ], [ 79.94895967, 15.994332854, 0.0 ], [ 79.950215553, 15.99390199, 0.0 ], [ 79.95042714, 15.993831838, 0.0 ], [ 79.950391962, 15.994129973, 0.0 ], [ 79.949054625, 15.994587999, 0.0 ], [ 79.947738706, 15.995052978, 0.0 ], [ 79.94535705, 15.995640761, 0.0 ], [ 79.944294401, 15.995846788, 0.0 ], [ 79.943066866, 15.996091499, 0.0 ], [ 79.940342014, 15.996569185, 0.0 ], [ 79.940183331, 15.996570075, 0.0 ], [ 79.938724837, 15.997159675, 0.0 ], [ 79.936907662, 15.997793644, 0.0 ], [ 79.936861682, 15.997816985, 0.0 ], [ 79.937035301, 15.998136971, 0.0 ], [ 79.937154546, 15.998356107, 0.0 ], [ 79.937233407, 15.998502083, 0.0 ], [ 79.937343531, 15.998705044, 0.0 ], [ 79.937418033, 15.998842352, 0.0 ], [ 79.93761259, 15.999200921, 0.0 ], [ 79.937654488, 15.999271052, 0.0 ], [ 79.937691332, 15.999331868, 0.0 ], [ 79.937668362, 15.999486209, 0.0 ], [ 79.93759311, 15.999974697, 0.0 ], [ 79.93754863, 16.000290717, 0.0 ], [ 79.937522257, 16.00046793, 0.0 ], [ 79.937485257, 16.000716534, 0.0 ], [ 79.937477714, 16.000767222, 0.0 ], [ 79.938369393, 16.001392244, 0.0 ], [ 79.938372989, 16.001430458, 0.0 ], [ 79.938458808, 16.002342504, 0.0 ], [ 79.938516015, 16.002343557, 0.0 ], [ 79.938548525, 16.002344156, 0.0 ], [ 79.93860709, 16.002345234, 0.0 ], [ 79.93903173, 16.002353053, 0.0 ], [ 79.939725425, 16.003069617, 0.0 ], [ 79.940017658, 16.00303323, 0.0 ], [ 79.940978545, 16.0031958, 0.0 ], [ 79.941424087, 16.00325891, 0.0 ], [ 79.942356644, 16.003399185, 0.0 ], [ 79.943266226, 16.003186393, 0.0 ], [ 79.943755598, 16.003071906, 0.0 ], [ 79.944279261, 16.002918877, 0.0 ], [ 79.945053457, 16.002721578, 0.0 ], [ 79.946587999, 16.002375639, 0.0 ], [ 79.947237146, 16.002401696, 0.0 ], [ 79.947138936, 16.002567887, 0.0 ], [ 79.94709466, 16.00266738, 0.0 ], [ 79.946614487, 16.002648105, 0.0 ], [ 79.945121004, 16.002984788, 0.0 ], [ 79.944355542, 16.003179861, 0.0 ], [ 79.943829153, 16.003333687, 0.0 ], [ 79.943332136, 16.003449962, 0.0 ], [ 79.942370083, 16.003675029, 0.0 ], [ 79.941228211, 16.003515858, 0.0 ], [ 79.941378536, 16.004080828, 0.0 ], [ 79.940722889, 16.003835797, 0.0 ], [ 79.940187279, 16.003645597, 0.0 ], [ 79.939387402, 16.003368317, 0.0 ], [ 79.939346168, 16.003405382, 0.0 ], [ 79.939282495, 16.003460965, 0.0 ], [ 79.939018429, 16.004610734, 0.0 ], [ 79.939465689, 16.005884073, 0.0 ], [ 79.93955383, 16.006242727, 0.0 ], [ 79.939626067, 16.00657273, 0.0 ], [ 79.939793858, 16.007291452, 0.0 ], [ 79.94009534, 16.007628832, 0.0 ], [ 79.940010485, 16.007961549, 0.0 ], [ 79.939902955, 16.008443226, 0.0 ], [ 79.93992204, 16.009183432, 0.0 ], [ 79.939954332, 16.010667167, 0.0 ], [ 79.93991445, 16.010829041, 0.0 ], [ 79.939869639, 16.011096259, 0.0 ], [ 79.939514474, 16.012572756, 0.0 ], [ 79.939428508, 16.012736418, 0.0 ], [ 79.938464528, 16.014384965, 0.0 ], [ 79.938319265, 16.014828933, 0.0 ], [ 79.938187851, 16.015571819, 0.0 ], [ 79.938000862, 16.016490024, 0.0 ], [ 79.937902081, 16.01701043, 0.0 ], [ 79.937884811, 16.017245053, 0.0 ], [ 79.937839047, 16.017657867, 0.0 ], [ 79.937686261, 16.018441883, 0.0 ], [ 79.93766306, 16.018602155, 0.0 ], [ 79.93744339, 16.018637585, 0.0 ], [ 79.936137022, 16.018871411, 0.0 ], [ 79.935077507, 16.019064496, 0.0 ], [ 79.934460306, 16.019198312, 0.0 ], [ 79.933998995, 16.019375985, 0.0 ], [ 79.933565511, 16.01958603, 0.0 ], [ 79.932870979, 16.019973625, 0.0 ], [ 79.932281882, 16.020293078, 0.0 ], [ 79.931690534, 16.020632504, 0.0 ], [ 79.929897669, 16.02076193, 0.0 ], [ 79.929962869, 16.021003229, 0.0 ], [ 79.930057132, 16.021414921, 0.0 ], [ 79.929859267, 16.021441684, 0.0 ], [ 79.929599813, 16.020838049, 0.0 ], [ 79.929760248, 16.01706779, 0.0 ], [ 79.930607906, 16.006560317, 0.0 ], [ 79.931021918, 16.000153039, 0.0 ], [ 79.932597327, 15.993161336, 0.0 ], [ 79.93464753, 15.986912336, 0.0 ], [ 79.936003376, 15.982363935, 0.0 ], [ 79.939019278, 15.978446776, 0.0 ], [ 79.939149206, 15.978713792, 0.0 ], [ 79.939581169, 15.979920048, 0.0 ], [ 79.939973763, 15.98070495, 0.0 ], [ 79.940071677, 15.98083725, 0.0 ], [ 79.940107985, 15.981086357, 0.0 ], [ 79.940026301, 15.981956881, 0.0 ], [ 79.939813198, 15.982076774, 0.0 ], [ 79.938625184, 15.982658855, 0.0 ], [ 79.937388455, 15.983264804, 0.0 ], [ 79.93743249, 15.983789669, 0.0 ], [ 79.937610364, 15.984348341, 0.0 ], [ 79.937883747, 15.985056043, 0.0 ], [ 79.938161085, 15.985147532, 0.0 ], [ 79.938250269, 15.985296232, 0.0 ], [ 79.938629444, 15.985304241, 0.0 ], [ 79.938737031, 15.985176019, 0.0 ], [ 79.939159431, 15.986184128, 0.0 ], [ 79.939351984, 15.985960908, 0.0 ], [ 79.939553057, 15.985851288, 0.0 ], [ 79.940103382, 15.985732742, 0.0 ], [ 79.940545308, 15.985394371, 0.0 ], [ 79.94075694, 15.985344975, 0.0 ], [ 79.940782678, 15.985559229, 0.0 ], [ 79.940841253, 15.985714638, 0.0 ], [ 79.941177019, 15.986547717, 0.0 ], [ 79.941581295, 15.987550779, 0.0 ], [ 79.94196796, 15.98866235, 0.0 ], [ 79.942002839, 15.988767999, 0.0 ], [ 79.942040444, 15.989019941, 0.0 ], [ 79.942160687, 15.989415334, 0.0 ], [ 79.942270953, 15.989778028, 0.0 ], [ 79.942269988, 15.989961608, 0.0 ], [ 79.942603353, 15.990748809, 0.0 ], [ 79.942643759, 15.990926803, 0.0 ] ] ] } }
]
}
