{
"type": "FeatureCollection",
"name": "Area_Features___5_",
"crs": { "type": "name", "properties": { "name": "urn:ogc:def:crs:OGC:1.3:CRS84" } },
"features": [
{ "type": "Feature", "properties": { "Name": null, "description": "100 MW", "timestamp": null, "begin": null, "end": null, "altitudeMode": null, "tessellate": -1, "extrude": 1, "visibility": -1, "drawOrder": null, "icon": null }, "geometry": { "type": "Polygon", "coordinates": [ [ [ 78.449387122, 14.031287468, 0.0 ], [ 78.449726566, 14.031725162, 0.0 ], [ 78.45000356, 14.03187683, 0.0 ], [ 78.450022427, 14.031989341, 0.0 ], [ 78.449912203, 14.032191171, 0.0 ], [ 78.450003571, 14.032677102, 0.0 ], [ 78.449985747, 14.032737073, 0.0 ], [ 78.44998869, 14.032917284, 0.0 ], [ 78.44992223, 14.032836731, 0.0 ], [ 78.449777658, 14.032896625, 0.0 ], [ 78.449585574, 14.032663229, 0.0 ], [ 78.448720898, 14.032967723, 0.0 ], [ 78.447776166, 14.033152342, 0.0 ], [ 78.44713118, 14.033788769, 0.0 ], [ 78.44574846, 14.034048008, 0.0 ], [ 78.44573846, 14.034087397, 0.0 ], [ 78.445477887, 14.034148474, 0.0 ], [ 78.445315164, 14.034115974, 0.0 ], [ 78.445344714, 14.034306946, 0.0 ], [ 78.445112464, 14.034582864, 0.0 ], [ 78.4450575, 14.03502186, 0.0 ], [ 78.44513765, 14.03547698, 0.0 ], [ 78.444499389, 14.035665558, 0.0 ], [ 78.444202615, 14.035998034, 0.0 ], [ 78.44474303, 14.037227042, 0.0 ], [ 78.443266581, 14.037629407, 0.0 ], [ 78.443246717, 14.037443826, 0.0 ], [ 78.442905196, 14.037431364, 0.0 ], [ 78.442583334, 14.037035716, 0.0 ], [ 78.441867224, 14.035616116, 0.0 ], [ 78.442173317, 14.035412418, 0.0 ], [ 78.442062276, 14.035086857, 0.0 ], [ 78.441162187, 14.035608657, 0.0 ], [ 78.441239925, 14.034982052, 0.0 ], [ 78.441453694, 14.033353973, 0.0 ], [ 78.442206844, 14.033219474, 0.0 ], [ 78.442224673, 14.032510152, 0.0 ], [ 78.442549613, 14.032216999, 0.0 ], [ 78.443096588, 14.03241987, 0.0 ], [ 78.443677185, 14.032473423, 0.0 ], [ 78.443889246, 14.032218934, 0.0 ], [ 78.443885692, 14.03221043, 0.0 ], [ 78.443882695, 14.032214026, 0.0 ], [ 78.443603391, 14.03200478, 0.0 ], [ 78.443285147, 14.031911399, 0.0 ], [ 78.44311896, 14.03161322, 0.0 ], [ 78.44278175, 14.031453092, 0.0 ], [ 78.442421855, 14.031282191, 0.0 ], [ 78.442641979, 14.030991255, 0.0 ], [ 78.442693467, 14.030795838, 0.0 ], [ 78.44263974, 14.030625976, 0.0 ], [ 78.442536561, 14.030516065, 0.0 ], [ 78.442422666, 14.030386666, 0.0 ], [ 78.442282205, 14.03008598, 0.0 ], [ 78.442229695, 14.030063452, 0.0 ], [ 78.441953843, 14.029935125, 0.0 ], [ 78.441837849, 14.029944172, 0.0 ], [ 78.441907772, 14.029345603, 0.0 ], [ 78.441892456, 14.029213507, 0.0 ], [ 78.441668787, 14.027240038, 0.0 ], [ 78.441576636, 14.026391226, 0.0 ], [ 78.441346616, 14.02641503, 0.0 ], [ 78.44106207, 14.023869156, 0.0 ], [ 78.440898442, 14.022431107, 0.0 ], [ 78.440762779, 14.021106593, 0.0 ], [ 78.440515258, 14.019002572, 0.0 ], [ 78.441475298, 14.017649989, 0.0 ], [ 78.44306288, 14.015591552, 0.0 ], [ 78.444378417, 14.014959423, 0.0 ], [ 78.445177462, 14.014597517, 0.0 ], [ 78.445228447, 14.014755641, 0.0 ], [ 78.445788314, 14.016492009, 0.0 ], [ 78.444655433, 14.016295318, 0.0 ], [ 78.443503536, 14.016245538, 0.0 ], [ 78.443996209, 14.018081999, 0.0 ], [ 78.44425962, 14.018101994, 0.0 ], [ 78.44429889, 14.019195119, 0.0 ], [ 78.445125954, 14.019075019, 0.0 ], [ 78.445243711, 14.0204354, 0.0 ], [ 78.445766627, 14.020256297, 0.0 ], [ 78.446737189, 14.020175347, 0.0 ], [ 78.44719815, 14.020011743, 0.0 ], [ 78.446792223, 14.018769488, 0.0 ], [ 78.446966624, 14.018477498, 0.0 ], [ 78.447297135, 14.018033501, 0.0 ], [ 78.447914887, 14.017896715, 0.0 ], [ 78.447699885, 14.017285969, 0.0 ], [ 78.448068088, 14.017180624, 0.0 ], [ 78.448433112, 14.017072509, 0.0 ], [ 78.448895892, 14.017395086, 0.0 ], [ 78.449122911, 14.019287817, 0.0 ], [ 78.449214083, 14.020946591, 0.0 ], [ 78.450053283, 14.02270301, 0.0 ], [ 78.450393585, 14.023471162, 0.0 ], [ 78.45106357, 14.023515862, 0.0 ], [ 78.451349361, 14.023861317, 0.0 ], [ 78.451348809, 14.023861292, 0.0 ], [ 78.452057129, 14.024719351, 0.0 ], [ 78.451308188, 14.025168848, 0.0 ], [ 78.45122678, 14.025146644, 0.0 ], [ 78.451224215, 14.025219246, 0.0 ], [ 78.451040608, 14.025329442, 0.0 ], [ 78.449779141, 14.026051595, 0.0 ], [ 78.449483717, 14.026331825, 0.0 ], [ 78.44962078, 14.026914925, 0.0 ], [ 78.448994331, 14.027206017, 0.0 ], [ 78.44875406, 14.027317664, 0.0 ], [ 78.448753981, 14.027317663, 0.0 ], [ 78.447883091, 14.027725632, 0.0 ], [ 78.447517425, 14.027593857, 0.0 ], [ 78.446648202, 14.0279721, 0.0 ], [ 78.446612469, 14.029144862, 0.0 ], [ 78.446459572, 14.029833976, 0.0 ], [ 78.446795134, 14.030480853, 0.0 ], [ 78.447746701, 14.030203729, 0.0 ], [ 78.447815073, 14.030249093, 0.0 ], [ 78.447992118, 14.030424039, 0.0 ], [ 78.449066112, 14.031203259, 0.0 ], [ 78.449387122, 14.031287468, 0.0 ] ] ] } },
{ "type": "Feature", "properties": { "Name": null, "description": "100 MW", "timestamp": null, "begin": null, "end": null, "altitudeMode": null, "tessellate": -1, "extrude": 1, "visibility": -1, "drawOrder": null, "icon": null }, "geometry": { "type": "Polygon", "coordinates": [ [ [ 78.450975426, 14.030364242, 0.0 ], [ 78.450591187, 14.030809447, 0.0 ], [ 78.450290506, 14.031117279, 0.0 ], [ 78.450047037, 14.031716912, 0.0 ], [ 78.450036572, 14.031832763, 0.0 ], [ 78.449763885, 14.031683453, 0.0 ], [ 78.449421877, 14.031240462, 0.0 ], [ 78.449090734, 14.031153594, 0.0 ], [ 78.448027516, 14.030382193, 0.0 ], [ 78.447996707, 14.030351456, 0.0 ], [ 78.447850756, 14.030207236, 0.0 ], [ 78.447815341, 14.030183739, 0.0 ], [ 78.44910161, 14.029812121, 0.0 ], [ 78.44946367, 14.029231595, 0.0 ], [ 78.448994331, 14.027206017, 0.0 ], [ 78.44962078, 14.026914925, 0.0 ], [ 78.450959543, 14.02721006, 0.0 ], [ 78.451124112, 14.027246884, 0.0 ], [ 78.451116836, 14.02771052, 0.0 ], [ 78.45113404, 14.028159834, 0.0 ], [ 78.450415365, 14.02822016, 0.0 ], [ 78.450165539, 14.028563288, 0.0 ], [ 78.450227601, 14.029038592, 0.0 ], [ 78.450196698, 14.029742595, 0.0 ], [ 78.450806376, 14.029740759, 0.0 ], [ 78.450975426, 14.030364242, 0.0 ] ] ] } },
{ "type": "Feature", "properties": { "Name": null, "description": "100 MW", "timestamp": null, "begin": null, "end": null, "altitudeMode": null, "tessellate": -1, "extrude": 1, "visibility": -1, "drawOrder": null, "icon": null }, "geometry": { "type": "Polygon", "coordinates": [ [ [ 78.454989259, 14.050369941, 0.0 ], [ 78.455508059, 14.050666795, 0.0 ], [ 78.455039494, 14.051722763, 0.0 ], [ 78.454817064, 14.052049643, 0.0 ], [ 78.454267712, 14.051844123, 0.0 ], [ 78.454339712, 14.052200403, 0.0 ], [ 78.453790774, 14.052168857, 0.0 ], [ 78.453453863, 14.052777904, 0.0 ], [ 78.454009683, 14.053148465, 0.0 ], [ 78.453237235, 14.053866816, 0.0 ], [ 78.453298158, 14.053912786, 0.0 ], [ 78.453806469, 14.053501459, 0.0 ], [ 78.453983578, 14.053509852, 0.0 ], [ 78.454750423, 14.053682994, 0.0 ], [ 78.454970196, 14.053905966, 0.0 ], [ 78.45401396, 14.054965812, 0.0 ], [ 78.452424204, 14.054271522, 0.0 ], [ 78.45111545, 14.053725949, 0.0 ], [ 78.450723349, 14.053562495, 0.0 ], [ 78.451244544, 14.052814258, 0.0 ], [ 78.451039614, 14.051461802, 0.0 ], [ 78.450472595, 14.051571735, 0.0 ], [ 78.449676263, 14.051717477, 0.0 ], [ 78.44824252, 14.052063363, 0.0 ], [ 78.44805858, 14.05173892, 0.0 ], [ 78.446795756, 14.049995687, 0.0 ], [ 78.446405982, 14.049559365, 0.0 ], [ 78.446715853, 14.04956264, 0.0 ], [ 78.446469443, 14.049286801, 0.0 ], [ 78.445537576, 14.048390826, 0.0 ], [ 78.443372153, 14.04619258, 0.0 ], [ 78.443700585, 14.04584375, 0.0 ], [ 78.444948731, 14.045504646, 0.0 ], [ 78.444697927, 14.04654111, 0.0 ], [ 78.445111267, 14.047584597, 0.0 ], [ 78.447324523, 14.047061237, 0.0 ], [ 78.447184222, 14.04762883, 0.0 ], [ 78.446941206, 14.048639459, 0.0 ], [ 78.448623737, 14.047969914, 0.0 ], [ 78.448740365, 14.049085879, 0.0 ], [ 78.449506967, 14.049695033, 0.0 ], [ 78.450725153, 14.048890593, 0.0 ], [ 78.449908642, 14.047314543, 0.0 ], [ 78.449891832, 14.046161654, 0.0 ], [ 78.449707569, 14.04554276, 0.0 ], [ 78.449005058, 14.045775988, 0.0 ], [ 78.448977889, 14.045536315, 0.0 ], [ 78.448997438, 14.045334736, 0.0 ], [ 78.448782293, 14.045009719, 0.0 ], [ 78.448724782, 14.044438822, 0.0 ], [ 78.449071244, 14.044264719, 0.0 ], [ 78.449248384, 14.043836631, 0.0 ], [ 78.449870508, 14.044773664, 0.0 ], [ 78.449901055, 14.0449023, 0.0 ], [ 78.450764994, 14.044551387, 0.0 ], [ 78.450828167, 14.044581991, 0.0 ], [ 78.450939466, 14.044551374, 0.0 ], [ 78.450533474, 14.043272535, 0.0 ], [ 78.451178854, 14.043248136, 0.0 ], [ 78.451625095, 14.043048687, 0.0 ], [ 78.451285952, 14.044884254, 0.0 ], [ 78.451738565, 14.045177642, 0.0 ], [ 78.452179423, 14.045492658, 0.0 ], [ 78.452619218, 14.045798518, 0.0 ], [ 78.45311381, 14.046306996, 0.0 ], [ 78.45335821, 14.047112018, 0.0 ], [ 78.45306824, 14.047811301, 0.0 ], [ 78.454428506, 14.04989927, 0.0 ], [ 78.454598544, 14.050169549, 0.0 ], [ 78.454989259, 14.050369941, 0.0 ] ] ] } },
{ "type": "Feature", "properties": { "Name": null, "description": "SOLAR PLOT BOUNDRY", "timestamp": null, "begin": null, "end": null, "altitudeMode": null, "tessellate": -1, "extrude": 1, "visibility": -1, "drawOrder": null, "icon": null }, "geometry": { "type": "Polygon", "coordinates": [ [ [ 78.467208526, 14.078478287, 0.0 ], [ 78.467595042, 14.079483497, 0.0 ], [ 78.467927924, 14.079854924, 0.0 ], [ 78.46835765, 14.079989144, 0.0 ], [ 78.468017339, 14.079252505, 0.0 ], [ 78.468548448, 14.079415065, 0.0 ], [ 78.469134912, 14.08013871, 0.0 ], [ 78.469514733, 14.080044949, 0.0 ], [ 78.469175471, 14.079523296, 0.0 ], [ 78.469718384, 14.079325905, 0.0 ], [ 78.469832613, 14.079717533, 0.0 ], [ 78.470249498, 14.080279973, 0.0 ], [ 78.470714829, 14.080460333, 0.0 ], [ 78.470701245, 14.080625642, 0.0 ], [ 78.469590319, 14.080917938, 0.0 ], [ 78.46932615, 14.080538578, 0.0 ], [ 78.468624559, 14.080833592, 0.0 ], [ 78.468093523, 14.082634734, 0.0 ], [ 78.468741242, 14.082644927, 0.0 ], [ 78.468870527, 14.083209066, 0.0 ], [ 78.468327302, 14.083321897, 0.0 ], [ 78.467287447, 14.083234912, 0.0 ], [ 78.466870552, 14.083200037, 0.0 ], [ 78.466634724, 14.083187582, 0.0 ], [ 78.466528411, 14.083603922, 0.0 ], [ 78.466397293, 14.08403635, 0.0 ], [ 78.466378177, 14.084124683, 0.0 ], [ 78.466364439, 14.084247562, 0.0 ], [ 78.466378581, 14.084356231, 0.0 ], [ 78.46642046, 14.084521512, 0.0 ], [ 78.466499583, 14.084659355, 0.0 ], [ 78.466702974, 14.085016001, 0.0 ], [ 78.46677013, 14.085178756, 0.0 ], [ 78.467289134, 14.085832064, 0.0 ], [ 78.467291666, 14.085833333, 0.0 ], [ 78.467576623, 14.086040611, 0.0 ], [ 78.467882202, 14.086319822, 0.0 ], [ 78.46809265, 14.086673306, 0.0 ], [ 78.468469002, 14.08690769, 0.0 ], [ 78.468565022, 14.086967489, 0.0 ], [ 78.469513423, 14.087108619, 0.0 ], [ 78.469243145, 14.088537687, 0.0 ], [ 78.470309336, 14.089268565, 0.0 ], [ 78.470849234, 14.088918165, 0.0 ], [ 78.471963678, 14.088178051, 0.0 ], [ 78.472554234, 14.087729607, 0.0 ], [ 78.473103266, 14.087414915, 0.0 ], [ 78.473451482, 14.087257159, 0.0 ], [ 78.474338598, 14.086861167, 0.0 ], [ 78.474274564, 14.086950076, 0.0 ], [ 78.474212484, 14.087039939, 0.0 ], [ 78.474114404, 14.087181912, 0.0 ], [ 78.474068535, 14.08724831, 0.0 ], [ 78.474014615, 14.08732636, 0.0 ], [ 78.473985336, 14.087374861, 0.0 ], [ 78.473913807, 14.087493345, 0.0 ], [ 78.473833008, 14.087627187, 0.0 ], [ 78.47370012, 14.087847311, 0.0 ], [ 78.473650521, 14.08792947, 0.0 ], [ 78.473612455, 14.087992526, 0.0 ], [ 78.473593184, 14.088023598, 0.0 ], [ 78.473569671, 14.088063395, 0.0 ], [ 78.473530083, 14.088128971, 0.0 ], [ 78.473498301, 14.088181616, 0.0 ], [ 78.473455557, 14.088252419, 0.0 ], [ 78.473361887, 14.08840758, 0.0 ], [ 78.473338875, 14.088445698, 0.0 ], [ 78.473269097, 14.088541425, 0.0 ], [ 78.473194073, 14.088644351, 0.0 ], [ 78.473130254, 14.088731903, 0.0 ], [ 78.473063886, 14.088822951, 0.0 ], [ 78.472929934, 14.089007408, 0.0 ], [ 78.472881493, 14.089073173, 0.0 ], [ 78.472854717, 14.089109906, 0.0 ], [ 78.472821461, 14.08915398, 0.0 ], [ 78.472792268, 14.089192472, 0.0 ], [ 78.472769843, 14.089221224, 0.0 ], [ 78.472735392, 14.089267237, 0.0 ], [ 78.472723286, 14.089283405, 0.0 ], [ 78.472820132, 14.089302593, 0.0 ], [ 78.472728296, 14.089434595, 0.0 ], [ 78.472651904, 14.0895444, 0.0 ], [ 78.472587104, 14.089637541, 0.0 ], [ 78.472541391, 14.089703248, 0.0 ], [ 78.472596366, 14.089691551, 0.0 ], [ 78.472673153, 14.089675213, 0.0 ], [ 78.472747349, 14.089659427, 0.0 ], [ 78.472807126, 14.089646708, 0.0 ], [ 78.472872354, 14.08963283, 0.0 ], [ 78.472943999, 14.089617586, 0.0 ], [ 78.473064985, 14.089591844, 0.0 ], [ 78.473124987, 14.089579077, 0.0 ], [ 78.473142583, 14.089592553, 0.0 ], [ 78.473163603, 14.089608652, 0.0 ], [ 78.473210356, 14.08964446, 0.0 ], [ 78.473243137, 14.089669566, 0.0 ], [ 78.473278102, 14.089696346, 0.0 ], [ 78.473316696, 14.089677315, 0.0 ], [ 78.47336053, 14.089655699, 0.0 ], [ 78.473395493, 14.089638458, 0.0 ], [ 78.473442957, 14.089615052, 0.0 ], [ 78.473474785, 14.089631277, 0.0 ], [ 78.473379707, 14.090156236, 0.0 ], [ 78.473409045, 14.090465267, 0.0 ], [ 78.473230607, 14.090821249, 0.0 ], [ 78.47316772, 14.091081406, 0.0 ], [ 78.473440533, 14.091481561, 0.0 ], [ 78.473783151, 14.091684014, 0.0 ], [ 78.474072503, 14.091854992, 0.0 ], [ 78.474435539, 14.091903766, 0.0 ], [ 78.474752416, 14.091832792, 0.0 ], [ 78.474741961, 14.091868018, 0.0 ], [ 78.474716339, 14.091952124, 0.0 ], [ 78.474670786, 14.092085066, 0.0 ], [ 78.474657421, 14.092124072, 0.0 ], [ 78.474716877, 14.092120072, 0.0 ], [ 78.474689134, 14.092211796, 0.0 ], [ 78.474646238, 14.092353616, 0.0 ], [ 78.474671802, 14.092580065, 0.0 ], [ 78.474702909, 14.092855617, 0.0 ], [ 78.474781641, 14.093553042, 0.0 ], [ 78.474819105, 14.093884898, 0.0 ], [ 78.474846313, 14.094125913, 0.0 ], [ 78.475759818, 14.094359616, 0.0 ], [ 78.476058163, 14.094435942, 0.0 ], [ 78.475748397, 14.094432696, 0.0 ], [ 78.475624117, 14.094431394, 0.0 ], [ 78.475371983, 14.094477824, 0.0 ], [ 78.475119479, 14.094557978, 0.0 ], [ 78.474642617, 14.094316869, 0.0 ], [ 78.473950264, 14.094289417, 0.0 ], [ 78.473730289, 14.09419319, 0.0 ], [ 78.473015855, 14.094669447, 0.0 ], [ 78.472708333, 14.095625, 0.0 ], [ 78.473109947, 14.096039323, 0.0 ], [ 78.473045455, 14.09675002, 0.0 ], [ 78.47284704, 14.097202975, 0.0 ], [ 78.473128645, 14.097461195, 0.0 ], [ 78.473111803, 14.097848038, 0.0 ], [ 78.472826551, 14.098333333, 0.0 ], [ 78.4725, 14.098888889, 0.0 ], [ 78.472213746, 14.099709009, 0.0 ], [ 78.472102441, 14.100246608, 0.0 ], [ 78.472335091, 14.100277315, 0.0 ], [ 78.47277537, 14.100335426, 0.0 ], [ 78.473243218, 14.100623065, 0.0 ], [ 78.473622112, 14.101060903, 0.0 ], [ 78.47400755, 14.101340559, 0.0 ], [ 78.47443308, 14.101482324, 0.0 ], [ 78.474930555, 14.101180555, 0.0 ], [ 78.475212041, 14.101365633, 0.0 ], [ 78.475594533, 14.101386385, 0.0 ], [ 78.476019901, 14.101596708, 0.0 ], [ 78.47595758, 14.101723173, 0.0 ], [ 78.47590798, 14.101823822, 0.0 ], [ 78.475843577, 14.10195451, 0.0 ], [ 78.475795851, 14.102051356, 0.0 ], [ 78.475752593, 14.102139136, 0.0 ], [ 78.475705045, 14.102235622, 0.0 ], [ 78.475645697, 14.102409466, 0.0 ], [ 78.475496606, 14.102846193, 0.0 ], [ 78.475407991, 14.103105768, 0.0 ], [ 78.475337635, 14.103311859, 0.0 ], [ 78.475272416, 14.1035029, 0.0 ], [ 78.475257269, 14.103547268, 0.0 ], [ 78.475223277, 14.10364684, 0.0 ], [ 78.475198647, 14.103718986, 0.0 ], [ 78.475180636, 14.103771745, 0.0 ], [ 78.475157238, 14.103840283, 0.0 ], [ 78.475142813, 14.103882537, 0.0 ], [ 78.475132088, 14.103913952, 0.0 ], [ 78.475121994, 14.103943519, 0.0 ], [ 78.475113508, 14.103968377, 0.0 ], [ 78.475110931, 14.103975926, 0.0 ], [ 78.475126484, 14.103980984, 0.0 ], [ 78.475155804, 14.103990546, 0.0 ], [ 78.475184345, 14.103999854, 0.0 ], [ 78.475231124, 14.104015109, 0.0 ], [ 78.47522157, 14.104043015, 0.0 ], [ 78.475205697, 14.104089378, 0.0 ], [ 78.475190422, 14.104133995, 0.0 ], [ 78.475172394, 14.104186652, 0.0 ], [ 78.475157819, 14.104229225, 0.0 ], [ 78.475137668, 14.104288084, 0.0 ], [ 78.475112222, 14.104362409, 0.0 ], [ 78.475099121, 14.104400675, 0.0 ], [ 78.47508925, 14.104429507, 0.0 ], [ 78.475071838, 14.104480365, 0.0 ], [ 78.474511013, 14.107425966, 0.0 ], [ 78.47451301, 14.106947696, 0.0 ], [ 78.474328541, 14.10699436, 0.0 ], [ 78.474248222, 14.107958897, 0.0 ], [ 78.47436822, 14.108029158, 0.0 ], [ 78.474393978, 14.108803526, 0.0 ], [ 78.474135427, 14.109164631, 0.0 ], [ 78.474351285, 14.10995367, 0.0 ], [ 78.474749646, 14.110139353, 0.0 ], [ 78.474821162, 14.110315915, 0.0 ], [ 78.475110985, 14.11041708, 0.0 ], [ 78.47555558, 14.110203849, 0.0 ], [ 78.476952766, 14.110159824, 0.0 ], [ 78.477034065, 14.108395019, 0.0 ], [ 78.478600536, 14.107924511, 0.0 ], [ 78.479692423, 14.107699128, 0.0 ], [ 78.480803553, 14.107434456, 0.0 ], [ 78.481745302, 14.111621036, 0.0 ], [ 78.48008974, 14.126946057, 0.0 ], [ 78.474228361, 14.126919686, 0.0 ], [ 78.468626124, 14.126894348, 0.0 ], [ 78.468580531, 14.126474223, 0.0 ], [ 78.467753718, 14.126505133, 0.0 ], [ 78.467609546, 14.126468613, 0.0 ], [ 78.467142797, 14.125605001, 0.0 ], [ 78.466252004, 14.125747143, 0.0 ], [ 78.466287994, 14.12622196, 0.0 ], [ 78.466120216, 14.126484865, 0.0 ], [ 78.466082737, 14.126484744, 0.0 ], [ 78.46593899, 14.126484986, 0.0 ], [ 78.465939005, 14.126484744, 0.0 ], [ 78.465912149, 14.126485031, 0.0 ], [ 78.465625254, 14.12648526, 0.0 ], [ 78.465441587, 14.126485407, 0.0 ], [ 78.465143739, 14.126485644, 0.0 ], [ 78.464997909, 14.12648576, 0.0 ], [ 78.464902417, 14.126485836, 0.0 ], [ 78.46484325, 14.126485883, 0.0 ], [ 78.464730742, 14.126485972, 0.0 ], [ 78.464564429, 14.126486105, 0.0 ], [ 78.464500734, 14.126486155, 0.0 ], [ 78.46436058, 14.126486266, 0.0 ], [ 78.464186675, 14.126486404, 0.0 ], [ 78.464040337, 14.12648652, 0.0 ], [ 78.463898966, 14.126486632, 0.0 ], [ 78.463828204, 14.126486688, 0.0 ], [ 78.463779266, 14.126486727, 0.0 ], [ 78.463654985, 14.126486825, 0.0 ], [ 78.46358216, 14.126486882, 0.0 ], [ 78.463523321, 14.126486929, 0.0 ], [ 78.463453353, 14.126486984, 0.0 ], [ 78.463374944, 14.126487046, 0.0 ], [ 78.46329715, 14.126487107, 0.0 ], [ 78.463214634, 14.126487172, 0.0 ], [ 78.463180386, 14.126487199, 0.0 ], [ 78.463068141, 14.126487288, 0.0 ], [ 78.462992401, 14.126487347, 0.0 ], [ 78.462899447, 14.12648742, 0.0 ], [ 78.462857729, 14.126487453, 0.0 ], [ 78.462796713, 14.126487501, 0.0 ], [ 78.462764921, 14.126487526, 0.0 ], [ 78.462721035, 14.126487561, 0.0 ], [ 78.462683443, 14.12648759, 0.0 ], [ 78.46266401, 14.126487606, 0.0 ], [ 78.46261995, 14.12648764, 0.0 ], [ 78.462523842, 14.126487284, 0.0 ], [ 78.462408423, 14.126487383, 0.0 ], [ 78.462372467, 14.126487413, 0.0 ], [ 78.461812366, 14.126491407, 0.0 ], [ 78.461341962, 14.12648829, 0.0 ], [ 78.46086784, 14.126488692, 0.0 ], [ 78.460513994, 14.126488991, 0.0 ], [ 78.459856706, 14.126489546, 0.0 ], [ 78.459193841, 14.126491978, 0.0 ], [ 78.458805603, 14.12649206, 0.0 ], [ 78.457617435, 14.126489812, 0.0 ], [ 78.457617644, 14.126492249, 0.0 ], [ 78.457236486, 14.126491739, 0.0 ], [ 78.45647288, 14.126492541, 0.0 ], [ 78.456411434, 14.126492424, 0.0 ], [ 78.456357676, 14.126492468, 0.0 ], [ 78.456299143, 14.126492517, 0.0 ], [ 78.456239689, 14.126492566, 0.0 ], [ 78.456205268, 14.126492594, 0.0 ], [ 78.456189203, 14.126522824, 0.0 ], [ 78.456152589, 14.126591722, 0.0 ], [ 78.456112813, 14.12666657, 0.0 ], [ 78.456076131, 14.126735596, 0.0 ], [ 78.456049167, 14.126786334, 0.0 ], [ 78.456026171, 14.126829606, 0.0 ], [ 78.456005403, 14.126868686, 0.0 ], [ 78.455984883, 14.1269073, 0.0 ], [ 78.455955662, 14.126962286, 0.0 ], [ 78.455940138, 14.126991497, 0.0 ], [ 78.455924672, 14.127020601, 0.0 ], [ 78.45589945, 14.12706806, 0.0 ], [ 78.455873737, 14.127116445, 0.0 ], [ 78.455838676, 14.127182421, 0.0 ], [ 78.455818964, 14.127219513, 0.0 ], [ 78.455795152, 14.127264321, 0.0 ], [ 78.455782375, 14.127293497, 0.0 ], [ 78.455766609, 14.127329499, 0.0 ], [ 78.45575616, 14.12735336, 0.0 ], [ 78.455742692, 14.127384114, 0.0 ], [ 78.455732356, 14.127407715, 0.0 ], [ 78.455721644, 14.127432178, 0.0 ], [ 78.455712344, 14.127453415, 0.0 ], [ 78.455700439, 14.1274806, 0.0 ], [ 78.455685928, 14.127513735, 0.0 ], [ 78.45567688, 14.127534396, 0.0 ], [ 78.455669508, 14.127551231, 0.0 ], [ 78.455659966, 14.12757302, 0.0 ], [ 78.455574215, 14.127768834, 0.0 ], [ 78.455455784, 14.12803927, 0.0 ], [ 78.455319371, 14.128350769, 0.0 ], [ 78.455198167, 14.128627537, 0.0 ], [ 78.455072021, 14.128915588, 0.0 ], [ 78.454804589, 14.12880405, 0.0 ], [ 78.454226706, 14.12856303, 0.0 ], [ 78.453570645, 14.128289402, 0.0 ], [ 78.451741072, 14.127486271, 0.0 ], [ 78.451185784, 14.127271334, 0.0 ], [ 78.450810762, 14.12712723, 0.0 ], [ 78.450892541, 14.126642678, 0.0 ], [ 78.450964724, 14.126214975, 0.0 ], [ 78.451003843, 14.125983187, 0.0 ], [ 78.451048604, 14.125717965, 0.0 ], [ 78.451087585, 14.125486992, 0.0 ], [ 78.451110205, 14.125352959, 0.0 ], [ 78.451244468, 14.125399651, 0.0 ], [ 78.451343427, 14.125434066, 0.0 ], [ 78.451443278, 14.12546879, 0.0 ], [ 78.451576648, 14.125515172, 0.0 ], [ 78.451607703, 14.12545007, 0.0 ], [ 78.45164287, 14.12537635, 0.0 ], [ 78.451674056, 14.125310973, 0.0 ], [ 78.451698152, 14.125260461, 0.0 ], [ 78.451620199, 14.125230034, 0.0 ], [ 78.451528443, 14.12519422, 0.0 ], [ 78.451388311, 14.125139523, 0.0 ], [ 78.451254509, 14.125087297, 0.0 ], [ 78.451139008, 14.125078205, 0.0 ], [ 78.451190013, 14.124591648, 0.0 ], [ 78.45127403, 14.123790169, 0.0 ], [ 78.451299123, 14.12355079, 0.0 ], [ 78.451336754, 14.123191799, 0.0 ], [ 78.451377448, 14.122803593, 0.0 ], [ 78.451416246, 14.122433475, 0.0 ], [ 78.451464667, 14.121971549, 0.0 ], [ 78.451499462, 14.121639606, 0.0 ], [ 78.451503935, 14.121596931, 0.0 ], [ 78.451512186, 14.121518217, 0.0 ], [ 78.451517191, 14.121470477, 0.0 ], [ 78.451781087, 14.121078183, 0.0 ], [ 78.452150827, 14.120528545, 0.0 ], [ 78.452828267, 14.119521484, 0.0 ], [ 78.452979248, 14.119297038, 0.0 ], [ 78.453079137, 14.119148545, 0.0 ], [ 78.453389651, 14.118576824, 0.0 ], [ 78.453596877, 14.118195275, 0.0 ], [ 78.453857793, 14.117714869, 0.0 ], [ 78.454440513, 14.116636231, 0.0 ], [ 78.454750084, 14.116063197, 0.0 ], [ 78.455023221, 14.115557601, 0.0 ], [ 78.455058444, 14.115492401, 0.0 ], [ 78.455081301, 14.115450091, 0.0 ], [ 78.455115169, 14.115387399, 0.0 ], [ 78.4551521, 14.115319037, 0.0 ], [ 78.455246549, 14.115144204, 0.0 ], [ 78.455351358, 14.114950193, 0.0 ], [ 78.455371037, 14.114895072, 0.0 ], [ 78.455393108, 14.114824055, 0.0 ], [ 78.455595713, 14.114637988, 0.0 ], [ 78.456124833, 14.114152056, 0.0 ], [ 78.456898478, 14.113430789, 0.0 ], [ 78.457709539, 14.112672641, 0.0 ], [ 78.458172265, 14.1122401, 0.0 ], [ 78.458696747, 14.111749828, 0.0 ], [ 78.458935657, 14.1115265, 0.0 ], [ 78.45895592, 14.111507558, 0.0 ], [ 78.459065245, 14.111405363, 0.0 ], [ 78.459472938, 14.110609183, 0.0 ], [ 78.459874505, 14.109832296, 0.0 ], [ 78.46023874, 14.10911644, 0.0 ], [ 78.460575416, 14.108467912, 0.0 ], [ 78.461071672, 14.107511979, 0.0 ], [ 78.461315817, 14.10704168, 0.0 ], [ 78.461295966, 14.106784781, 0.0 ], [ 78.461255668, 14.106263252, 0.0 ], [ 78.461203889, 14.105593147, 0.0 ], [ 78.461177984, 14.105257897, 0.0 ], [ 78.460945948, 14.102704491, 0.0 ], [ 78.460883831, 14.101638697, 0.0 ], [ 78.460841819, 14.101511161, 0.0 ], [ 78.460705502, 14.101097343, 0.0 ], [ 78.460552063, 14.100631546, 0.0 ], [ 78.460477443, 14.100405023, 0.0 ], [ 78.460337642, 14.099980624, 0.0 ], [ 78.460297015, 14.099857292, 0.0 ], [ 78.460184468, 14.09951563, 0.0 ], [ 78.460049038, 14.099104499, 0.0 ], [ 78.459917567, 14.098705386, 0.0 ], [ 78.459818892, 14.098405833, 0.0 ], [ 78.459749555, 14.098195343, 0.0 ], [ 78.45972619, 14.098026329, 0.0 ], [ 78.45960504, 14.097149966, 0.0 ], [ 78.459513503, 14.096487808, 0.0 ], [ 78.459438956, 14.095948553, 0.0 ], [ 78.459425193, 14.095848992, 0.0 ], [ 78.458964409, 14.092482091, 0.0 ], [ 78.4589305, 14.092238675, 0.0 ], [ 78.458860863, 14.091671513, 0.0 ], [ 78.458767214, 14.090908784, 0.0 ], [ 78.458556213, 14.090496388, 0.0 ], [ 78.45827858, 14.089953761, 0.0 ], [ 78.458254516, 14.089906728, 0.0 ], [ 78.457998448, 14.089406245, 0.0 ], [ 78.457874714, 14.087905177, 0.0 ], [ 78.457863275, 14.087887839, 0.0 ], [ 78.457481211, 14.087794382, 0.0 ], [ 78.457098211, 14.087508623, 0.0 ], [ 78.457041956, 14.087392137, 0.0 ], [ 78.457083361, 14.087223454, 0.0 ], [ 78.456776188, 14.086271967, 0.0 ], [ 78.457076497, 14.086277871, 0.0 ], [ 78.456805421, 14.085524928, 0.0 ], [ 78.456778697, 14.085082639, 0.0 ], [ 78.456748325, 14.084742696, 0.0 ], [ 78.456655325, 14.084387022, 0.0 ], [ 78.456425468, 14.084084484, 0.0 ], [ 78.456362984, 14.08369476, 0.0 ], [ 78.456098974, 14.083824575, 0.0 ], [ 78.455692523, 14.083519305, 0.0 ], [ 78.454898894, 14.083202978, 0.0 ], [ 78.454457214, 14.082994994, 0.0 ], [ 78.454314388, 14.082927738, 0.0 ], [ 78.454308583, 14.082824848, 0.0 ], [ 78.454306686, 14.082791227, 0.0 ], [ 78.453492915, 14.0826579, 0.0 ], [ 78.453232093, 14.082381306, 0.0 ], [ 78.453137436, 14.082389743, 0.0 ], [ 78.453103065, 14.082392807, 0.0 ], [ 78.453067521, 14.082395975, 0.0 ], [ 78.453030252, 14.082399298, 0.0 ], [ 78.452830852, 14.082443505, 0.0 ], [ 78.451559764, 14.081689909, 0.0 ], [ 78.451635899, 14.081091492, 0.0 ], [ 78.452334779, 14.080781321, 0.0 ], [ 78.45250924, 14.080858025, 0.0 ], [ 78.452437225, 14.080735548, 0.0 ], [ 78.452429243, 14.080655864, 0.0 ], [ 78.452417983, 14.080543467, 0.0 ], [ 78.452398485, 14.080348816, 0.0 ], [ 78.452389477, 14.0802589, 0.0 ], [ 78.452372064, 14.080207498, 0.0 ], [ 78.452349117, 14.080139764, 0.0 ], [ 78.452327774, 14.08007676, 0.0 ], [ 78.452312989, 14.08003312, 0.0 ], [ 78.452273355, 14.080017391, 0.0 ], [ 78.452241433, 14.080004723, 0.0 ], [ 78.452198412, 14.07998765, 0.0 ], [ 78.452136014, 14.079962887, 0.0 ], [ 78.452083835, 14.07994218, 0.0 ], [ 78.452065536, 14.079849035, 0.0 ], [ 78.452043986, 14.079739342, 0.0 ], [ 78.452023399, 14.079634553, 0.0 ], [ 78.452004136, 14.079536505, 0.0 ], [ 78.452018582, 14.079491262, 0.0 ], [ 78.452033027, 14.07944602, 0.0 ], [ 78.45215304, 14.079412996, 0.0 ], [ 78.452304754, 14.079371249, 0.0 ], [ 78.452497614, 14.07931818, 0.0 ], [ 78.452625675, 14.079282941, 0.0 ], [ 78.452747952, 14.079249294, 0.0 ], [ 78.4529622, 14.079190339, 0.0 ], [ 78.452957637, 14.079261249, 0.0 ], [ 78.452949879, 14.0793818, 0.0 ], [ 78.452944388, 14.079467109, 0.0 ], [ 78.452937713, 14.079570844, 0.0 ], [ 78.452922802, 14.079802538, 0.0 ], [ 78.452987669, 14.079780834, 0.0 ], [ 78.453080307, 14.07974984, 0.0 ], [ 78.453291394, 14.079679214, 0.0 ], [ 78.453385483, 14.079647733, 0.0 ], [ 78.453499481, 14.079609591, 0.0 ], [ 78.453651922, 14.079558587, 0.0 ], [ 78.453801003, 14.079508706, 0.0 ], [ 78.453942759, 14.079580366, 0.0 ], [ 78.454084514, 14.079652025, 0.0 ], [ 78.454238521, 14.079525422, 0.0 ], [ 78.454392527, 14.07939882, 0.0 ], [ 78.454481778, 14.079247576, 0.0 ], [ 78.454562999, 14.079109941, 0.0 ], [ 78.454786254, 14.078747497, 0.0 ], [ 78.454861594, 14.078642492, 0.0 ], [ 78.454918217, 14.078563576, 0.0 ], [ 78.454975063, 14.078484347, 0.0 ], [ 78.455022267, 14.078418559, 0.0 ], [ 78.455102963, 14.07830609, 0.0 ], [ 78.455121213, 14.078300008, 0.0 ], [ 78.455155742, 14.078288501, 0.0 ], [ 78.455192724, 14.078276176, 0.0 ], [ 78.455235756, 14.078261836, 0.0 ], [ 78.455303633, 14.078239215, 0.0 ], [ 78.45538664, 14.078211553, 0.0 ], [ 78.455413469, 14.078202612, 0.0 ], [ 78.455439154, 14.078194052, 0.0 ], [ 78.455465662, 14.078185218, 0.0 ], [ 78.455496602, 14.078174907, 0.0 ], [ 78.455536671, 14.078161554, 0.0 ], [ 78.455571201, 14.078150047, 0.0 ], [ 78.455620943, 14.07813347, 0.0 ], [ 78.455672167, 14.078086973, 0.0 ], [ 78.455699512, 14.078062152, 0.0 ], [ 78.455737038, 14.078028088, 0.0 ], [ 78.455762201, 14.078005248, 0.0 ], [ 78.455816463, 14.077955994, 0.0 ], [ 78.455853134, 14.077922707, 0.0 ], [ 78.455861004, 14.077938368, 0.0 ], [ 78.45587162, 14.077959495, 0.0 ], [ 78.455890106, 14.077996283, 0.0 ], [ 78.455900335, 14.078049032, 0.0 ], [ 78.455918878, 14.078144656, 0.0 ], [ 78.455945418, 14.078281518, 0.0 ], [ 78.455955966, 14.078335912, 0.0 ], [ 78.455968459, 14.078400334, 0.0 ], [ 78.455912406, 14.07841069, 0.0 ], [ 78.455832954, 14.07842537, 0.0 ], [ 78.455779181, 14.078435305, 0.0 ], [ 78.455690588, 14.078451674, 0.0 ], [ 78.455668926, 14.078455677, 0.0 ], [ 78.455622964, 14.078464169, 0.0 ], [ 78.455603973, 14.078467677, 0.0 ], [ 78.45557808, 14.078472462, 0.0 ], [ 78.455548306, 14.078477963, 0.0 ], [ 78.455528629, 14.078481598, 0.0 ], [ 78.455476965, 14.078491144, 0.0 ], [ 78.455452978, 14.078495576, 0.0 ], [ 78.455415656, 14.078502472, 0.0 ], [ 78.455394757, 14.078506333, 0.0 ], [ 78.455375736, 14.078509847, 0.0 ], [ 78.455366463, 14.078511561, 0.0 ], [ 78.455344637, 14.078515652, 0.0 ], [ 78.455310196, 14.078521957, 0.0 ], [ 78.455242105, 14.078534537, 0.0 ], [ 78.455199898, 14.078542336, 0.0 ], [ 78.455147592, 14.078552, 0.0 ], [ 78.455089904, 14.078562658, 0.0 ], [ 78.455052716, 14.078569529, 0.0 ], [ 78.455029944, 14.078573736, 0.0 ], [ 78.455004479, 14.078623055, 0.0 ], [ 78.454968822, 14.078691989, 0.0 ], [ 78.454863617, 14.078895866, 0.0 ], [ 78.454893774, 14.078964108, 0.0 ], [ 78.454916081, 14.079014584, 0.0 ], [ 78.45497768, 14.079153974, 0.0 ], [ 78.455014375, 14.079237012, 0.0 ], [ 78.454950887, 14.079337161, 0.0 ], [ 78.454905846, 14.079408212, 0.0 ], [ 78.454868536, 14.079467066, 0.0 ], [ 78.454770056, 14.079622414, 0.0 ], [ 78.454703959, 14.079726677, 0.0 ], [ 78.454696481, 14.079833704, 0.0 ], [ 78.454690606, 14.079917781, 0.0 ], [ 78.454677252, 14.080108885, 0.0 ], [ 78.454698028, 14.080188107, 0.0 ], [ 78.454714399, 14.080250526, 0.0 ], [ 78.454727267, 14.080299594, 0.0 ], [ 78.454750813, 14.080389378, 0.0 ], [ 78.454777282, 14.080490302, 0.0 ], [ 78.454779365, 14.080599095, 0.0 ], [ 78.454781165, 14.080693109, 0.0 ], [ 78.454782803, 14.080778689, 0.0 ], [ 78.454783808, 14.080831137, 0.0 ], [ 78.454846793, 14.080847593, 0.0 ], [ 78.454914504, 14.080865283, 0.0 ], [ 78.454996675, 14.080886751, 0.0 ], [ 78.455045201, 14.080899429, 0.0 ], [ 78.45515994, 14.080899097, 0.0 ], [ 78.455233782, 14.080898884, 0.0 ], [ 78.45532287, 14.080898626, 0.0 ], [ 78.455480204, 14.080898172, 0.0 ], [ 78.455629299, 14.080897741, 0.0 ], [ 78.455749209, 14.080897394, 0.0 ], [ 78.455862882, 14.080897065, 0.0 ], [ 78.455915207, 14.080896914, 0.0 ], [ 78.455991943, 14.080886067, 0.0 ], [ 78.456054916, 14.080877166, 0.0 ], [ 78.456130151, 14.080866531, 0.0 ], [ 78.456186727, 14.080858534, 0.0 ], [ 78.456256092, 14.080848729, 0.0 ], [ 78.456312667, 14.080840732, 0.0 ], [ 78.456365325, 14.080833289, 0.0 ], [ 78.456411353, 14.080826783, 0.0 ], [ 78.456442999, 14.08082231, 0.0 ], [ 78.456749787, 14.080151145, 0.0 ], [ 78.456789397, 14.079669112, 0.0 ], [ 78.456671205, 14.079050696, 0.0 ], [ 78.456955122, 14.078976307, 0.0 ], [ 78.457102284, 14.078937748, 0.0 ], [ 78.457233886, 14.078903267, 0.0 ], [ 78.45733756, 14.078876103, 0.0 ], [ 78.457459663, 14.07888054, 0.0 ], [ 78.457683332, 14.078888668, 0.0 ], [ 78.458154782, 14.0789058, 0.0 ], [ 78.458412218, 14.078870544, 0.0 ], [ 78.458633334, 14.078840261, 0.0 ], [ 78.458736213, 14.078826172, 0.0 ], [ 78.460657912, 14.07847198, 0.0 ], [ 78.460662042, 14.078581838, 0.0 ], [ 78.460668872, 14.078763501, 0.0 ], [ 78.460673094, 14.078875808, 0.0 ], [ 78.460677213, 14.078985375, 0.0 ], [ 78.460681442, 14.079097841, 0.0 ], [ 78.460686997, 14.079245592, 0.0 ], [ 78.460690385, 14.079335727, 0.0 ], [ 78.461091644, 14.079342364, 0.0 ], [ 78.461098037, 14.079503922, 0.0 ], [ 78.461138967, 14.079497803, 0.0 ], [ 78.46116478, 14.079493944, 0.0 ], [ 78.461195112, 14.07948941, 0.0 ], [ 78.46124299, 14.079482252, 0.0 ], [ 78.461280526, 14.079476641, 0.0 ], [ 78.461310673, 14.079472134, 0.0 ], [ 78.461335956, 14.079468354, 0.0 ], [ 78.461361819, 14.079464488, 0.0 ], [ 78.461380979, 14.079461623, 0.0 ], [ 78.461406918, 14.079457746, 0.0 ], [ 78.461444729, 14.079452093, 0.0 ], [ 78.461487288, 14.079445731, 0.0 ], [ 78.461512116, 14.079442019, 0.0 ], [ 78.461532635, 14.079438952, 0.0 ], [ 78.461573123, 14.079432899, 0.0 ], [ 78.461594091, 14.079429764, 0.0 ], [ 78.46162564, 14.079425048, 0.0 ], [ 78.461693858, 14.079414215, 0.0 ], [ 78.46175051, 14.07940638, 0.0 ], [ 78.461978374, 14.080026797, 0.0 ], [ 78.461893981, 14.080701574, 0.0 ], [ 78.461730696, 14.08070457, 0.0 ], [ 78.461726221, 14.08079356, 0.0 ], [ 78.46171418, 14.081033012, 0.0 ], [ 78.461701611, 14.081282952, 0.0 ], [ 78.461699724, 14.081320466, 0.0 ], [ 78.461688611, 14.081541456, 0.0 ], [ 78.461681497, 14.081682918, 0.0 ], [ 78.46167502, 14.08181172, 0.0 ], [ 78.461671834, 14.081875062, 0.0 ], [ 78.461669667, 14.081918166, 0.0 ], [ 78.461667579, 14.081959679, 0.0 ], [ 78.461665387, 14.082003261, 0.0 ], [ 78.461663962, 14.082031602, 0.0 ], [ 78.461662061, 14.082069408, 0.0 ], [ 78.461688297, 14.082096786, 0.0 ], [ 78.461687635, 14.082111527, 0.0 ], [ 78.461686141, 14.082144781, 0.0 ], [ 78.461683545, 14.082202557, 0.0 ], [ 78.461678226, 14.082320962, 0.0 ], [ 78.461674543, 14.082402941, 0.0 ], [ 78.461672479, 14.082448886, 0.0 ], [ 78.461670234, 14.082498863, 0.0 ], [ 78.461668746, 14.082531992, 0.0 ], [ 78.461667094, 14.082564571, 0.0 ], [ 78.461664989, 14.082611567, 0.0 ], [ 78.461663871, 14.082640506, 0.0 ], [ 78.461660789, 14.082709095, 0.0 ], [ 78.461627015, 14.082725626, 0.0 ], [ 78.46156049, 14.082758269, 0.0 ], [ 78.461512037, 14.082782044, 0.0 ], [ 78.461438262, 14.082818245, 0.0 ], [ 78.461361376, 14.082855972, 0.0 ], [ 78.461313651, 14.08287939, 0.0 ], [ 78.461272887, 14.082899393, 0.0 ], [ 78.461195632, 14.08288874, 0.0 ], [ 78.461123538, 14.082878799, 0.0 ], [ 78.461052025, 14.082868938, 0.0 ], [ 78.460993021, 14.082860802, 0.0 ], [ 78.460999985, 14.082812683, 0.0 ], [ 78.461005155, 14.082767447, 0.0 ], [ 78.461010971, 14.082716553, 0.0 ], [ 78.461014447, 14.082686132, 0.0 ], [ 78.460925806, 14.082708228, 0.0 ], [ 78.460800055, 14.082739576, 0.0 ], [ 78.460712667, 14.08276136, 0.0 ], [ 78.460715611, 14.082806832, 0.0 ], [ 78.460720702, 14.082885491, 0.0 ], [ 78.460727594, 14.082991951, 0.0 ], [ 78.460733786, 14.083087614, 0.0 ], [ 78.460738335, 14.083157887, 0.0 ], [ 78.46074252, 14.083222542, 0.0 ], [ 78.460796319, 14.083240238, 0.0 ], [ 78.460839545, 14.083254456, 0.0 ], [ 78.460891814, 14.083271648, 0.0 ], [ 78.460974108, 14.083298716, 0.0 ], [ 78.461055887, 14.083325615, 0.0 ], [ 78.46110494, 14.08334175, 0.0 ], [ 78.46116851, 14.083362659, 0.0 ], [ 78.46124327, 14.083387249, 0.0 ], [ 78.461292007, 14.08340328, 0.0 ], [ 78.461328191, 14.083415181, 0.0 ], [ 78.46136065, 14.083425858, 0.0 ], [ 78.461381549, 14.083432732, 0.0 ], [ 78.461393791, 14.083389747, 0.0 ], [ 78.461403159, 14.083356855, 0.0 ], [ 78.461416024, 14.083311685, 0.0 ], [ 78.461435074, 14.083244798, 0.0 ], [ 78.461452109, 14.083184986, 0.0 ], [ 78.461468075, 14.083128926, 0.0 ], [ 78.461478845, 14.083091112, 0.0 ], [ 78.461498295, 14.083072459, 0.0 ], [ 78.461527629, 14.083044328, 0.0 ], [ 78.461581447, 14.082992715, 0.0 ], [ 78.461627029, 14.082949002, 0.0 ], [ 78.461670588, 14.082907227, 0.0 ], [ 78.461670203, 14.082942134, 0.0 ], [ 78.461669762, 14.082981996, 0.0 ], [ 78.461669244, 14.083028887, 0.0 ], [ 78.461668806, 14.083068526, 0.0 ], [ 78.461648977, 14.083112175, 0.0 ], [ 78.461632623, 14.083148176, 0.0 ], [ 78.461607, 14.083204583, 0.0 ], [ 78.461576011, 14.083272799, 0.0 ], [ 78.461548288, 14.083333828, 0.0 ], [ 78.461533177, 14.083367093, 0.0 ], [ 78.461519107, 14.083398065, 0.0 ], [ 78.461520812, 14.083477878, 0.0 ], [ 78.461521655, 14.083517341, 0.0 ], [ 78.461523405, 14.083599269, 0.0 ], [ 78.461577273, 14.083603276, 0.0 ], [ 78.461627348, 14.083607001, 0.0 ], [ 78.461654149, 14.083608995, 0.0 ], [ 78.46165364, 14.083630748, 0.0 ], [ 78.461652406, 14.083683414, 0.0 ], [ 78.46165108, 14.08374002, 0.0 ], [ 78.46165027, 14.083774615, 0.0 ], [ 78.461648894, 14.083833345, 0.0 ], [ 78.461648083, 14.083867951, 0.0 ], [ 78.461647239, 14.083903989, 0.0 ], [ 78.461646415, 14.083939137, 0.0 ], [ 78.46162911, 14.083940463, 0.0 ], [ 78.461602237, 14.083942521, 0.0 ], [ 78.461572163, 14.083944825, 0.0 ], [ 78.461545202, 14.083946891, 0.0 ], [ 78.461520991, 14.083948745, 0.0 ], [ 78.461496597, 14.083950614, 0.0 ], [ 78.461468429, 14.083952772, 0.0 ], [ 78.461440245, 14.083954931, 0.0 ], [ 78.461417209, 14.083956696, 0.0 ], [ 78.46139659, 14.083958276, 0.0 ], [ 78.461371821, 14.083960173, 0.0 ], [ 78.461335325, 14.083962969, 0.0 ], [ 78.461315646, 14.083964476, 0.0 ], [ 78.461294862, 14.083966069, 0.0 ], [ 78.461264226, 14.083968415, 0.0 ], [ 78.46123092, 14.083970967, 0.0 ], [ 78.461205849, 14.083972888, 0.0 ], [ 78.46115444, 14.083976826, 0.0 ], [ 78.461119787, 14.08397948, 0.0 ], [ 78.461097226, 14.083981209, 0.0 ], [ 78.461079858, 14.084048994, 0.0 ], [ 78.461080597, 14.084098913, 0.0 ], [ 78.461051917, 14.084179865, 0.0 ], [ 78.461037644, 14.084206299, 0.0 ], [ 78.461022421, 14.084234492, 0.0 ], [ 78.46100576, 14.08426535, 0.0 ], [ 78.460988683, 14.084296975, 0.0 ], [ 78.460931951, 14.084402045, 0.0 ], [ 78.460891706, 14.08447658, 0.0 ], [ 78.460843733, 14.084565427, 0.0 ], [ 78.460796979, 14.084652014, 0.0 ], [ 78.460819614, 14.084691789, 0.0 ], [ 78.460873162, 14.084603226, 0.0 ], [ 78.460923247, 14.08452039, 0.0 ], [ 78.460975322, 14.084434262, 0.0 ], [ 78.461059323, 14.084295332, 0.0 ], [ 78.461153212, 14.084140047, 0.0 ], [ 78.461188509, 14.08408167, 0.0 ], [ 78.461330924, 14.084079333, 0.0 ], [ 78.461430568, 14.084077698, 0.0 ], [ 78.461495413, 14.084076634, 0.0 ], [ 78.461602573, 14.084074876, 0.0 ], [ 78.461685558, 14.084073514, 0.0 ], [ 78.46175953, 14.0840723, 0.0 ], [ 78.461876369, 14.084070383, 0.0 ], [ 78.462016637, 14.084068081, 0.0 ], [ 78.462083604, 14.084060383, 0.0 ], [ 78.462163165, 14.084051237, 0.0 ], [ 78.462262951, 14.084039765, 0.0 ], [ 78.462365095, 14.084028023, 0.0 ], [ 78.46245322, 14.084017892, 0.0 ], [ 78.462471904, 14.08406153, 0.0 ], [ 78.462518396, 14.084170117, 0.0 ], [ 78.462534643, 14.084208063, 0.0 ], [ 78.462552657, 14.084250137, 0.0 ], [ 78.462596164, 14.084248242, 0.0 ], [ 78.462626555, 14.084246919, 0.0 ], [ 78.462666561, 14.084245176, 0.0 ], [ 78.462706429, 14.08424344, 0.0 ], [ 78.462750312, 14.084241529, 0.0 ], [ 78.462780466, 14.084240216, 0.0 ], [ 78.462763483, 14.084283508, 0.0 ], [ 78.462736714, 14.084351743, 0.0 ], [ 78.462700807, 14.084443274, 0.0 ], [ 78.462660749, 14.084545386, 0.0 ], [ 78.462695738, 14.084594448, 0.0 ], [ 78.462730727, 14.08464351, 0.0 ], [ 78.462731282, 14.084723234, 0.0 ], [ 78.462731502, 14.084754773, 0.0 ], [ 78.462731837, 14.084802958, 0.0 ], [ 78.462755, 14.084847254, 0.0 ], [ 78.462787262, 14.084908954, 0.0 ], [ 78.462825551, 14.084982179, 0.0 ], [ 78.462839429, 14.085066043, 0.0 ], [ 78.462853307, 14.085149907, 0.0 ], [ 78.462867723, 14.085195016, 0.0 ], [ 78.462900191, 14.085296614, 0.0 ], [ 78.462925266, 14.085375077, 0.0 ], [ 78.462952115, 14.085459091, 0.0 ], [ 78.462976305, 14.085534785, 0.0 ], [ 78.463004844, 14.085586514, 0.0 ], [ 78.463020589, 14.085615053, 0.0 ], [ 78.463057518, 14.085681989, 0.0 ], [ 78.463071123, 14.085706649, 0.0 ], [ 78.463082496, 14.085727263, 0.0 ], [ 78.463105485, 14.08576861, 0.0 ], [ 78.46314737, 14.085795211, 0.0 ], [ 78.463174269, 14.085812294, 0.0 ], [ 78.463192734, 14.085824022, 0.0 ], [ 78.463227582, 14.085846154, 0.0 ], [ 78.46325518, 14.085863682, 0.0 ], [ 78.463257722, 14.085894701, 0.0 ], [ 78.46325933, 14.085914305, 0.0 ], [ 78.463261427, 14.085939883, 0.0 ], [ 78.463265325, 14.085987441, 0.0 ], [ 78.463270471, 14.086050203, 0.0 ], [ 78.463273336, 14.086085158, 0.0 ], [ 78.463266727, 14.086128878, 0.0 ], [ 78.46326125, 14.086165105, 0.0 ], [ 78.463255672, 14.086202004, 0.0 ], [ 78.46324522, 14.086271143, 0.0 ], [ 78.463238008, 14.08631885, 0.0 ], [ 78.463275014, 14.08633077, 0.0 ], [ 78.463301821, 14.086339405, 0.0 ], [ 78.463351276, 14.086355336, 0.0 ], [ 78.463359067, 14.086383899, 0.0 ], [ 78.46336941, 14.086421824, 0.0 ], [ 78.463380166, 14.086461264, 0.0 ], [ 78.463397921, 14.086526363, 0.0 ], [ 78.463408527, 14.086565251, 0.0 ], [ 78.463423104, 14.086618702, 0.0 ], [ 78.463436916, 14.086669344, 0.0 ], [ 78.463448259, 14.086710936, 0.0 ], [ 78.463466532, 14.086777935, 0.0 ], [ 78.463484651, 14.086844371, 0.0 ], [ 78.463496855, 14.086889117, 0.0 ], [ 78.463510218, 14.086938116, 0.0 ], [ 78.463515515, 14.086957536, 0.0 ], [ 78.463555718, 14.086959211, 0.0 ], [ 78.463636687, 14.086962585, 0.0 ], [ 78.463674405, 14.086964157, 0.0 ], [ 78.463720455, 14.086966076, 0.0 ], [ 78.463759199, 14.086967691, 0.0 ], [ 78.463814618, 14.08697, 0.0 ], [ 78.46385754, 14.086971789, 0.0 ], [ 78.463885261, 14.086972944, 0.0 ], [ 78.463905411, 14.086973783, 0.0 ], [ 78.463931358, 14.086974865, 0.0 ], [ 78.463955392, 14.086975866, 0.0 ], [ 78.463992225, 14.086977401, 0.0 ], [ 78.464106606, 14.086981853, 0.0 ], [ 78.464141048, 14.086983193, 0.0 ], [ 78.464155612, 14.086919958, 0.0 ], [ 78.464178646, 14.086523423, 0.0 ], [ 78.464193576, 14.086266403, 0.0 ], [ 78.464205403, 14.086062792, 0.0 ], [ 78.464210188, 14.085980414, 0.0 ], [ 78.464220587, 14.085801402, 0.0 ], [ 78.464237058, 14.085517841, 0.0 ], [ 78.464254803, 14.085285491, 0.0 ], [ 78.464288404, 14.084937117, 0.0 ], [ 78.464318188, 14.084628317, 0.0 ], [ 78.464231, 14.084646094, 0.0 ], [ 78.464127443, 14.084667208, 0.0 ], [ 78.464062656, 14.084680418, 0.0 ], [ 78.463996664, 14.084693873, 0.0 ], [ 78.463935917, 14.084706259, 0.0 ], [ 78.463868076, 14.084720091, 0.0 ], [ 78.463699696, 14.084754422, 0.0 ], [ 78.463711672, 14.084646971, 0.0 ], [ 78.463722135, 14.084553092, 0.0 ], [ 78.463735439, 14.084433726, 0.0 ], [ 78.463753895, 14.084268121, 0.0 ], [ 78.4637797, 14.084036592, 0.0 ], [ 78.463803666, 14.083821556, 0.0 ], [ 78.463837029, 14.083837627, 0.0 ], [ 78.463913037, 14.083874241, 0.0 ], [ 78.464021716, 14.083926592, 0.0 ], [ 78.464113003, 14.083970566, 0.0 ], [ 78.464195569, 14.084010339, 0.0 ], [ 78.464273502, 14.08404788, 0.0 ], [ 78.464194189, 14.08393174, 0.0 ], [ 78.464157938, 14.083878657, 0.0 ], [ 78.464065173, 14.08374282, 0.0 ], [ 78.464001938, 14.083650222, 0.0 ], [ 78.463942984, 14.083657218, 0.0 ], [ 78.463864479, 14.083666532, 0.0 ], [ 78.46379287, 14.083675029, 0.0 ], [ 78.46377947, 14.083567428, 0.0 ], [ 78.463767394, 14.083470465, 0.0 ], [ 78.463750905, 14.083338065, 0.0 ], [ 78.463731507, 14.083182296, 0.0 ], [ 78.463709822, 14.083008171, 0.0 ], [ 78.463700436, 14.082932809, 0.0 ], [ 78.463670143, 14.082689564, 0.0 ], [ 78.463793802, 14.082649338, 0.0 ], [ 78.464066881, 14.082560507, 0.0 ], [ 78.464299945, 14.082484692, 0.0 ], [ 78.464463619, 14.082431449, 0.0 ], [ 78.464408827, 14.082296337, 0.0 ], [ 78.464335832, 14.082116339, 0.0 ], [ 78.464281523, 14.081982419, 0.0 ], [ 78.464213347, 14.081814303, 0.0 ], [ 78.464182039, 14.0817371, 0.0 ], [ 78.464200608, 14.081728583, 0.0 ], [ 78.464222277, 14.081718644, 0.0 ], [ 78.464244584, 14.081708413, 0.0 ], [ 78.464286837, 14.081689033, 0.0 ], [ 78.464349905, 14.081660105, 0.0 ], [ 78.464397347, 14.081638345, 0.0 ], [ 78.464440122, 14.081618726, 0.0 ], [ 78.464474919, 14.081643374, 0.0 ], [ 78.464501497, 14.0816622, 0.0 ], [ 78.464534118, 14.081685306, 0.0 ], [ 78.464571447, 14.081711748, 0.0 ], [ 78.464620894, 14.081746773, 0.0 ], [ 78.464649238, 14.081766849, 0.0 ], [ 78.464652723, 14.081717694, 0.0 ], [ 78.46465667, 14.081662037, 0.0 ], [ 78.464661025, 14.081600632, 0.0 ], [ 78.464666232, 14.081527195, 0.0 ], [ 78.464676783, 14.081378417, 0.0 ], [ 78.464681741, 14.081308496, 0.0 ], [ 78.464689595, 14.081197748, 0.0 ], [ 78.464694528, 14.081128177, 0.0 ], [ 78.464697555, 14.081085498, 0.0 ], [ 78.464586328, 14.081045171, 0.0 ], [ 78.464492612, 14.081011193, 0.0 ], [ 78.46436554, 14.080965122, 0.0 ], [ 78.464285132, 14.080935969, 0.0 ], [ 78.46421064, 14.080908961, 0.0 ], [ 78.464235659, 14.080435957, 0.0 ], [ 78.465645081, 14.080197821, 0.0 ], [ 78.465543598, 14.079329482, 0.0 ], [ 78.466411204, 14.078706213, 0.0 ], [ 78.467060141, 14.077983889, 0.0 ], [ 78.467208526, 14.078478287, 0.0 ] ] ] } }
]
}
