{
"type": "FeatureCollection",
"name": "Area_Features___6_",
"crs": { "type": "name", "properties": { "name": "urn:ogc:def:crs:OGC:1.3:CRS84" } },
"features": [
{ "type": "Feature", "properties": { "Name": null, "description": "PARK BOUNDARY", "timestamp": null, "begin": null, "end": null, "altitudeMode": null, "tessellate": -1, "extrude": 1, "visibility": -1, "drawOrder": null, "icon": null }, "geometry": { "type": "Polygon", "coordinates": [ [ [ 79.412646908, 15.841630218, 0.0 ], [ 79.4120155, 15.840938988, 0.0 ], [ 79.41420198, 15.839499486, 0.0 ], [ 79.414356941, 15.838884482, 0.0 ], [ 79.413711665, 15.837011622, 0.0 ], [ 79.413486485, 15.836110907, 0.0 ], [ 79.412849689, 15.83436758, 0.0 ], [ 79.410680217, 15.834955952, 0.0 ], [ 79.40994899, 15.836268287, 0.0 ], [ 79.40917903, 15.836357877, 0.0 ], [ 79.40861002, 15.836568524, 0.0 ], [ 79.408283573, 15.835887895, 0.0 ], [ 79.405963992, 15.836695361, 0.0 ], [ 79.405636746, 15.835732073, 0.0 ], [ 79.404179078, 15.836253761, 0.0 ], [ 79.403813467, 15.836517678, 0.0 ], [ 79.40340911, 15.836909931, 0.0 ], [ 79.403048343, 15.836725909, 0.0 ], [ 79.401571357, 15.837231963, 0.0 ], [ 79.400480575, 15.839052763, 0.0 ], [ 79.398795361, 15.837384495, 0.0 ], [ 79.398185201, 15.837566098, 0.0 ], [ 79.397088355, 15.83840628, 0.0 ], [ 79.396342602, 15.838963179, 0.0 ], [ 79.395173123, 15.839021285, 0.0 ], [ 79.394839591, 15.839149616, 0.0 ], [ 79.394774219, 15.838813054, 0.0 ], [ 79.394858957, 15.838788846, 0.0 ], [ 79.394677363, 15.837607257, 0.0 ], [ 79.393842023, 15.837239218, 0.0 ], [ 79.393541781, 15.837382082, 0.0 ], [ 79.393476408, 15.837302176, 0.0 ], [ 79.392263351, 15.837636311, 0.0 ], [ 79.392670121, 15.838357854, 0.0 ], [ 79.393079316, 15.838251316, 0.0 ], [ 79.393270603, 15.838800949, 0.0 ], [ 79.393781493, 15.839142348, 0.0 ], [ 79.393108375, 15.838836059, 0.0 ], [ 79.392858982, 15.838705309, 0.0 ], [ 79.392486106, 15.838889322, 0.0 ], [ 79.39170403, 15.839138714, 0.0 ], [ 79.391486117, 15.839562438, 0.0 ], [ 79.391871102, 15.840664127, 0.0 ], [ 79.390689516, 15.840763401, 0.0 ], [ 79.387619332, 15.840928042, 0.0 ], [ 79.387338459, 15.846356554, 0.0 ], [ 79.386936523, 15.847688262, 0.0 ], [ 79.387544272, 15.85023545, 0.0 ], [ 79.38774887, 15.850320199, 0.0 ], [ 79.38781424, 15.850620431, 0.0 ], [ 79.38696032, 15.850621477, 0.0 ], [ 79.386199006, 15.848400526, 0.0 ], [ 79.385759785, 15.84861925, 0.0 ], [ 79.385425678, 15.849102462, 0.0 ], [ 79.385160521, 15.848584139, 0.0 ], [ 79.38491355, 15.848029667, 0.0 ], [ 79.384700476, 15.847378339, 0.0 ], [ 79.383799759, 15.847747581, 0.0 ], [ 79.383711381, 15.847561148, 0.0 ], [ 79.3832816, 15.847687051, 0.0 ], [ 79.382541898, 15.848001818, 0.0 ], [ 79.381816729, 15.84832506, 0.0 ], [ 79.381872417, 15.848478814, 0.0 ], [ 79.381095185, 15.848769365, 0.0 ], [ 79.381397846, 15.849861362, 0.0 ], [ 79.380112148, 15.850287511, 0.0 ], [ 79.378968929, 15.849095309, 0.0 ], [ 79.378680799, 15.848414966, 0.0 ], [ 79.378270565, 15.847280752, 0.0 ], [ 79.376745935, 15.845026607, 0.0 ], [ 79.376955678, 15.839496029, 0.0 ], [ 79.375767853, 15.839920984, 0.0 ], [ 79.375783403, 15.838591441, 0.0 ], [ 79.37600831, 15.838505381, 0.0 ], [ 79.377446398, 15.837372379, 0.0 ], [ 79.378861338, 15.836269549, 0.0 ], [ 79.379689656, 15.835536305, 0.0 ], [ 79.380505632, 15.834749617, 0.0 ], [ 79.380896216, 15.834373828, 0.0 ], [ 79.381244266, 15.83417734, 0.0 ], [ 79.381767671, 15.833881863, 0.0 ], [ 79.382267208, 15.833596237, 0.0 ], [ 79.382571348, 15.833422302, 0.0 ], [ 79.384043089, 15.83315285, 0.0 ], [ 79.384338027, 15.833098021, 0.0 ], [ 79.384784652, 15.833013585, 0.0 ], [ 79.385952894, 15.832792713, 0.0 ], [ 79.386557219, 15.832678457, 0.0 ], [ 79.388262136, 15.832356123, 0.0 ], [ 79.389255029, 15.832168408, 0.0 ], [ 79.389260695, 15.832182648, 0.0 ], [ 79.38933222, 15.832166794, 0.0 ], [ 79.38933481, 15.83215332, 0.0 ], [ 79.39120443, 15.831751761, 0.0 ], [ 79.395161705, 15.830872727, 0.0 ], [ 79.395333515, 15.830834558, 0.0 ], [ 79.397756487, 15.830186477, 0.0 ], [ 79.398134889, 15.830085268, 0.0 ], [ 79.398204281, 15.830063928, 0.0 ], [ 79.393932938, 15.826845738, 0.0 ], [ 79.394080512, 15.827267442, 0.0 ], [ 79.393808318, 15.826941495, 0.0 ], [ 79.390936502, 15.823502538, 0.0 ], [ 79.390161501, 15.821750021, 0.0 ], [ 79.389793449, 15.820826125, 0.0 ], [ 79.389081247, 15.819056756, 0.0 ], [ 79.390858364, 15.818013327, 0.0 ], [ 79.392398662, 15.81770503, 0.0 ], [ 79.395376482, 15.817181477, 0.0 ], [ 79.396068459, 15.819754867, 0.0 ], [ 79.398103274, 15.819206893, 0.0 ], [ 79.398827994, 15.818674037, 0.0 ], [ 79.398643006, 15.818094794, 0.0 ], [ 79.400128198, 15.817654149, 0.0 ], [ 79.400009878, 15.817153049, 0.0 ], [ 79.401398548, 15.816664806, 0.0 ], [ 79.401676716, 15.816384819, 0.0 ], [ 79.402082801, 15.816422197, 0.0 ], [ 79.402222442, 15.817213911, 0.0 ], [ 79.402428182, 15.818381613, 0.0 ], [ 79.403994693, 15.818009276, 0.0 ], [ 79.40490552, 15.817766417, 0.0 ], [ 79.405035494, 15.817731565, 0.0 ], [ 79.405064935, 15.817917522, 0.0 ], [ 79.405259619, 15.819152254, 0.0 ], [ 79.406379637, 15.819056341, 0.0 ], [ 79.406665567, 15.819031734, 0.0 ], [ 79.408231592, 15.818529411, 0.0 ], [ 79.409016883, 15.818289862, 0.0 ], [ 79.408925244, 15.818112741, 0.0 ], [ 79.409145976, 15.818010688, 0.0 ], [ 79.408972444, 15.817213649, 0.0 ], [ 79.408887381, 15.816824843, 0.0 ], [ 79.409795561, 15.816629246, 0.0 ], [ 79.410187152, 15.816544712, 0.0 ], [ 79.410866539, 15.816790132, 0.0 ], [ 79.411230224, 15.816921182, 0.0 ], [ 79.412133929, 15.816740237, 0.0 ], [ 79.412380394, 15.81669095, 0.0 ], [ 79.412456184, 15.816491277, 0.0 ], [ 79.412950393, 15.81696565, 0.0 ], [ 79.413009494, 15.816971513, 0.0 ], [ 79.413275405, 15.816131958, 0.0 ], [ 79.412844111, 15.815190061, 0.0 ], [ 79.412576733, 15.814638123, 0.0 ], [ 79.412789743, 15.814152591, 0.0 ], [ 79.413329733, 15.8139688, 0.0 ], [ 79.41370536, 15.813187849, 0.0 ], [ 79.413681066, 15.812958587, 0.0 ], [ 79.412559597, 15.812196492, 0.0 ], [ 79.412611186, 15.812131166, 0.0 ], [ 79.41455956, 15.811539412, 0.0 ], [ 79.414969718, 15.811422251, 0.0 ], [ 79.415148341, 15.811702383, 0.0 ], [ 79.415324323, 15.811626505, 0.0 ], [ 79.416361536, 15.812406535, 0.0 ], [ 79.416681446, 15.81238781, 0.0 ], [ 79.418066234, 15.812269298, 0.0 ], [ 79.418271076, 15.812398013, 0.0 ], [ 79.418777271, 15.812572746, 0.0 ], [ 79.418815005, 15.812746579, 0.0 ], [ 79.418660012, 15.812778682, 0.0 ], [ 79.418879357, 15.813065308, 0.0 ], [ 79.419130756, 15.813705601, 0.0 ], [ 79.41905116, 15.814062152, 0.0 ], [ 79.419699762, 15.81462895, 0.0 ], [ 79.420821119, 15.815453036, 0.0 ], [ 79.421654142, 15.816591734, 0.0 ], [ 79.422033521, 15.818367837, 0.0 ], [ 79.423101304, 15.818557416, 0.0 ], [ 79.42506797, 15.821950551, 0.0 ], [ 79.427314032, 15.824038368, 0.0 ], [ 79.427402145, 15.824089823, 0.0 ], [ 79.427529092, 15.824360841, 0.0 ], [ 79.428995376, 15.82577355, 0.0 ], [ 79.427778235, 15.827120022, 0.0 ], [ 79.426938382, 15.827488715, 0.0 ], [ 79.426194501, 15.827465988, 0.0 ], [ 79.426279908, 15.828070722, 0.0 ], [ 79.425885909, 15.828198614, 0.0 ], [ 79.426121486, 15.829571199, 0.0 ], [ 79.426857382, 15.83064528, 0.0 ], [ 79.42807474, 15.832353811, 0.0 ], [ 79.428263008, 15.832618037, 0.0 ], [ 79.428048988, 15.832865111, 0.0 ], [ 79.428829464, 15.833608362, 0.0 ], [ 79.42802305, 15.834678128, 0.0 ], [ 79.427650458, 15.834945172, 0.0 ], [ 79.426788281, 15.83418282, 0.0 ], [ 79.426187804, 15.834657365, 0.0 ], [ 79.42552829, 15.835048477, 0.0 ], [ 79.426252311, 15.836037437, 0.0 ], [ 79.426916598, 15.835497274, 0.0 ], [ 79.427437002, 15.835065155, 0.0 ], [ 79.427641439, 15.834942917, 0.0 ], [ 79.427650458, 15.834945172, 0.0 ], [ 79.428287151, 15.835561084, 0.0 ], [ 79.428202179, 15.83565114, 0.0 ], [ 79.429274451, 15.835468051, 0.0 ], [ 79.428681243, 15.83522835, 0.0 ], [ 79.428872518, 15.834201722, 0.0 ], [ 79.429315616, 15.834279203, 0.0 ], [ 79.429274451, 15.835468051, 0.0 ], [ 79.429401059, 15.835835955, 0.0 ], [ 79.428629583, 15.836181303, 0.0 ], [ 79.428585339, 15.836305896, 0.0 ], [ 79.428557636, 15.83642721, 0.0 ], [ 79.428547832, 15.836526918, 0.0 ], [ 79.42854696, 15.836576702, 0.0 ], [ 79.428550536, 15.836658025, 0.0 ], [ 79.42855346, 15.836689819, 0.0 ], [ 79.428565203, 15.836776067, 0.0 ], [ 79.428590925, 15.836902167, 0.0 ], [ 79.428707805, 15.837283014, 0.0 ], [ 79.428814043, 15.837568184, 0.0 ], [ 79.430348404, 15.837849363, 0.0 ], [ 79.430719485, 15.838641505, 0.0 ], [ 79.430118019, 15.838807358, 0.0 ], [ 79.430411856, 15.839450747, 0.0 ], [ 79.430743343, 15.840852198, 0.0 ], [ 79.428966906, 15.841030291, 0.0 ], [ 79.428211437, 15.841083689, 0.0 ], [ 79.426140152, 15.841318208, 0.0 ], [ 79.421225108, 15.841548616, 0.0 ], [ 79.420559402, 15.841433327, 0.0 ], [ 79.419763532, 15.84135894, 0.0 ], [ 79.413132661, 15.841608334, 0.0 ], [ 79.412646908, 15.841630218, 0.0 ] ] ] } },
{ "type": "Feature", "properties": { "Name": null, "description": "PARK BOUNDARY", "timestamp": null, "begin": null, "end": null, "altitudeMode": null, "tessellate": -1, "extrude": 1, "visibility": -1, "drawOrder": null, "icon": null }, "geometry": { "type": "Polygon", "coordinates": [ [ [ 79.355504765, 15.796489833, 0.0 ], [ 79.355616421, 15.797087091, 0.0 ], [ 79.355625997, 15.797171636, 0.0 ], [ 79.355684325, 15.797450302, 0.0 ], [ 79.355757612, 15.797842342, 0.0 ], [ 79.355894131, 15.798617261, 0.0 ], [ 79.355929417, 15.798634646, 0.0 ], [ 79.355987839, 15.798868866, 0.0 ], [ 79.355990886, 15.79888109, 0.0 ], [ 79.356134573, 15.799457063, 0.0 ], [ 79.356214677, 15.799704616, 0.0 ], [ 79.356242017, 15.799692884, 0.0 ], [ 79.356242035, 15.799692975, 0.0 ], [ 79.356249563, 15.79973642, 0.0 ], [ 79.35666883, 15.802157596, 0.0 ], [ 79.357022123, 15.803827739, 0.0 ], [ 79.357371288, 15.805493281, 0.0 ], [ 79.357468183, 15.805447381, 0.0 ], [ 79.357561096, 15.805786479, 0.0 ], [ 79.357692798, 15.806475655, 0.0 ], [ 79.357865182, 15.807314878, 0.0 ], [ 79.357973715, 15.807959225, 0.0 ], [ 79.357935503, 15.809154175, 0.0 ], [ 79.357924373, 15.809433545, 0.0 ], [ 79.357886222, 15.810391588, 0.0 ], [ 79.357857223, 15.810394769, 0.0 ], [ 79.357848347, 15.811061091, 0.0 ], [ 79.357822611, 15.812332593, 0.0 ], [ 79.357804797, 15.813212238, 0.0 ], [ 79.356110322, 15.813315057, 0.0 ], [ 79.355873267, 15.813348788, 0.0 ], [ 79.355214223, 15.813442566, 0.0 ], [ 79.353878934, 15.813495689, 0.0 ], [ 79.351870688, 15.813779039, 0.0 ], [ 79.348477558, 15.813991551, 0.0 ], [ 79.347400825, 15.814140309, 0.0 ], [ 79.346612756, 15.814239485, 0.0 ], [ 79.346517127, 15.814221776, 0.0 ], [ 79.346375451, 15.815727076, 0.0 ], [ 79.344974632, 15.815955529, 0.0 ], [ 79.344737329, 15.815325074, 0.0 ], [ 79.344790454, 15.815197564, 0.0 ], [ 79.3446169, 15.814726498, 0.0 ], [ 79.344503565, 15.814740663, 0.0 ], [ 79.344464597, 15.814393559, 0.0 ], [ 79.344339775, 15.81427194, 0.0 ], [ 79.343585137, 15.814593055, 0.0 ], [ 79.342063824, 15.815213223, 0.0 ], [ 79.34172264, 15.81416556, 0.0 ], [ 79.33914162, 15.816397358, 0.0 ], [ 79.338712127, 15.812604113, 0.0 ], [ 79.338631843, 15.812130459, 0.0 ], [ 79.33818227, 15.812150524, 0.0 ], [ 79.338001639, 15.811781233, 0.0 ], [ 79.336477315, 15.812181634, 0.0 ], [ 79.333597261, 15.813855478, 0.0 ], [ 79.33337248, 15.813925725, 0.0 ], [ 79.333031281, 15.813646754, 0.0 ], [ 79.331825071, 15.813721012, 0.0 ], [ 79.331632397, 15.813712989, 0.0 ], [ 79.328025804, 15.813255386, 0.0 ], [ 79.32688571, 15.813479954, 0.0 ], [ 79.326603719, 15.813082057, 0.0 ], [ 79.326449805, 15.812657258, 0.0 ], [ 79.326194816, 15.811953477, 0.0 ], [ 79.32593976, 15.811285265, 0.0 ], [ 79.325799935, 15.810916036, 0.0 ], [ 79.325568608, 15.810292164, 0.0 ], [ 79.325526669, 15.810184414, 0.0 ], [ 79.325313917, 15.809637917, 0.0 ], [ 79.324909676, 15.808602771, 0.0 ], [ 79.324760148, 15.808359799, 0.0 ], [ 79.324262456, 15.807121406, 0.0 ], [ 79.324348606, 15.807088442, 0.0 ], [ 79.324048912, 15.806440582, 0.0 ], [ 79.323892367, 15.805906718, 0.0 ], [ 79.32369167, 15.805344759, 0.0 ], [ 79.323519065, 15.805336731, 0.0 ], [ 79.322844713, 15.8040402, 0.0 ], [ 79.32518087, 15.803650843, 0.0 ], [ 79.325385585, 15.803321694, 0.0 ], [ 79.327340406, 15.802647337, 0.0 ], [ 79.327806455, 15.802597679, 0.0 ], [ 79.32795054, 15.801960944, 0.0 ], [ 79.328091029, 15.800186742, 0.0 ], [ 79.328265643, 15.798117519, 0.0 ], [ 79.329028302, 15.795080919, 0.0 ], [ 79.330995177, 15.79313813, 0.0 ], [ 79.331537067, 15.792359407, 0.0 ], [ 79.332669022, 15.790741758, 0.0 ], [ 79.334322794, 15.788831088, 0.0 ], [ 79.335795935, 15.7871171, 0.0 ], [ 79.337148663, 15.786547108, 0.0 ], [ 79.337939427, 15.786246057, 0.0 ], [ 79.338686029, 15.78593297, 0.0 ], [ 79.340885714, 15.785535584, 0.0 ], [ 79.342366889, 15.785170303, 0.0 ], [ 79.342860607, 15.784993689, 0.0 ], [ 79.345004097, 15.78401828, 0.0 ], [ 79.347055257, 15.783131183, 0.0 ], [ 79.348050734, 15.782725766, 0.0 ], [ 79.347585109, 15.780401649, 0.0 ], [ 79.346629771, 15.777467403, 0.0 ], [ 79.346453156, 15.774954627, 0.0 ], [ 79.348379888, 15.774806112, 0.0 ], [ 79.348575966, 15.774777759, 0.0 ], [ 79.350378895, 15.774517093, 0.0 ], [ 79.352955863, 15.774187946, 0.0 ], [ 79.353093509, 15.774257817, 0.0 ], [ 79.354015567, 15.774725828, 0.0 ], [ 79.354235312, 15.774949928, 0.0 ], [ 79.355027096, 15.775757433, 0.0 ], [ 79.357220439, 15.777858457, 0.0 ], [ 79.357411431, 15.778041406, 0.0 ], [ 79.357696422, 15.778294292, 0.0 ], [ 79.358564268, 15.779984431, 0.0 ], [ 79.358812317, 15.78046186, 0.0 ], [ 79.360381799, 15.783665044, 0.0 ], [ 79.360456251, 15.783850791, 0.0 ], [ 79.361565921, 15.786619335, 0.0 ], [ 79.361818617, 15.787157105, 0.0 ], [ 79.362032225, 15.788151741, 0.0 ], [ 79.361446115, 15.788148224, 0.0 ], [ 79.360803638, 15.788116731, 0.0 ], [ 79.359992455, 15.787679072, 0.0 ], [ 79.357539877, 15.7869726, 0.0 ], [ 79.357092405, 15.786847531, 0.0 ], [ 79.356740251, 15.78674629, 0.0 ], [ 79.35648558, 15.786677922, 0.0 ], [ 79.354954849, 15.786250073, 0.0 ], [ 79.355227803, 15.7886063, 0.0 ], [ 79.355243728, 15.789158913, 0.0 ], [ 79.355243741, 15.789159654, 0.0 ], [ 79.35536397, 15.793332242, 0.0 ], [ 79.355349634, 15.793334456, 0.0 ], [ 79.355366716, 15.793803807, 0.0 ], [ 79.355376708, 15.793898097, 0.0 ], [ 79.355377834, 15.793948227, 0.0 ], [ 79.355388365, 15.794418603, 0.0 ], [ 79.35544175, 15.795368521, 0.0 ], [ 79.355504765, 15.796489833, 0.0 ] ] ] } }
]
}
