{
"type": "FeatureCollection",
"name": "Area_Features___7_",
"crs": { "type": "name", "properties": { "name": "urn:ogc:def:crs:OGC:1.3:CRS84" } },
"features": [
{ "type": "Feature", "properties": { "Name": null, "description": "CS_Puram", "timestamp": null, "begin": null, "end": null, "altitudeMode": null, "tessellate": -1, "extrude": 1, "visibility": -1, "drawOrder": null, "icon": null }, "geometry": { "type": "Polygon", "coordinates": [ [ [ 79.326780841, 15.133035615, 0.0 ], [ 79.328217348, 15.135489846, 0.0 ], [ 79.328453508, 15.135907856, 0.0 ], [ 79.328630735, 15.136225787, 0.0 ], [ 79.328860201, 15.136601704, 0.0 ], [ 79.329312365, 15.137398573, 0.0 ], [ 79.329637921, 15.137940482, 0.0 ], [ 79.329759188, 15.138161573, 0.0 ], [ 79.329881893, 15.138389457, 0.0 ], [ 79.329961345, 15.138541685, 0.0 ], [ 79.329932424, 15.138632441, 0.0 ], [ 79.330183652, 15.13929951, 0.0 ], [ 79.330373088, 15.139284125, 0.0 ], [ 79.330380343, 15.139298028, 0.0 ], [ 79.330390965, 15.139354363, 0.0 ], [ 79.330320542, 15.139823705, 0.0 ], [ 79.330317486, 15.139840745, 0.0 ], [ 79.330108409, 15.139905647, 0.0 ], [ 79.329554481, 15.139771008, 0.0 ], [ 79.329344251, 15.140326116, 0.0 ], [ 79.328871814, 15.140323749, 0.0 ], [ 79.328238753, 15.14051981, 0.0 ], [ 79.327459244, 15.140503272, 0.0 ], [ 79.327430896, 15.140940273, 0.0 ], [ 79.325720692, 15.141056024, 0.0 ], [ 79.325092353, 15.141197747, 0.0 ], [ 79.324908101, 15.140675715, 0.0 ], [ 79.324149846, 15.140831611, 0.0 ], [ 79.324713148, 15.14302378, 0.0 ], [ 79.324847868, 15.143398697, 0.0 ], [ 79.322996946, 15.144132095, 0.0 ], [ 79.323023101, 15.144207737, 0.0 ], [ 79.322328624, 15.144394348, 0.0 ], [ 79.321525488, 15.144694341, 0.0 ], [ 79.321591623, 15.144847887, 0.0 ], [ 79.32093022, 15.145119531, 0.0 ], [ 79.320248741, 15.143975064, 0.0 ], [ 79.319273163, 15.144393163, 0.0 ], [ 79.319284973, 15.144858514, 0.0 ], [ 79.319032225, 15.144889222, 0.0 ], [ 79.318118062, 15.145215199, 0.0 ], [ 79.31829523, 15.146117544, 0.0 ], [ 79.31718974, 15.146412818, 0.0 ], [ 79.315483883, 15.146799634, 0.0 ], [ 79.314359108, 15.147299424, 0.0 ], [ 79.314343635, 15.14726755, 0.0 ], [ 79.314189729, 15.147321539, 0.0 ], [ 79.314123669, 15.147344707, 0.0 ], [ 79.314027107, 15.147378582, 0.0 ], [ 79.313963306, 15.147400961, 0.0 ], [ 79.313683634, 15.147499053, 0.0 ], [ 79.313620729, 15.14741279, 0.0 ], [ 79.312262709, 15.147778678, 0.0 ], [ 79.312142297, 15.147697975, 0.0 ], [ 79.311499954, 15.148181395, 0.0 ], [ 79.31141341, 15.147758091, 0.0 ], [ 79.309402141, 15.148523247, 0.0 ], [ 79.309711854, 15.150639628, 0.0 ], [ 79.309353558, 15.150772012, 0.0 ], [ 79.307795376, 15.150937777, 0.0 ], [ 79.306485962, 15.151026676, 0.0 ], [ 79.306481111, 15.151636352, 0.0 ], [ 79.305754123, 15.15186901, 0.0 ], [ 79.305050807, 15.152112923, 0.0 ], [ 79.303029088, 15.152495952, 0.0 ], [ 79.303130915, 15.153026397, 0.0 ], [ 79.300837364, 15.153435151, 0.0 ], [ 79.300403795, 15.155117958, 0.0 ], [ 79.30026101, 15.155525917, 0.0 ], [ 79.299939049, 15.156289088, 0.0 ], [ 79.299378599, 15.157696181, 0.0 ], [ 79.298822127, 15.158956206, 0.0 ], [ 79.298428612, 15.160315597, 0.0 ], [ 79.298343524, 15.160949744, 0.0 ], [ 79.298143419, 15.161064852, 0.0 ], [ 79.298496183, 15.159039676, 0.0 ], [ 79.299152031, 15.157668354, 0.0 ], [ 79.299606826, 15.156430705, 0.0 ], [ 79.297684399, 15.156694502, 0.0 ], [ 79.293617751, 15.155687457, 0.0 ], [ 79.292498833, 15.155812574, 0.0 ], [ 79.292605909, 15.156431233, 0.0 ], [ 79.290166954, 15.156930919, 0.0 ], [ 79.289952975, 15.156894349, 0.0 ], [ 79.289297948, 15.157239155, 0.0 ], [ 79.288348364, 15.157087602, 0.0 ], [ 79.287576379, 15.156566635, 0.0 ], [ 79.2874414, 15.156235105, 0.0 ], [ 79.287446138, 15.156082361, 0.0 ], [ 79.28724959, 15.155941464, 0.0 ], [ 79.287363251, 15.154998982, 0.0 ], [ 79.286363939, 15.154925572, 0.0 ], [ 79.286326052, 15.155342351, 0.0 ], [ 79.284967189, 15.155107696, 0.0 ], [ 79.2850864, 15.154883943, 0.0 ], [ 79.285145734, 15.154503188, 0.0 ], [ 79.285042257, 15.154169358, 0.0 ], [ 79.284935902, 15.153809278, 0.0 ], [ 79.285018234, 15.153578289, 0.0 ], [ 79.28510868, 15.153324532, 0.0 ], [ 79.285164992, 15.1530671, 0.0 ], [ 79.285521493, 15.15219376, 0.0 ], [ 79.285607809, 15.151997821, 0.0 ], [ 79.285627282, 15.151374131, 0.0 ], [ 79.285753939, 15.151245603, 0.0 ], [ 79.285518258, 15.150251448, 0.0 ], [ 79.28561301, 15.150200238, 0.0 ], [ 79.286062576, 15.150120674, 0.0 ], [ 79.286406678, 15.1498355, 0.0 ], [ 79.286283268, 15.149260314, 0.0 ], [ 79.286328374, 15.148851452, 0.0 ], [ 79.286456416, 15.148581803, 0.0 ], [ 79.286649611, 15.148346439, 0.0 ], [ 79.287020288, 15.148240301, 0.0 ], [ 79.286898463, 15.14774825, 0.0 ], [ 79.286829214, 15.147390872, 0.0 ], [ 79.286564971, 15.147392186, 0.0 ], [ 79.285706999, 15.147543286, 0.0 ], [ 79.285436811, 15.146652973, 0.0 ], [ 79.284943406, 15.146832091, 0.0 ], [ 79.284618551, 15.145805329, 0.0 ], [ 79.284546127, 15.145547677, 0.0 ], [ 79.284292838, 15.144181253, 0.0 ], [ 79.284209404, 15.143655791, 0.0 ], [ 79.28421671, 15.143431362, 0.0 ], [ 79.284374388, 15.143152124, 0.0 ], [ 79.284441773, 15.142742799, 0.0 ], [ 79.284394342, 15.142444578, 0.0 ], [ 79.281723855, 15.14267337, 0.0 ], [ 79.280933932, 15.142775038, 0.0 ], [ 79.280822573, 15.14234131, 0.0 ], [ 79.280122726, 15.142445178, 0.0 ], [ 79.279935853, 15.141753582, 0.0 ], [ 79.278739293, 15.14196365, 0.0 ], [ 79.27828658, 15.141089781, 0.0 ], [ 79.277933109, 15.140142036, 0.0 ], [ 79.277396187, 15.1385474, 0.0 ], [ 79.277334369, 15.138095484, 0.0 ], [ 79.277201644, 15.137415552, 0.0 ], [ 79.27715764, 15.137134572, 0.0 ], [ 79.277066944, 15.135925422, 0.0 ], [ 79.27704305, 15.135833572, 0.0 ], [ 79.277038451, 15.135732596, 0.0 ], [ 79.276986063, 15.135732413, 0.0 ], [ 79.276828487, 15.135332591, 0.0 ], [ 79.276796835, 15.135212026, 0.0 ], [ 79.276575131, 15.134367534, 0.0 ], [ 79.276478343, 15.133861333, 0.0 ], [ 79.276391038, 15.133354174, 0.0 ], [ 79.27626332, 15.131954338, 0.0 ], [ 79.276251721, 15.131564632, 0.0 ], [ 79.276150319, 15.131316798, 0.0 ], [ 79.276092126, 15.131114057, 0.0 ], [ 79.276081067, 15.130986009, 0.0 ], [ 79.275216407, 15.128220711, 0.0 ], [ 79.277951624, 15.128749442, 0.0 ], [ 79.280147798, 15.127149934, 0.0 ], [ 79.281819226, 15.128782747, 0.0 ], [ 79.281494499, 15.127700312, 0.0 ], [ 79.281606904, 15.126239038, 0.0 ], [ 79.281007401, 15.125164934, 0.0 ], [ 79.280349618, 15.123050032, 0.0 ], [ 79.279696002, 15.121347284, 0.0 ], [ 79.279379597, 15.121368102, 0.0 ], [ 79.278938293, 15.120564608, 0.0 ], [ 79.278630218, 15.120631219, 0.0 ], [ 79.278430386, 15.120119146, 0.0 ], [ 79.278113989, 15.119182431, 0.0 ], [ 79.27676977, 15.116688779, 0.0 ], [ 79.276519488, 15.114915162, 0.0 ], [ 79.276377932, 15.111944723, 0.0 ], [ 79.277469856, 15.111335043, 0.0 ], [ 79.278916581, 15.110661225, 0.0 ], [ 79.28033358, 15.110113742, 0.0 ], [ 79.282392193, 15.109276433, 0.0 ], [ 79.283739827, 15.108652159, 0.0 ], [ 79.285701818, 15.108042745, 0.0 ], [ 79.287019726, 15.107522518, 0.0 ], [ 79.28866959, 15.106903202, 0.0 ], [ 79.289093202, 15.106747136, 0.0 ], [ 79.290422772, 15.106260434, 0.0 ], [ 79.292086674, 15.105620221, 0.0 ], [ 79.292676781, 15.105415182, 0.0 ], [ 79.293058102, 15.105255146, 0.0 ], [ 79.293613211, 15.104950092, 0.0 ], [ 79.293898263, 15.104880076, 0.0 ], [ 79.295318529, 15.104875083, 0.0 ], [ 79.296810207, 15.104724663, 0.0 ], [ 79.296842572, 15.10495447, 0.0 ], [ 79.296937585, 15.10497947, 0.0 ], [ 79.296917033, 15.105945568, 0.0 ], [ 79.297125189, 15.105953895, 0.0 ], [ 79.297214697, 15.105999685, 0.0 ], [ 79.297133514, 15.106880202, 0.0 ], [ 79.297705229, 15.106900465, 0.0 ], [ 79.297960283, 15.106830444, 0.0 ], [ 79.298195322, 15.107750621, 0.0 ], [ 79.298562543, 15.107652234, 0.0 ], [ 79.298490792, 15.107140704, 0.0 ], [ 79.298629662, 15.106321335, 0.0 ], [ 79.299115733, 15.106235698, 0.0 ], [ 79.299426949, 15.106350963, 0.0 ], [ 79.299490697, 15.106374574, 0.0 ], [ 79.299872603, 15.106481048, 0.0 ], [ 79.300703546, 15.106531965, 0.0 ], [ 79.301139549, 15.106532853, 0.0 ], [ 79.301862914, 15.106255395, 0.0 ], [ 79.301966953, 15.106324763, 0.0 ], [ 79.302288997, 15.106235583, 0.0 ], [ 79.302353407, 15.106408985, 0.0 ], [ 79.302556542, 15.106240537, 0.0 ], [ 79.302665548, 15.106374308, 0.0 ], [ 79.303369087, 15.106245484, 0.0 ], [ 79.303121364, 15.106800394, 0.0 ], [ 79.303393859, 15.107380082, 0.0 ], [ 79.303572229, 15.107256211, 0.0 ], [ 79.304220036, 15.107152173, 0.0 ], [ 79.304675846, 15.107041931, 0.0 ], [ 79.304846779, 15.107032023, 0.0 ], [ 79.304908717, 15.106880907, 0.0 ], [ 79.306702876, 15.106633805, 0.0 ], [ 79.307822606, 15.106517372, 0.0 ], [ 79.307888825, 15.105734093, 0.0 ], [ 79.30956103, 15.108275616, 0.0 ], [ 79.309644263, 15.108184008, 0.0 ], [ 79.310310865, 15.109745211, 0.0 ], [ 79.310449746, 15.110471987, 0.0 ], [ 79.310421967, 15.111149012, 0.0 ], [ 79.310452063, 15.111758913, 0.0 ], [ 79.310711291, 15.11176122, 0.0 ], [ 79.310917294, 15.112476431, 0.0 ], [ 79.312000528, 15.112238033, 0.0 ], [ 79.311954237, 15.112027398, 0.0 ], [ 79.313240701, 15.111645393, 0.0 ], [ 79.313481207, 15.111930182, 0.0 ], [ 79.313559946, 15.112047907, 0.0 ], [ 79.313690066, 15.112269729, 0.0 ], [ 79.314337214, 15.113807067, 0.0 ], [ 79.314455386, 15.114009742, 0.0 ], [ 79.314778253, 15.115933366, 0.0 ], [ 79.31488119, 15.11640142, 0.0 ], [ 79.315001924, 15.11723822, 0.0 ], [ 79.315051767, 15.117992691, 0.0 ], [ 79.315092296, 15.118606249, 0.0 ], [ 79.315162671, 15.119063658, 0.0 ], [ 79.315651384, 15.119036716, 0.0 ], [ 79.316579774, 15.1187786, 0.0 ], [ 79.317047294, 15.118897845, 0.0 ], [ 79.317130479, 15.11932313, 0.0 ], [ 79.317316657, 15.119515483, 0.0 ], [ 79.317624734, 15.120156618, 0.0 ], [ 79.319613637, 15.119267067, 0.0 ], [ 79.320119193, 15.119469586, 0.0 ], [ 79.320298547, 15.11957403, 0.0 ], [ 79.320442577, 15.11969964, 0.0 ], [ 79.320545635, 15.119816492, 0.0 ], [ 79.320853555, 15.120221014, 0.0 ], [ 79.320950061, 15.120364781, 0.0 ], [ 79.321027889, 15.120540952, 0.0 ], [ 79.321100293, 15.120754021, 0.0 ], [ 79.321253253, 15.121192879, 0.0 ], [ 79.321607275, 15.121982183, 0.0 ], [ 79.321944227, 15.12273201, 0.0 ], [ 79.322176878, 15.123247158, 0.0 ], [ 79.322580327, 15.12408765, 0.0 ], [ 79.322836945, 15.124636952, 0.0 ], [ 79.323000523, 15.125026961, 0.0 ], [ 79.323341545, 15.125786546, 0.0 ], [ 79.323834464, 15.127025404, 0.0 ], [ 79.324170055, 15.127766618, 0.0 ], [ 79.324371008, 15.128166092, 0.0 ], [ 79.324560998, 15.128646985, 0.0 ], [ 79.324702531, 15.129010629, 0.0 ], [ 79.324876657, 15.129526009, 0.0 ], [ 79.325090824, 15.130162275, 0.0 ], [ 79.325219004, 15.130445931, 0.0 ], [ 79.325509611, 15.130878719, 0.0 ], [ 79.325758652, 15.131273574, 0.0 ], [ 79.325989196, 15.131657028, 0.0 ], [ 79.326323983, 15.132214972, 0.0 ], [ 79.326780841, 15.133035615, 0.0 ] ] ] } }
]
}
