{
"type": "FeatureCollection",
"name": "Area_Features___11_",
"crs": { "type": "name", "properties": { "name": "urn:ogc:def:crs:OGC:1.3:CRS84" } },
"features": [
{ "type": "Feature", "properties": { "Name": null, "description": "0", "timestamp": null, "begin": null, "end": null, "altitudeMode": null, "tessellate": -1, "extrude": 1, "visibility": -1, "drawOrder": null, "icon": null }, "geometry": { "type": "Polygon", "coordinates": [ [ [ 78.452833304, 14.011302482, 0.0 ], [ 78.448256339, 14.013119461, 0.0 ], [ 78.445923634, 14.014131801, 0.0 ], [ 78.442886577, 14.015559982, 0.0 ], [ 78.441874101, 14.016868951, 0.0 ], [ 78.44053113, 14.018848553, 0.0 ], [ 78.441670263, 14.029283901, 0.0 ], [ 78.441562749, 14.030335829, 0.0 ], [ 78.440811362, 14.036624442, 0.0 ], [ 78.440430232, 14.03879067, 0.0 ], [ 78.439804252, 14.043201899, 0.0 ], [ 78.440338896, 14.044469158, 0.0 ], [ 78.439475245, 14.044917163, 0.0 ], [ 78.436151392, 14.046750787, 0.0 ], [ 78.434099672, 14.047872139, 0.0 ], [ 78.432287974, 14.048915, 0.0 ], [ 78.432011042, 14.049199008, 0.0 ], [ 78.428567233, 14.050982705, 0.0 ], [ 78.428221979, 14.049413787, 0.0 ], [ 78.426942156, 14.049717497, 0.0 ], [ 78.426587321, 14.051244957, 0.0 ], [ 78.426735581, 14.052055067, 0.0 ], [ 78.426479666, 14.052183331, 0.0 ], [ 78.426363741, 14.051378083, 0.0 ], [ 78.426171935, 14.050322562, 0.0 ], [ 78.425478806, 14.050673885, 0.0 ], [ 78.425442915, 14.050970781, 0.0 ], [ 78.424301674, 14.050827625, 0.0 ], [ 78.423473738, 14.051216285, 0.0 ], [ 78.423540221, 14.051648681, 0.0 ], [ 78.424204503, 14.052068743, 0.0 ], [ 78.424455343, 14.052807676, 0.0 ], [ 78.423831338, 14.052751335, 0.0 ], [ 78.423831338, 14.052751335, 0.0 ], [ 78.423417855, 14.052099507, 0.0 ], [ 78.422360017, 14.052155078, 0.0 ], [ 78.420836053, 14.052900048, 0.0 ], [ 78.42146475, 14.054189563, 0.0 ], [ 78.421223065, 14.054286355, 0.0 ], [ 78.420508108, 14.053262415, 0.0 ], [ 78.4199945, 14.053677002, 0.0 ], [ 78.419738834, 14.053782677, 0.0 ], [ 78.419827514, 14.054126909, 0.0 ], [ 78.420134799, 14.054369588, 0.0 ], [ 78.420336133, 14.054570483, 0.0 ], [ 78.420377416, 14.054602542, 0.0 ], [ 78.420122458, 14.054644988, 0.0 ], [ 78.419755586, 14.054351986, 0.0 ], [ 78.417200125, 14.052414023, 0.0 ], [ 78.416706446, 14.051464712, 0.0 ], [ 78.415992454, 14.049532877, 0.0 ], [ 78.415319094, 14.047691814, 0.0 ], [ 78.414763286, 14.047744588, 0.0 ], [ 78.409956932, 14.047254977, 0.0 ], [ 78.408174459, 14.044069536, 0.0 ], [ 78.406682564, 14.041414311, 0.0 ], [ 78.406132261, 14.041326311, 0.0 ], [ 78.40557559, 14.041304649, 0.0 ], [ 78.404057745, 14.041145483, 0.0 ], [ 78.40404882, 14.040929058, 0.0 ], [ 78.404235794, 14.040616548, 0.0 ], [ 78.404002555, 14.039750367, 0.0 ], [ 78.403941965, 14.039526052, 0.0 ], [ 78.403860977, 14.038686294, 0.0 ], [ 78.404467796, 14.038630514, 0.0 ], [ 78.404504072, 14.038340833, 0.0 ], [ 78.40419058, 14.037411218, 0.0 ], [ 78.404258692, 14.036801241, 0.0 ], [ 78.404617826, 14.036639853, 0.0 ], [ 78.40456896, 14.036085119, 0.0 ], [ 78.404298242, 14.036174861, 0.0 ], [ 78.403385986, 14.034631834, 0.0 ], [ 78.403371308, 14.033850893, 0.0 ], [ 78.40338486, 14.033847283, 0.0 ], [ 78.403224894, 14.033422537, 0.0 ], [ 78.402924796, 14.033483303, 0.0 ], [ 78.402644255, 14.032946015, 0.0 ], [ 78.402231781, 14.032984135, 0.0 ], [ 78.402185892, 14.032226419, 0.0 ], [ 78.402434264, 14.031986781, 0.0 ], [ 78.402705374, 14.032155751, 0.0 ], [ 78.403588253, 14.031973203, 0.0 ], [ 78.403745487, 14.03204704, 0.0 ], [ 78.404244301, 14.031958229, 0.0 ], [ 78.404429618, 14.032109117, 0.0 ], [ 78.405430152, 14.031963948, 0.0 ], [ 78.405384422, 14.033314591, 0.0 ], [ 78.406231295, 14.033051653, 0.0 ], [ 78.406852474, 14.031910952, 0.0 ], [ 78.406778579, 14.03105681, 0.0 ], [ 78.406776252, 14.031029912, 0.0 ], [ 78.405842937, 14.030964479, 0.0 ], [ 78.405555644, 14.030952258, 0.0 ], [ 78.405506283, 14.030331081, 0.0 ], [ 78.405356802, 14.029832496, 0.0 ], [ 78.406105895, 14.030185864, 0.0 ], [ 78.406421162, 14.030284008, 0.0 ], [ 78.407339067, 14.030568746, 0.0 ], [ 78.407713533, 14.029234135, 0.0 ], [ 78.407714931, 14.029231664, 0.0 ], [ 78.407576071, 14.028597259, 0.0 ], [ 78.407438692, 14.028032184, 0.0 ], [ 78.40731867, 14.027676969, 0.0 ], [ 78.407223682, 14.027388939, 0.0 ], [ 78.407367054, 14.027279434, 0.0 ], [ 78.407602817, 14.027084737, 0.0 ], [ 78.407938759, 14.02674239, 0.0 ], [ 78.40818348, 14.02647757, 0.0 ], [ 78.408199452, 14.025778685, 0.0 ], [ 78.407419603, 14.025746178, 0.0 ], [ 78.407293285, 14.025394981, 0.0 ], [ 78.406839474, 14.02540071, 0.0 ], [ 78.406635783, 14.025804487, 0.0 ], [ 78.405881879, 14.026007028, 0.0 ], [ 78.405880108, 14.025780057, 0.0 ], [ 78.405290639, 14.025273609, 0.0 ], [ 78.404508396, 14.025744968, 0.0 ], [ 78.404603655, 14.024740998, 0.0 ], [ 78.404350866, 14.023986966, 0.0 ], [ 78.40478721, 14.023581014, 0.0 ], [ 78.405593169, 14.02480346, 0.0 ], [ 78.406605996, 14.02443826, 0.0 ], [ 78.406483516, 14.023909329, 0.0 ], [ 78.407296122, 14.023618302, 0.0 ], [ 78.407386888, 14.022696606, 0.0 ], [ 78.407305484, 14.022456554, 0.0 ], [ 78.408374631, 14.022171531, 0.0 ], [ 78.408386622, 14.021915864, 0.0 ], [ 78.40836475, 14.021908484, 0.0 ], [ 78.407625029, 14.021042355, 0.0 ], [ 78.406951696, 14.020032396, 0.0 ], [ 78.406026057, 14.020067647, 0.0 ], [ 78.405003928, 14.018810035, 0.0 ], [ 78.404078905, 14.018791084, 0.0 ], [ 78.403153883, 14.018772129, 0.0 ], [ 78.403616497, 14.01811287, 0.0 ], [ 78.404025775, 14.017531321, 0.0 ], [ 78.404573066, 14.016808959, 0.0 ], [ 78.404450403, 14.015246785, 0.0 ], [ 78.404549444, 14.014978501, 0.0 ], [ 78.404441249, 14.013952969, 0.0 ], [ 78.404339573, 14.013398619, 0.0 ], [ 78.40428775, 14.011737971, 0.0 ], [ 78.403816053, 14.011723881, 0.0 ], [ 78.403837703, 14.011444067, 0.0 ], [ 78.403218093, 14.011419357, 0.0 ], [ 78.403246963, 14.011320296, 0.0 ], [ 78.402516749, 14.011258263, 0.0 ], [ 78.402463987, 14.011013786, 0.0 ], [ 78.402093747, 14.011027883, 0.0 ], [ 78.401830599, 14.011103545, 0.0 ], [ 78.401518259, 14.01119335, 0.0 ], [ 78.40080116, 14.011610241, 0.0 ], [ 78.40065563, 14.011189928, 0.0 ], [ 78.400691295, 14.012428476, 0.0 ], [ 78.40031671, 14.011592354, 0.0 ], [ 78.399887755, 14.010281413, 0.0 ], [ 78.399423256, 14.009131616, 0.0 ], [ 78.399345329, 14.008901113, 0.0 ], [ 78.399304596, 14.008580427, 0.0 ], [ 78.39936198, 14.007808712, 0.0 ], [ 78.399686902, 14.007858322, 0.0 ], [ 78.39980642, 14.007982659, 0.0 ], [ 78.400082145, 14.008090574, 0.0 ], [ 78.40049483, 14.008466849, 0.0 ], [ 78.401258706, 14.008118185, 0.0 ], [ 78.401881768, 14.00799534, 0.0 ], [ 78.402440932, 14.008104192, 0.0 ], [ 78.402354665, 14.008808611, 0.0 ], [ 78.402182314, 14.008841159, 0.0 ], [ 78.402150237, 14.009102853, 0.0 ], [ 78.402346177, 14.009242917, 0.0 ], [ 78.402467325, 14.009408384, 0.0 ], [ 78.402696749, 14.00960097, 0.0 ], [ 78.402914269, 14.009984297, 0.0 ], [ 78.403718559, 14.009780028, 0.0 ], [ 78.403389146, 14.007726392, 0.0 ], [ 78.40619095, 14.006084208, 0.0 ], [ 78.406224289, 14.006138629, 0.0 ], [ 78.406392564, 14.00610857, 0.0 ], [ 78.406580959, 14.006045281, 0.0 ], [ 78.407602969, 14.00605518, 0.0 ], [ 78.40812677, 14.005917854, 0.0 ], [ 78.408399085, 14.005911563, 0.0 ], [ 78.408422405, 14.005625002, 0.0 ], [ 78.408420115, 14.005324107, 0.0 ], [ 78.408416008, 14.004784588, 0.0 ], [ 78.412607152, 14.002336506, 0.0 ], [ 78.412608888, 14.002150225, 0.0 ], [ 78.412528295, 14.001961954, 0.0 ], [ 78.412318754, 14.001741108, 0.0 ], [ 78.412168662, 14.001313699, 0.0 ], [ 78.412161463, 14.001083597, 0.0 ], [ 78.411718008, 14.000070866, 0.0 ], [ 78.411445419, 13.998818414, 0.0 ], [ 78.411336088, 13.998807229, 0.0 ], [ 78.41086381, 13.998940199, 0.0 ], [ 78.41060818, 13.998879811, 0.0 ], [ 78.410373123, 13.998780589, 0.0 ], [ 78.409954285, 13.998735578, 0.0 ], [ 78.408873494, 13.997607927, 0.0 ], [ 78.408873314, 13.997608045, 0.0 ], [ 78.408054266, 13.996909578, 0.0 ], [ 78.406913784, 13.995390923, 0.0 ], [ 78.406463547, 13.993336659, 0.0 ], [ 78.409438561, 13.992476262, 0.0 ], [ 78.411392845, 13.992040839, 0.0 ], [ 78.41203225, 13.991706805, 0.0 ], [ 78.41229438, 13.991581739, 0.0 ], [ 78.413311054, 13.99103873, 0.0 ], [ 78.414223641, 13.990551308, 0.0 ], [ 78.414578184, 13.99033899, 0.0 ], [ 78.416237313, 13.989402013, 0.0 ], [ 78.416051867, 13.988989623, 0.0 ], [ 78.415802985, 13.988362434, 0.0 ], [ 78.419885975, 13.986874112, 0.0 ], [ 78.421514943, 13.98616827, 0.0 ], [ 78.421703978, 13.986211388, 0.0 ], [ 78.422624178, 13.987159668, 0.0 ], [ 78.423999272, 13.987167437, 0.0 ], [ 78.425123422, 13.985627074, 0.0 ], [ 78.425782037, 13.984544853, 0.0 ], [ 78.424698683, 13.984956357, 0.0 ], [ 78.424115864, 13.984797708, 0.0 ], [ 78.423920671, 13.981131894, 0.0 ], [ 78.425247325, 13.981145973, 0.0 ], [ 78.425158625, 13.981484817, 0.0 ], [ 78.426537944, 13.981551022, 0.0 ], [ 78.426692353, 13.981564631, 0.0 ], [ 78.426696831, 13.981572583, 0.0 ], [ 78.427010619, 13.981615165, 0.0 ], [ 78.427605156, 13.981535226, 0.0 ], [ 78.428615136, 13.981474027, 0.0 ], [ 78.428938442, 13.981060479, 0.0 ], [ 78.429035996, 13.980706224, 0.0 ], [ 78.429461594, 13.980807918, 0.0 ], [ 78.430451878, 13.980617835, 0.0 ], [ 78.431409147, 13.980434085, 0.0 ], [ 78.432346207, 13.980476333, 0.0 ], [ 78.433095726, 13.980510122, 0.0 ], [ 78.434304875, 13.980772563, 0.0 ], [ 78.434791882, 13.980963534, 0.0 ], [ 78.435281207, 13.981155414, 0.0 ], [ 78.436306503, 13.981714478, 0.0 ], [ 78.435999188, 13.982475957, 0.0 ], [ 78.436066633, 13.982886429, 0.0 ], [ 78.43569001, 13.982869549, 0.0 ], [ 78.435719942, 13.983572924, 0.0 ], [ 78.435909824, 13.983705482, 0.0 ], [ 78.436435785, 13.983686084, 0.0 ], [ 78.437219829, 13.983468324, 0.0 ], [ 78.436999676, 13.983070958, 0.0 ], [ 78.437064492, 13.982820442, 0.0 ], [ 78.43728789, 13.9822478, 0.0 ], [ 78.43765367, 13.982553323, 0.0 ], [ 78.439251419, 13.983354983, 0.0 ], [ 78.439952868, 13.983714616, 0.0 ], [ 78.440081544, 13.983853452, 0.0 ], [ 78.442142278, 13.98488738, 0.0 ], [ 78.443322751, 13.983039165, 0.0 ], [ 78.450925509, 13.984671334, 0.0 ], [ 78.457049227, 13.987806147, 0.0 ], [ 78.447959984, 13.99152235, 0.0 ], [ 78.445843731, 13.990176626, 0.0 ], [ 78.443601366, 13.993298725, 0.0 ], [ 78.44391715, 13.993924529, 0.0 ], [ 78.444829716, 13.995259996, 0.0 ], [ 78.445455406, 13.995954876, 0.0 ], [ 78.447667952, 13.998198245, 0.0 ], [ 78.449418956, 14.000147843, 0.0 ], [ 78.452458829, 13.999215885, 0.0 ], [ 78.452856822, 13.997640681, 0.0 ], [ 78.454564237, 13.995993988, 0.0 ], [ 78.457317947, 13.996098852, 0.0 ], [ 78.460574923, 13.99614805, 0.0 ], [ 78.463123389, 13.996092337, 0.0 ], [ 78.464855243, 13.997078166, 0.0 ], [ 78.465695556, 13.997377931, 0.0 ], [ 78.465752422, 13.998631399, 0.0 ], [ 78.46602827, 14.00187342, 0.0 ], [ 78.465684051, 14.001837425, 0.0 ], [ 78.465224637, 14.002292034, 0.0 ], [ 78.465472965, 14.003965517, 0.0 ], [ 78.467691854, 14.00840848, 0.0 ], [ 78.464853226, 14.008875762, 0.0 ], [ 78.461574035, 14.008744733, 0.0 ], [ 78.458919958, 14.008679236, 0.0 ], [ 78.45742884, 14.00744213, 0.0 ], [ 78.455223385, 14.007469105, 0.0 ], [ 78.454960349, 14.007987794, 0.0 ], [ 78.454182849, 14.00769616, 0.0 ], [ 78.453555938, 14.007861403, 0.0 ], [ 78.453004626, 14.007934619, 0.0 ], [ 78.452460575, 14.008309887, 0.0 ], [ 78.45221339, 14.009576288, 0.0 ], [ 78.452833304, 14.011302482, 0.0 ] ] ] } }
]
}
