{
"type": "FeatureCollection",
"name": "Area_Features___3_",
"crs": { "type": "name", "properties": { "name": "urn:ogc:def:crs:OGC:1.3:CRS84" } },
"features": [
{ "type": "Feature", "properties": { "Name": null, "description": "Proposed Project Broundary", "timestamp": null, "begin": null, "end": null, "altitudeMode": null, "tessellate": -1, "extrude": 1, "visibility": -1, "drawOrder": null, "icon": null }, "geometry": { "type": "Polygon", "coordinates": [ [ [ 78.257795927, 14.952023046, 0.0 ], [ 78.258193988, 14.95284527, 0.0 ], [ 78.258568686, 14.953619239, 0.0 ], [ 78.258600755, 14.953685824, 0.0 ], [ 78.2588468, 14.954195272, 0.0 ], [ 78.259087563, 14.954696594, 0.0 ], [ 78.259579297, 14.955756904, 0.0 ], [ 78.259681883, 14.955979697, 0.0 ], [ 78.259917616, 14.956492945, 0.0 ], [ 78.260020754, 14.956717502, 0.0 ], [ 78.260047826, 14.956777475, 0.0 ], [ 78.260102268, 14.956898082, 0.0 ], [ 78.260124101, 14.956946448, 0.0 ], [ 78.260178808, 14.957067646, 0.0 ], [ 78.258828206, 14.95735886, 0.0 ], [ 78.258576788, 14.957414441, 0.0 ], [ 78.257336855, 14.957410011, 0.0 ], [ 78.25545094, 14.957409917, 0.0 ], [ 78.254676359, 14.957481422, 0.0 ], [ 78.253486809, 14.957567129, 0.0 ], [ 78.252003657, 14.957695528, 0.0 ], [ 78.251635897, 14.957792902, 0.0 ], [ 78.25072609, 14.958014153, 0.0 ], [ 78.249832992, 14.958247184, 0.0 ], [ 78.248997255, 14.958471624, 0.0 ], [ 78.24845572, 14.958614143, 0.0 ], [ 78.247435054, 14.958874018, 0.0 ], [ 78.245987712, 14.959255277, 0.0 ], [ 78.245904948, 14.959281504, 0.0 ], [ 78.245084345, 14.959514527, 0.0 ], [ 78.243856883, 14.959860818, 0.0 ], [ 78.242369876, 14.960286779, 0.0 ], [ 78.241013496, 14.9606706, 0.0 ], [ 78.239633893, 14.961052993, 0.0 ], [ 78.238491931, 14.961394017, 0.0 ], [ 78.238044439, 14.959875428, 0.0 ], [ 78.237717773, 14.958775001, 0.0 ], [ 78.237562249, 14.958251092, 0.0 ], [ 78.237386462, 14.95769573, 0.0 ], [ 78.231260232, 14.957621468, 0.0 ], [ 78.231297079, 14.954751308, 0.0 ], [ 78.230716269, 14.954789597, 0.0 ], [ 78.230414193, 14.954809237, 0.0 ], [ 78.230034304, 14.954814102, 0.0 ], [ 78.229451551, 14.954821564, 0.0 ], [ 78.228043577, 14.955114554, 0.0 ], [ 78.226981363, 14.955268583, 0.0 ], [ 78.226105568, 14.955397908, 0.0 ], [ 78.224840396, 14.955539962, 0.0 ], [ 78.224626481, 14.955563981, 0.0 ], [ 78.224110043, 14.955621966, 0.0 ], [ 78.223419556, 14.9557035, 0.0 ], [ 78.221312911, 14.95572394, 0.0 ], [ 78.219551788, 14.955271378, 0.0 ], [ 78.218938489, 14.955064144, 0.0 ], [ 78.216867398, 14.954368589, 0.0 ], [ 78.215044131, 14.953705607, 0.0 ], [ 78.213060073, 14.952993144, 0.0 ], [ 78.211757553, 14.952732044, 0.0 ], [ 78.211360937, 14.952637542, 0.0 ], [ 78.211076829, 14.952728126, 0.0 ], [ 78.210969351, 14.952763564, 0.0 ], [ 78.210892813, 14.952616275, 0.0 ], [ 78.209842074, 14.950594249, 0.0 ], [ 78.209775664, 14.950317237, 0.0 ], [ 78.209989286, 14.950133777, 0.0 ], [ 78.210333615, 14.949843111, 0.0 ], [ 78.210827785, 14.949425954, 0.0 ], [ 78.211164838, 14.949141429, 0.0 ], [ 78.211248495, 14.94907115, 0.0 ], [ 78.211822274, 14.948589118, 0.0 ], [ 78.212437041, 14.948067545, 0.0 ], [ 78.213415595, 14.947243692, 0.0 ], [ 78.214247151, 14.946050041, 0.0 ], [ 78.214273489, 14.946012606, 0.0 ], [ 78.21527174, 14.944823099, 0.0 ], [ 78.216029272, 14.943749821, 0.0 ], [ 78.216277932, 14.943397517, 0.0 ], [ 78.216466058, 14.942407391, 0.0 ], [ 78.216624157, 14.941514673, 0.0 ], [ 78.216711039, 14.94108854, 0.0 ], [ 78.216497568, 14.940701558, 0.0 ], [ 78.216210726, 14.939793032, 0.0 ], [ 78.217252717, 14.939662659, 0.0 ], [ 78.218092019, 14.939560152, 0.0 ], [ 78.220029652, 14.939322445, 0.0 ], [ 78.22132844, 14.939132457, 0.0 ], [ 78.222736884, 14.939507302, 0.0 ], [ 78.223759103, 14.940198672, 0.0 ], [ 78.22394734, 14.940292592, 0.0 ], [ 78.22404486, 14.940391277, 0.0 ], [ 78.225805725, 14.941286345, 0.0 ], [ 78.225952489, 14.941361382, 0.0 ], [ 78.22683274, 14.941756632, 0.0 ], [ 78.22707007, 14.94188522, 0.0 ], [ 78.228312198, 14.941773652, 0.0 ], [ 78.229043159, 14.941693093, 0.0 ], [ 78.230443532, 14.941553003, 0.0 ], [ 78.231535967, 14.941471741, 0.0 ], [ 78.232376671, 14.941399433, 0.0 ], [ 78.232617951, 14.941377365, 0.0 ], [ 78.232992349, 14.941355051, 0.0 ], [ 78.234366198, 14.940600533, 0.0 ], [ 78.235487123, 14.939960253, 0.0 ], [ 78.236241667, 14.939544164, 0.0 ], [ 78.236737227, 14.938805694, 0.0 ], [ 78.237722838, 14.937450219, 0.0 ], [ 78.238510304, 14.936265228, 0.0 ], [ 78.239031364, 14.9355323, 0.0 ], [ 78.239281236, 14.935167754, 0.0 ], [ 78.239586373, 14.934396332, 0.0 ], [ 78.240034984, 14.93326483, 0.0 ], [ 78.240477957, 14.932059304, 0.0 ], [ 78.240662744, 14.931651766, 0.0 ], [ 78.242706369, 14.932134665, 0.0 ], [ 78.243843443, 14.932456082, 0.0 ], [ 78.245494691, 14.933041773, 0.0 ], [ 78.24746276, 14.933849078, 0.0 ], [ 78.249475342, 14.934681545, 0.0 ], [ 78.25019946, 14.937169063, 0.0 ], [ 78.25048011, 14.937372894, 0.0 ], [ 78.250968363, 14.937261926, 0.0 ], [ 78.251043393, 14.937203878, 0.0 ], [ 78.251331972, 14.937226866, 0.0 ], [ 78.251683373, 14.937018861, 0.0 ], [ 78.251875671, 14.937151913, 0.0 ], [ 78.25198585, 14.937126, 0.0 ], [ 78.252494806, 14.937079399, 0.0 ], [ 78.253028233, 14.937071543, 0.0 ], [ 78.25307689, 14.937119446, 0.0 ], [ 78.253778173, 14.937162506, 0.0 ], [ 78.254040665, 14.937175038, 0.0 ], [ 78.25434049, 14.937103269, 0.0 ], [ 78.254953641, 14.937103777, 0.0 ], [ 78.255255874, 14.937103054, 0.0 ], [ 78.255832133, 14.937258947, 0.0 ], [ 78.256544359, 14.937225013, 0.0 ], [ 78.256549749, 14.937386889, 0.0 ], [ 78.256764252, 14.937474567, 0.0 ], [ 78.256771407, 14.937575894, 0.0 ], [ 78.256888014, 14.937601945, 0.0 ], [ 78.256986056, 14.937860335, 0.0 ], [ 78.257692214, 14.938279229, 0.0 ], [ 78.257718914, 14.938089211, 0.0 ], [ 78.257739681, 14.938097576, 0.0 ], [ 78.257841841, 14.938138726, 0.0 ], [ 78.258113999, 14.93831514, 0.0 ], [ 78.258299416, 14.938359477, 0.0 ], [ 78.258587206, 14.938566138, 0.0 ], [ 78.258653479, 14.938630485, 0.0 ], [ 78.258954218, 14.938700902, 0.0 ], [ 78.259082537, 14.938780911, 0.0 ], [ 78.259453207, 14.93880775, 0.0 ], [ 78.259689895, 14.938854624, 0.0 ], [ 78.259809486, 14.938938609, 0.0 ], [ 78.260032803, 14.93900921, 0.0 ], [ 78.260057596, 14.939149341, 0.0 ], [ 78.26024532, 14.939250297, 0.0 ], [ 78.260514903, 14.939254337, 0.0 ], [ 78.260499742, 14.939344535, 0.0 ], [ 78.260540411, 14.939585983, 0.0 ], [ 78.260691973, 14.939926567, 0.0 ], [ 78.260977222, 14.939971401, 0.0 ], [ 78.261009833, 14.939859458, 0.0 ], [ 78.261552071, 14.940129516, 0.0 ], [ 78.261704532, 14.940162119, 0.0 ], [ 78.261938742, 14.940243265, 0.0 ], [ 78.26212234, 14.940307402, 0.0 ], [ 78.262261699, 14.94025316, 0.0 ], [ 78.262000397, 14.940141788, 0.0 ], [ 78.262072879, 14.940050817, 0.0 ], [ 78.26211912, 14.939973717, 0.0 ], [ 78.262393059, 14.940033064, 0.0 ], [ 78.262634098, 14.940127367, 0.0 ], [ 78.263109271, 14.940066521, 0.0 ], [ 78.263376202, 14.9400311, 0.0 ], [ 78.26368157, 14.939987698, 0.0 ], [ 78.263970322, 14.939810019, 0.0 ], [ 78.264069449, 14.939801259, 0.0 ], [ 78.264422034, 14.939332384, 0.0 ], [ 78.264802399, 14.938673023, 0.0 ], [ 78.264894178, 14.938367529, 0.0 ], [ 78.264985957, 14.938062036, 0.0 ], [ 78.265060221, 14.937865565, 0.0 ], [ 78.265261164, 14.937813063, 0.0 ], [ 78.265320797, 14.937679192, 0.0 ], [ 78.265485603, 14.937298661, 0.0 ], [ 78.265317412, 14.937260186, 0.0 ], [ 78.265243711, 14.937219512, 0.0 ], [ 78.264691588, 14.937404625, 0.0 ], [ 78.264334074, 14.937644584, 0.0 ], [ 78.264219625, 14.9377206, 0.0 ], [ 78.264147165, 14.937841964, 0.0 ], [ 78.264059057, 14.93792384, 0.0 ], [ 78.264070181, 14.938021294, 0.0 ], [ 78.26402381, 14.938074748, 0.0 ], [ 78.263931727, 14.938176383, 0.0 ], [ 78.263776956, 14.938291324, 0.0 ], [ 78.263664604, 14.93838048, 0.0 ], [ 78.263457362, 14.938531742, 0.0 ], [ 78.263115609, 14.938787319, 0.0 ], [ 78.263116044, 14.938912422, 0.0 ], [ 78.262556133, 14.939245437, 0.0 ], [ 78.26259558, 14.939721966, 0.0 ], [ 78.261850585, 14.939726119, 0.0 ], [ 78.261842218, 14.939836055, 0.0 ], [ 78.26159905, 14.939702937, 0.0 ], [ 78.261536836, 14.939649093, 0.0 ], [ 78.261514, 14.939487223, 0.0 ], [ 78.260859638, 14.939343783, 0.0 ], [ 78.260562973, 14.939133133, 0.0 ], [ 78.260582868, 14.939046869, 0.0 ], [ 78.260330154, 14.938872989, 0.0 ], [ 78.260132741, 14.938530493, 0.0 ], [ 78.259973508, 14.938480819, 0.0 ], [ 78.259750123, 14.938395087, 0.0 ], [ 78.259659002, 14.938356455, 0.0 ], [ 78.259513212, 14.93829425, 0.0 ], [ 78.25936756, 14.938266931, 0.0 ], [ 78.259259002, 14.938247428, 0.0 ], [ 78.259024867, 14.938161731, 0.0 ], [ 78.258836589, 14.938084491, 0.0 ], [ 78.258732684, 14.938045893, 0.0 ], [ 78.258609492, 14.938002025, 0.0 ], [ 78.258503348, 14.937975332, 0.0 ], [ 78.25820247, 14.937868081, 0.0 ], [ 78.258125014, 14.937870891, 0.0 ], [ 78.258029904, 14.937838202, 0.0 ], [ 78.257685458, 14.93777647, 0.0 ], [ 78.257557453, 14.937768209, 0.0 ], [ 78.257682627, 14.938074594, 0.0 ], [ 78.257709233, 14.938158109, 0.0 ], [ 78.257598412, 14.938068204, 0.0 ], [ 78.257578836, 14.938044284, 0.0 ], [ 78.257376397, 14.937796924, 0.0 ], [ 78.257303289, 14.937706276, 0.0 ], [ 78.257063124, 14.937279723, 0.0 ], [ 78.25704532, 14.937208686, 0.0 ], [ 78.256742643, 14.937136354, 0.0 ], [ 78.256763771, 14.936873046, 0.0 ], [ 78.256783616, 14.936786777, 0.0 ], [ 78.256677094, 14.936758735, 0.0 ], [ 78.256597531, 14.936735235, 0.0 ], [ 78.25639271, 14.936710067, 0.0 ], [ 78.256191281, 14.93668884, 0.0 ], [ 78.255975243, 14.936713061, 0.0 ], [ 78.255743862, 14.93676759, 0.0 ], [ 78.255553645, 14.936683819, 0.0 ], [ 78.255655785, 14.936323578, 0.0 ], [ 78.255764185, 14.936323308, 0.0 ], [ 78.255805571, 14.93623896, 0.0 ], [ 78.255888838, 14.936027472, 0.0 ], [ 78.255972381, 14.93603845, 0.0 ], [ 78.256060645, 14.936050732, 0.0 ], [ 78.256258142, 14.935776398, 0.0 ], [ 78.256217819, 14.935636288, 0.0 ], [ 78.256058748, 14.935602469, 0.0 ], [ 78.25594619, 14.935579063, 0.0 ], [ 78.25593697, 14.935469154, 0.0 ], [ 78.256377443, 14.93531922, 0.0 ], [ 78.256368124, 14.93518494, 0.0 ], [ 78.256311157, 14.934770963, 0.0 ], [ 78.257020175, 14.934870452, 0.0 ], [ 78.257323448, 14.935558372, 0.0 ], [ 78.257806548, 14.936074623, 0.0 ], [ 78.257908353, 14.936093459, 0.0 ], [ 78.258043132, 14.936102336, 0.0 ], [ 78.258264629, 14.936228847, 0.0 ], [ 78.258581347, 14.936068056, 0.0 ], [ 78.258832567, 14.935864612, 0.0 ], [ 78.259571748, 14.935651323, 0.0 ], [ 78.260114491, 14.935501069, 0.0 ], [ 78.260282625, 14.935571767, 0.0 ], [ 78.260406202, 14.935625456, 0.0 ], [ 78.260691393, 14.935624719, 0.0 ], [ 78.260860406, 14.935926614, 0.0 ], [ 78.261191106, 14.935643188, 0.0 ], [ 78.262020822, 14.935323494, 0.0 ], [ 78.262447901, 14.934970518, 0.0 ], [ 78.262768659, 14.934866203, 0.0 ], [ 78.263062638, 14.935005778, 0.0 ], [ 78.26348618, 14.93475158, 0.0 ], [ 78.263461398, 14.93460929, 0.0 ], [ 78.263687117, 14.934507175, 0.0 ], [ 78.263806368, 14.934448188, 0.0 ], [ 78.263743221, 14.934137907, 0.0 ], [ 78.263588149, 14.933394763, 0.0 ], [ 78.264325979, 14.933213299, 0.0 ], [ 78.264448967, 14.932845669, 0.0 ], [ 78.263754035, 14.932757391, 0.0 ], [ 78.262411134, 14.932597223, 0.0 ], [ 78.262167475, 14.932576196, 0.0 ], [ 78.261583699, 14.932525866, 0.0 ], [ 78.261360336, 14.93250742, 0.0 ], [ 78.261021594, 14.932294207, 0.0 ], [ 78.260965931, 14.932199453, 0.0 ], [ 78.260741298, 14.931832964, 0.0 ], [ 78.26071139, 14.931591117, 0.0 ], [ 78.26130384, 14.93145081, 0.0 ], [ 78.261891005, 14.931311153, 0.0 ], [ 78.261931182, 14.931412573, 0.0 ], [ 78.262009501, 14.931612777, 0.0 ], [ 78.263190782, 14.93168493, 0.0 ], [ 78.263097701, 14.931027282, 0.0 ], [ 78.2629042, 14.930908822, 0.0 ], [ 78.262810938, 14.930851728, 0.0 ], [ 78.261819868, 14.930241522, 0.0 ], [ 78.260719616, 14.929568836, 0.0 ], [ 78.259543317, 14.928838, 0.0 ], [ 78.258267381, 14.928923511, 0.0 ], [ 78.257571531, 14.928972868, 0.0 ], [ 78.256472835, 14.929087736, 0.0 ], [ 78.254950445, 14.929246901, 0.0 ], [ 78.25402038, 14.929362409, 0.0 ], [ 78.253717161, 14.929400067, 0.0 ], [ 78.253465757, 14.928837726, 0.0 ], [ 78.253443325, 14.928787551, 0.0 ], [ 78.253414652, 14.928723414, 0.0 ], [ 78.25316884, 14.928173582, 0.0 ], [ 78.253153184, 14.92813673, 0.0 ], [ 78.252807358, 14.927342062, 0.0 ], [ 78.252404121, 14.926472468, 0.0 ], [ 78.252074845, 14.926350946, 0.0 ], [ 78.250740654, 14.926272174, 0.0 ], [ 78.249565717, 14.926130702, 0.0 ], [ 78.248848261, 14.925508611, 0.0 ], [ 78.248048593, 14.924815235, 0.0 ], [ 78.247109605, 14.924753517, 0.0 ], [ 78.246012038, 14.924681376, 0.0 ], [ 78.245028372, 14.924616721, 0.0 ], [ 78.244686634, 14.924594259, 0.0 ], [ 78.243914776, 14.92455938, 0.0 ], [ 78.243559129, 14.924581248, 0.0 ], [ 78.243208677, 14.924602797, 0.0 ], [ 78.242490967, 14.924646929, 0.0 ], [ 78.242463852, 14.924502839, 0.0 ], [ 78.242293593, 14.923578506, 0.0 ], [ 78.242235534, 14.923263306, 0.0 ], [ 78.242103158, 14.922570188, 0.0 ], [ 78.242086349, 14.922481641, 0.0 ], [ 78.242254668, 14.922318267, 0.0 ], [ 78.243226435, 14.92171147, 0.0 ], [ 78.24456565, 14.920875216, 0.0 ], [ 78.245802045, 14.920420495, 0.0 ], [ 78.245936765, 14.920501129, 0.0 ], [ 78.246006359, 14.920669482, 0.0 ], [ 78.246375545, 14.920674281, 0.0 ], [ 78.246392817, 14.920625377, 0.0 ], [ 78.246500683, 14.920659531, 0.0 ], [ 78.246778366, 14.920518771, 0.0 ], [ 78.246999699, 14.92065733, 0.0 ], [ 78.246470632, 14.920755391, 0.0 ], [ 78.246417075, 14.92081953, 0.0 ], [ 78.246626728, 14.920999707, 0.0 ], [ 78.246970871, 14.921705915, 0.0 ], [ 78.247137948, 14.921824014, 0.0 ], [ 78.247218193, 14.921949013, 0.0 ], [ 78.247408647, 14.922239145, 0.0 ], [ 78.247684089, 14.922491249, 0.0 ], [ 78.248047668, 14.922612152, 0.0 ], [ 78.248634595, 14.922816395, 0.0 ], [ 78.249272766, 14.922970147, 0.0 ], [ 78.249504368, 14.923051916, 0.0 ], [ 78.250247389, 14.923321849, 0.0 ], [ 78.250395785, 14.923390521, 0.0 ], [ 78.250946992, 14.923665647, 0.0 ], [ 78.251330757, 14.92384112, 0.0 ], [ 78.251885956, 14.924155623, 0.0 ], [ 78.252501685, 14.924497874, 0.0 ], [ 78.253721991, 14.924456374, 0.0 ], [ 78.254031828, 14.924310375, 0.0 ], [ 78.25492981, 14.923969505, 0.0 ], [ 78.254768324, 14.923886703, 0.0 ], [ 78.254573854, 14.923431314, 0.0 ], [ 78.253920683, 14.922755745, 0.0 ], [ 78.253858939, 14.922617086, 0.0 ], [ 78.253866647, 14.9225167, 0.0 ], [ 78.254373103, 14.922283484, 0.0 ], [ 78.254232685, 14.921812323, 0.0 ], [ 78.254231115, 14.921753214, 0.0 ], [ 78.254086213, 14.921406822, 0.0 ], [ 78.254119167, 14.920833022, 0.0 ], [ 78.253978788, 14.920644234, 0.0 ], [ 78.253642564, 14.920196456, 0.0 ], [ 78.253513209, 14.919629134, 0.0 ], [ 78.253632931, 14.919576282, 0.0 ], [ 78.253324238, 14.919202236, 0.0 ], [ 78.253348169, 14.919011212, 0.0 ], [ 78.253183611, 14.919038421, 0.0 ], [ 78.253295381, 14.918163313, 0.0 ], [ 78.253523939, 14.918046147, 0.0 ], [ 78.253409956, 14.918607977, 0.0 ], [ 78.253610334, 14.918654383, 0.0 ], [ 78.254175143, 14.918731002, 0.0 ], [ 78.254275898, 14.91810528, 0.0 ], [ 78.254404822, 14.917357719, 0.0 ], [ 78.25411807, 14.91732748, 0.0 ], [ 78.254252536, 14.91674058, 0.0 ], [ 78.253663872, 14.916801738, 0.0 ], [ 78.253555853, 14.91664465, 0.0 ], [ 78.254154524, 14.916333183, 0.0 ], [ 78.254406453, 14.916500902, 0.0 ], [ 78.254707539, 14.916170068, 0.0 ], [ 78.254915571, 14.916239684, 0.0 ], [ 78.25503314, 14.916152798, 0.0 ], [ 78.256195622, 14.915282559, 0.0 ], [ 78.256496144, 14.914759183, 0.0 ], [ 78.25786176, 14.914844806, 0.0 ], [ 78.259017666, 14.915068688, 0.0 ], [ 78.260515586, 14.91534492, 0.0 ], [ 78.261823475, 14.915587082, 0.0 ], [ 78.263386204, 14.915886014, 0.0 ], [ 78.264552532, 14.916125062, 0.0 ], [ 78.265313952, 14.916659956, 0.0 ], [ 78.26624476, 14.917317033, 0.0 ], [ 78.267139878, 14.918024049, 0.0 ], [ 78.267294296, 14.917684391, 0.0 ], [ 78.26756867, 14.917362218, 0.0 ], [ 78.267710782, 14.917285471, 0.0 ], [ 78.269090526, 14.916561573, 0.0 ], [ 78.269162326, 14.915788349, 0.0 ], [ 78.268789354, 14.915841901, 0.0 ], [ 78.268221317, 14.915483798, 0.0 ], [ 78.267814215, 14.915197524, 0.0 ], [ 78.268060255, 14.915063241, 0.0 ], [ 78.267810228, 14.914238046, 0.0 ], [ 78.26762052, 14.914272747, 0.0 ], [ 78.267380468, 14.913989692, 0.0 ], [ 78.267232142, 14.913989959, 0.0 ], [ 78.267110656, 14.914015273, 0.0 ], [ 78.267069864, 14.91421575, 0.0 ], [ 78.266956229, 14.914243844, 0.0 ], [ 78.267013669, 14.913703844, 0.0 ], [ 78.266924383, 14.913491538, 0.0 ], [ 78.266752323, 14.913263058, 0.0 ], [ 78.26658367, 14.913194002, 0.0 ], [ 78.266458962, 14.913074207, 0.0 ], [ 78.266195889, 14.913104523, 0.0 ], [ 78.265791446, 14.913391638, 0.0 ], [ 78.265681839, 14.913464469, 0.0 ], [ 78.265569332, 14.913594955, 0.0 ], [ 78.26550458, 14.913314583, 0.0 ], [ 78.26598399, 14.913040185, 0.0 ], [ 78.266121807, 14.912953753, 0.0 ], [ 78.265977368, 14.912656587, 0.0 ], [ 78.265634104, 14.911967718, 0.0 ], [ 78.265680362, 14.91169089, 0.0 ], [ 78.2655517, 14.911627689, 0.0 ], [ 78.26587062, 14.911248692, 0.0 ], [ 78.265755051, 14.910582648, 0.0 ], [ 78.26540295, 14.910396127, 0.0 ], [ 78.264734052, 14.910329441, 0.0 ], [ 78.264234745, 14.910383623, 0.0 ], [ 78.264133811, 14.910239048, 0.0 ], [ 78.264315074, 14.909933408, 0.0 ], [ 78.264236565, 14.909667781, 0.0 ], [ 78.265268974, 14.908706723, 0.0 ], [ 78.265610368, 14.908600578, 0.0 ], [ 78.266380415, 14.908007292, 0.0 ], [ 78.266530526, 14.907918535, 0.0 ], [ 78.267605315, 14.90707968, 0.0 ], [ 78.26809624, 14.906570775, 0.0 ], [ 78.268226199, 14.906528423, 0.0 ], [ 78.268289658, 14.906612255, 0.0 ], [ 78.268344431, 14.906673438, 0.0 ], [ 78.268341447, 14.906361144, 0.0 ], [ 78.268631177, 14.906195459, 0.0 ], [ 78.269770352, 14.905472892, 0.0 ], [ 78.270150926, 14.905224508, 0.0 ], [ 78.27097571, 14.905508324, 0.0 ], [ 78.271375129, 14.905647675, 0.0 ], [ 78.272570156, 14.905671286, 0.0 ], [ 78.273373154, 14.905468916, 0.0 ], [ 78.274303256, 14.905226657, 0.0 ], [ 78.274709996, 14.905122131, 0.0 ], [ 78.275797776, 14.905009682, 0.0 ], [ 78.275937818, 14.904989985, 0.0 ], [ 78.275986838, 14.904966378, 0.0 ], [ 78.276822884, 14.904688922, 0.0 ], [ 78.277891166, 14.904320842, 0.0 ], [ 78.278061787, 14.904264785, 0.0 ], [ 78.278503271, 14.904131201, 0.0 ], [ 78.279235355, 14.903918197, 0.0 ], [ 78.280221243, 14.903686022, 0.0 ], [ 78.280576126, 14.903602564, 0.0 ], [ 78.281348479, 14.90295533, 0.0 ], [ 78.281856776, 14.902545614, 0.0 ], [ 78.282172142, 14.902131312, 0.0 ], [ 78.28260405, 14.901567591, 0.0 ], [ 78.283409416, 14.900516047, 0.0 ], [ 78.283439337, 14.901789361, 0.0 ], [ 78.283448572, 14.901939269, 0.0 ], [ 78.283461892, 14.902678262, 0.0 ], [ 78.28347791, 14.903133996, 0.0 ], [ 78.283502812, 14.903598303, 0.0 ], [ 78.28349921, 14.904094283, 0.0 ], [ 78.283043116, 14.90462766, 0.0 ], [ 78.282931323, 14.905120227, 0.0 ], [ 78.282541148, 14.905865006, 0.0 ], [ 78.282061612, 14.906665598, 0.0 ], [ 78.281964408, 14.906899925, 0.0 ], [ 78.281866614, 14.907239353, 0.0 ], [ 78.282606437, 14.906963748, 0.0 ], [ 78.283190691, 14.907110789, 0.0 ], [ 78.283175186, 14.907153672, 0.0 ], [ 78.283491239, 14.907425457, 0.0 ], [ 78.283615523, 14.907882331, 0.0 ], [ 78.2839084, 14.908948716, 0.0 ], [ 78.28415203, 14.909828985, 0.0 ], [ 78.283349254, 14.910442945, 0.0 ], [ 78.282911604, 14.910802622, 0.0 ], [ 78.282644045, 14.911008061, 0.0 ], [ 78.28218623, 14.911351398, 0.0 ], [ 78.280993849, 14.912219964, 0.0 ], [ 78.279929712, 14.911832102, 0.0 ], [ 78.279763654, 14.911763155, 0.0 ], [ 78.279426806, 14.911107632, 0.0 ], [ 78.279330803, 14.910728663, 0.0 ], [ 78.279639917, 14.91041617, 0.0 ], [ 78.27969369, 14.910057686, 0.0 ], [ 78.280385221, 14.90987799, 0.0 ], [ 78.280625049, 14.909803083, 0.0 ], [ 78.280614525, 14.909626589, 0.0 ], [ 78.280626658, 14.909579575, 0.0 ], [ 78.280867582, 14.909557661, 0.0 ], [ 78.280888994, 14.909033921, 0.0 ], [ 78.28108776, 14.90889811, 0.0 ], [ 78.280920715, 14.908478167, 0.0 ], [ 78.280610542, 14.908539566, 0.0 ], [ 78.280210361, 14.909002785, 0.0 ], [ 78.279855408, 14.909422585, 0.0 ], [ 78.279469531, 14.909540741, 0.0 ], [ 78.279374672, 14.909617048, 0.0 ], [ 78.279276486, 14.909740419, 0.0 ], [ 78.27924986, 14.910028115, 0.0 ], [ 78.279100609, 14.910529042, 0.0 ], [ 78.27911389, 14.911141641, 0.0 ], [ 78.278908193, 14.911171116, 0.0 ], [ 78.278840265, 14.911174705, 0.0 ], [ 78.278572549, 14.911373603, 0.0 ], [ 78.27834985, 14.911531127, 0.0 ], [ 78.278172636, 14.911951725, 0.0 ], [ 78.27783058, 14.912179973, 0.0 ], [ 78.276739061, 14.912944368, 0.0 ], [ 78.276571681, 14.912811477, 0.0 ], [ 78.276423401, 14.912237484, 0.0 ], [ 78.276645545, 14.91226725, 0.0 ], [ 78.27669652, 14.911880887, 0.0 ], [ 78.27645986, 14.911383432, 0.0 ], [ 78.276109143, 14.91118376, 0.0 ], [ 78.27561112, 14.911182901, 0.0 ], [ 78.275395021, 14.910925549, 0.0 ], [ 78.274790161, 14.911156533, 0.0 ], [ 78.274948871, 14.911504597, 0.0 ], [ 78.275215833, 14.912091023, 0.0 ], [ 78.275053117, 14.912175097, 0.0 ], [ 78.27513254, 14.912301251, 0.0 ], [ 78.275315651, 14.912246581, 0.0 ], [ 78.27547881, 14.912594655, 0.0 ], [ 78.275364835, 14.912703256, 0.0 ], [ 78.275548898, 14.913104171, 0.0 ], [ 78.275583155, 14.913267358, 0.0 ], [ 78.275163096, 14.913641711, 0.0 ], [ 78.274307614, 14.913754366, 0.0 ], [ 78.274075824, 14.913788788, 0.0 ], [ 78.274357992, 14.914779707, 0.0 ], [ 78.27479389, 14.914747759, 0.0 ], [ 78.27514448, 14.915134907, 0.0 ], [ 78.276116216, 14.915013574, 0.0 ], [ 78.27672458, 14.915035765, 0.0 ], [ 78.277065143, 14.915056729, 0.0 ], [ 78.277144742, 14.915596318, 0.0 ], [ 78.277217394, 14.916014464, 0.0 ], [ 78.277986257, 14.915939883, 0.0 ], [ 78.278197816, 14.915976109, 0.0 ], [ 78.278499581, 14.916632881, 0.0 ], [ 78.27875411, 14.916527697, 0.0 ], [ 78.279669417, 14.916109313, 0.0 ], [ 78.279828146, 14.916144607, 0.0 ], [ 78.280800511, 14.916328014, 0.0 ], [ 78.280891478, 14.915767974, 0.0 ], [ 78.280930562, 14.915745987, 0.0 ], [ 78.281695064, 14.915266555, 0.0 ], [ 78.281333314, 14.914087009, 0.0 ], [ 78.280648879, 14.914111124, 0.0 ], [ 78.280085293, 14.912931862, 0.0 ], [ 78.281202975, 14.913350722, 0.0 ], [ 78.281957063, 14.914100438, 0.0 ], [ 78.282070729, 14.914083239, 0.0 ], [ 78.281622358, 14.91345636, 0.0 ], [ 78.281380231, 14.913123584, 0.0 ], [ 78.282146708, 14.912763861, 0.0 ], [ 78.281455873, 14.912272637, 0.0 ], [ 78.281395217, 14.912212064, 0.0 ], [ 78.281847301, 14.912107309, 0.0 ], [ 78.282218414, 14.911414545, 0.0 ], [ 78.28218623, 14.911351398, 0.0 ], [ 78.282644045, 14.911008061, 0.0 ], [ 78.28289035, 14.911431167, 0.0 ], [ 78.282501895, 14.911930556, 0.0 ], [ 78.283081633, 14.911838248, 0.0 ], [ 78.283296964, 14.912149035, 0.0 ], [ 78.283269808, 14.912313618, 0.0 ], [ 78.283148715, 14.91259494, 0.0 ], [ 78.28339838, 14.913260786, 0.0 ], [ 78.28340088, 14.914067846, 0.0 ], [ 78.283399262, 14.914089095, 0.0 ], [ 78.283547873, 14.914559251, 0.0 ], [ 78.2833383, 14.915004217, 0.0 ], [ 78.283810874, 14.915427543, 0.0 ], [ 78.284281773, 14.915861488, 0.0 ], [ 78.284457178, 14.915847531, 0.0 ], [ 78.284448229, 14.915547158, 0.0 ], [ 78.284507271, 14.915535306, 0.0 ], [ 78.284972, 14.915492268, 0.0 ], [ 78.285495609, 14.915437211, 0.0 ], [ 78.285592273, 14.91544157, 0.0 ], [ 78.286266663, 14.915543524, 0.0 ], [ 78.286650027, 14.915593574, 0.0 ], [ 78.286651896, 14.915168493, 0.0 ], [ 78.286365682, 14.914745715, 0.0 ], [ 78.286411086, 14.914127072, 0.0 ], [ 78.28689791, 14.914094111, 0.0 ], [ 78.28688487, 14.914004698, 0.0 ], [ 78.286963262, 14.913973497, 0.0 ], [ 78.287579827, 14.913756853, 0.0 ], [ 78.287945139, 14.913690077, 0.0 ], [ 78.288446107, 14.913601332, 0.0 ], [ 78.288439234, 14.913492834, 0.0 ], [ 78.288414629, 14.91338041, 0.0 ], [ 78.288292589, 14.912452075, 0.0 ], [ 78.288351585, 14.912436003, 0.0 ], [ 78.289124778, 14.912054577, 0.0 ], [ 78.289084622, 14.911644393, 0.0 ], [ 78.289185569, 14.911635991, 0.0 ], [ 78.289242532, 14.911632618, 0.0 ], [ 78.289530099, 14.911626953, 0.0 ], [ 78.289738667, 14.911625095, 0.0 ], [ 78.2907004, 14.91161459, 0.0 ], [ 78.290750699, 14.911990498, 0.0 ], [ 78.290877582, 14.912920933, 0.0 ], [ 78.291210747, 14.912893223, 0.0 ], [ 78.291235311, 14.912530505, 0.0 ], [ 78.291666062, 14.912637132, 0.0 ], [ 78.292194312, 14.912769485, 0.0 ], [ 78.292530361, 14.912481626, 0.0 ], [ 78.29273053, 14.912492604, 0.0 ], [ 78.293567356, 14.912486843, 0.0 ], [ 78.294109377, 14.912742372, 0.0 ], [ 78.2942054, 14.912804488, 0.0 ], [ 78.2942164, 14.912900192, 0.0 ], [ 78.294309594, 14.913315956, 0.0 ], [ 78.294059318, 14.913418827, 0.0 ], [ 78.294168765, 14.913547658, 0.0 ], [ 78.29419561, 14.913533977, 0.0 ], [ 78.294338658, 14.913466907, 0.0 ], [ 78.29471576, 14.913271514, 0.0 ], [ 78.294903032, 14.913178383, 0.0 ], [ 78.295409717, 14.912895718, 0.0 ], [ 78.296284435, 14.913545078, 0.0 ], [ 78.296441343, 14.91376078, 0.0 ], [ 78.296936831, 14.914102969, 0.0 ], [ 78.297009061, 14.914246134, 0.0 ], [ 78.297036072, 14.914607112, 0.0 ], [ 78.297648072, 14.914832157, 0.0 ], [ 78.297650988, 14.91509327, 0.0 ], [ 78.296928336, 14.918972266, 0.0 ], [ 78.296761444, 14.920038987, 0.0 ], [ 78.296466797, 14.920580061, 0.0 ], [ 78.296366655, 14.92079188, 0.0 ], [ 78.296461049, 14.921162613, 0.0 ], [ 78.296332085, 14.921669168, 0.0 ], [ 78.295459975, 14.92216242, 0.0 ], [ 78.293568207, 14.922756169, 0.0 ], [ 78.290996265, 14.923554557, 0.0 ], [ 78.289551221, 14.923881033, 0.0 ], [ 78.287212981, 14.924638709, 0.0 ], [ 78.285468881, 14.92556318, 0.0 ], [ 78.284519846, 14.926070964, 0.0 ], [ 78.28459572, 14.926407424, 0.0 ], [ 78.283395734, 14.927585778, 0.0 ], [ 78.282700547, 14.927892858, 0.0 ], [ 78.281681162, 14.928437132, 0.0 ], [ 78.28194361, 14.928928491, 0.0 ], [ 78.28210384, 14.928973479, 0.0 ], [ 78.282765534, 14.929223287, 0.0 ], [ 78.282518269, 14.930005297, 0.0 ], [ 78.283411368, 14.932062656, 0.0 ], [ 78.283411374, 14.932062657, 0.0 ], [ 78.284482719, 14.934270591, 0.0 ], [ 78.285402051, 14.936214436, 0.0 ], [ 78.284833221, 14.936610016, 0.0 ], [ 78.283876722, 14.93667317, 0.0 ], [ 78.283735705, 14.93698455, 0.0 ], [ 78.283238024, 14.936830306, 0.0 ], [ 78.282369384, 14.936883045, 0.0 ], [ 78.279944461, 14.937150528, 0.0 ], [ 78.279680832, 14.937032773, 0.0 ], [ 78.27902101, 14.936842681, 0.0 ], [ 78.27847445, 14.936783781, 0.0 ], [ 78.277385232, 14.936954684, 0.0 ], [ 78.276666621, 14.937015863, 0.0 ], [ 78.275211725, 14.937122736, 0.0 ], [ 78.27335003, 14.937020667, 0.0 ], [ 78.272658571, 14.936954893, 0.0 ], [ 78.271698101, 14.936693478, 0.0 ], [ 78.271400569, 14.936823193, 0.0 ], [ 78.269849835, 14.936600362, 0.0 ], [ 78.269539326, 14.93652429, 0.0 ], [ 78.268600333, 14.936225029, 0.0 ], [ 78.267882978, 14.936372943, 0.0 ], [ 78.267458672, 14.936460431, 0.0 ], [ 78.26621778, 14.936943444, 0.0 ], [ 78.266126123, 14.937178818, 0.0 ], [ 78.266167185, 14.937157304, 0.0 ], [ 78.266055409, 14.937629769, 0.0 ], [ 78.267588466, 14.936779083, 0.0 ], [ 78.268204473, 14.936952946, 0.0 ], [ 78.268719259, 14.937059825, 0.0 ], [ 78.269630243, 14.937119941, 0.0 ], [ 78.270835114, 14.937079528, 0.0 ], [ 78.271657007, 14.937163405, 0.0 ], [ 78.27305807, 14.937696875, 0.0 ], [ 78.272962046, 14.938642811, 0.0 ], [ 78.27282568, 14.938631331, 0.0 ], [ 78.27274208, 14.939189036, 0.0 ], [ 78.274173483, 14.939806953, 0.0 ], [ 78.276026212, 14.939873477, 0.0 ], [ 78.276356067, 14.93971793, 0.0 ], [ 78.276795604, 14.939373106, 0.0 ], [ 78.277090892, 14.939319186, 0.0 ], [ 78.277360673, 14.939075544, 0.0 ], [ 78.2775121, 14.938360137, 0.0 ], [ 78.278431155, 14.938424727, 0.0 ], [ 78.27983198, 14.938029585, 0.0 ], [ 78.280122622, 14.937853474, 0.0 ], [ 78.280143709, 14.937788033, 0.0 ], [ 78.28046792, 14.937653105, 0.0 ], [ 78.280447825, 14.937991536, 0.0 ], [ 78.280513112, 14.938084783, 0.0 ], [ 78.281267316, 14.938084848, 0.0 ], [ 78.281321636, 14.938019928, 0.0 ], [ 78.282520066, 14.937930181, 0.0 ], [ 78.282602533, 14.937962778, 0.0 ], [ 78.282603727, 14.938103809, 0.0 ], [ 78.283063971, 14.938106102, 0.0 ], [ 78.283458904, 14.93831184, 0.0 ], [ 78.283591314, 14.938300766, 0.0 ], [ 78.284407868, 14.938414036, 0.0 ], [ 78.284418404, 14.938467956, 0.0 ], [ 78.285993154, 14.939293059, 0.0 ], [ 78.285497188, 14.941336499, 0.0 ], [ 78.285195108, 14.943198026, 0.0 ], [ 78.284873073, 14.945074183, 0.0 ], [ 78.284641562, 14.946810176, 0.0 ], [ 78.284641909, 14.947819203, 0.0 ], [ 78.284841881, 14.948553595, 0.0 ], [ 78.28383056, 14.94617036, 0.0 ], [ 78.281589933, 14.945468828, 0.0 ], [ 78.278411952, 14.942968702, 0.0 ], [ 78.277905231, 14.942633477, 0.0 ], [ 78.276827416, 14.943223044, 0.0 ], [ 78.277025975, 14.943544794, 0.0 ], [ 78.277435503, 14.944480023, 0.0 ], [ 78.278480598, 14.946069549, 0.0 ], [ 78.278634532, 14.94596835, 0.0 ], [ 78.280647507, 14.94646556, 0.0 ], [ 78.280958811, 14.948839698, 0.0 ], [ 78.282106653, 14.950017631, 0.0 ], [ 78.284619205, 14.950904151, 0.0 ], [ 78.284672014, 14.952738476, 0.0 ], [ 78.284336005, 14.954994518, 0.0 ], [ 78.273956996, 14.946707726, 0.0 ], [ 78.271922219, 14.946139314, 0.0 ], [ 78.269467883, 14.947120474, 0.0 ], [ 78.269297066, 14.947257015, 0.0 ], [ 78.268800017, 14.947596261, 0.0 ], [ 78.267729671, 14.945349787, 0.0 ], [ 78.267213817, 14.944130826, 0.0 ], [ 78.266275236, 14.945826812, 0.0 ], [ 78.265858119, 14.946579007, 0.0 ], [ 78.265745318, 14.946732348, 0.0 ], [ 78.265323261, 14.947372538, 0.0 ], [ 78.264683423, 14.948167888, 0.0 ], [ 78.263947826, 14.94908165, 0.0 ], [ 78.261814562, 14.949353526, 0.0 ], [ 78.259911853, 14.949498326, 0.0 ], [ 78.257911273, 14.950304014, 0.0 ], [ 78.257577582, 14.950429203, 0.0 ], [ 78.257795927, 14.952023046, 0.0 ] ] ] } }
]
}
