{
"type": "FeatureCollection",
"name": "Line_Features___3_",
"crs": { "type": "name", "properties": { "name": "urn:ogc:def:crs:OGC:1.3:CRS84" } },
"features": [
{ "type": "Feature", "properties": { "Name": null, "description": "PEDARAJUPALEM VB", "timestamp": null, "begin": null, "end": null, "altitudeMode": null, "tessellate": 1, "extrude": 0, "visibility": -1, "drawOrder": null, "icon": null }, "geometry": { "type": "LineString", "coordinates": [ [ 79.32160056, 15.12174096, 0.0 ], [ 79.321481927, 15.121780258, 0.0 ], [ 79.320022735, 15.122379755, 0.0 ], [ 79.318526066, 15.122887663, 0.0 ], [ 79.318091012, 15.122956357, 0.0 ], [ 79.317915555, 15.122973136, 0.0 ], [ 79.317329148, 15.123029215, 0.0 ], [ 79.317179272, 15.123174926, 0.0 ], [ 79.317191767, 15.123405988, 0.0 ], [ 79.317399924, 15.123928464, 0.0 ], [ 79.316269623, 15.124167851, 0.0 ], [ 79.31512098, 15.124140167, 0.0 ], [ 79.315026648, 15.124174701, 0.0 ], [ 79.314855053, 15.124248905, 0.0 ], [ 79.314841228, 15.124587546, 0.0 ], [ 79.314727324, 15.124616168, 0.0 ], [ 79.314614602, 15.124644501, 0.0 ], [ 79.314520597, 15.124668129, 0.0 ], [ 79.31438428, 15.124702387, 0.0 ], [ 79.31433998, 15.125212805, 0.0 ], [ 79.31414778, 15.125242977, 0.0 ], [ 79.314146675, 15.125254446, 0.0 ], [ 79.313942554, 15.125289725, 0.0 ], [ 79.313866784, 15.125302825, 0.0 ], [ 79.313575695, 15.125342479, 0.0 ], [ 79.313428791, 15.125362486, 0.0 ], [ 79.31325035, 15.125386794, 0.0 ], [ 79.313108587, 15.125406107, 0.0 ], [ 79.312907845, 15.125437623, 0.0 ], [ 79.312899486, 15.125434596, 0.0 ], [ 79.312750663, 15.125454868, 0.0 ], [ 79.312694163, 15.125437211, 0.0 ], [ 79.312594154, 15.125405953, 0.0 ], [ 79.312412421, 15.125903894, 0.0 ], [ 79.312325104, 15.125897178, 0.0 ], [ 79.311925329, 15.125866428, 0.0 ], [ 79.311149943, 15.125773899, 0.0 ], [ 79.310547312, 15.125701982, 0.0 ], [ 79.310247642, 15.126091851, 0.0 ], [ 79.309823686, 15.126643406, 0.0 ], [ 79.309434753, 15.127149401, 0.0 ], [ 79.309205048, 15.12744824, 0.0 ], [ 79.308821471, 15.127947269, 0.0 ], [ 79.308407538, 15.12848579, 0.0 ], [ 79.307856086, 15.129203213, 0.0 ], [ 79.30778087, 15.129301061, 0.0 ], [ 79.307721165, 15.129371722, 0.0 ], [ 79.307913069, 15.129990073, 0.0 ], [ 79.308350058, 15.13074877, 0.0 ], [ 79.308421337, 15.130754374, 0.0 ], [ 79.308749223, 15.131412108, 0.0 ], [ 79.308853121, 15.131672277, 0.0 ], [ 79.309132629, 15.132372242, 0.0 ], [ 79.309357577, 15.132935556, 0.0 ], [ 79.309761779, 15.133947758, 0.0 ], [ 79.309924566, 15.13435541, 0.0 ], [ 79.310394028, 15.135531032, 0.0 ], [ 79.310524829, 15.135867282, 0.0 ], [ 79.311645442, 15.138627391, 0.0 ], [ 79.311758266, 15.139038086, 0.0 ], [ 79.311844187, 15.139350818, 0.0 ], [ 79.312519905, 15.141938431, 0.0 ], [ 79.312397636, 15.142285034, 0.0 ], [ 79.312291242, 15.142586632, 0.0 ], [ 79.312038952, 15.143301806, 0.0 ], [ 79.312115833, 15.143337221, 0.0 ], [ 79.312235618, 15.143392406, 0.0 ], [ 79.312392717, 15.143464771, 0.0 ], [ 79.312567606, 15.144772497, 0.0 ], [ 79.312464652, 15.144804172, 0.0 ], [ 79.312476162, 15.144904007, 0.0 ], [ 79.312481141, 15.1449472, 0.0 ], [ 79.312383484, 15.144978644, 0.0 ], [ 79.312444386, 15.145082527, 0.0 ], [ 79.312623256, 15.145774155, 0.0 ], [ 79.313016761, 15.14661284, 0.0 ], [ 79.313070089, 15.146652327, 0.0 ], [ 79.313262004, 15.146794415, 0.0 ], [ 79.313690308, 15.147394041, 0.0 ], [ 79.313620729, 15.14741279, 0.0 ], [ 79.313683642, 15.147499064, 0.0 ], [ 79.313769539, 15.147468932, 0.0 ], [ 79.313808485, 15.147455269, 0.0 ], [ 79.313887514, 15.147427544, 0.0 ], [ 79.313963306, 15.147400961, 0.0 ], [ 79.314027107, 15.147378582, 0.0 ], [ 79.314123669, 15.147344707, 0.0 ], [ 79.314189729, 15.147321539, 0.0 ], [ 79.314343635, 15.14726755, 0.0 ], [ 79.314359108, 15.147299424, 0.0 ] ] } },
{ "type": "Feature", "properties": { "Name": null, "description": "PEDARAJUPALEM VB", "timestamp": null, "begin": null, "end": null, "altitudeMode": null, "tessellate": 1, "extrude": 0, "visibility": -1, "drawOrder": null, "icon": null }, "geometry": { "type": "LineString", "coordinates": [ [ 79.280108153, 15.12703837, 0.0 ], [ 79.277951624, 15.128749442, 0.0 ], [ 79.275216407, 15.128220711, 0.0 ], [ 79.275915817, 15.131109964, 0.0 ], [ 79.279442039, 15.130231537, 0.0 ], [ 79.279879175, 15.131551262, 0.0 ], [ 79.283263851, 15.130781078, 0.0 ], [ 79.283725967, 15.130697811, 0.0 ], [ 79.28401739, 15.131443024, 0.0 ], [ 79.283992405, 15.131930114, 0.0 ], [ 79.284321301, 15.132671165, 0.0 ], [ 79.285203898, 15.132920951, 0.0 ], [ 79.285507808, 15.133649511, 0.0 ], [ 79.286390402, 15.133547514, 0.0 ], [ 79.287589405, 15.133439272, 0.0 ], [ 79.288509466, 15.133318535, 0.0 ], [ 79.289029871, 15.133281068, 0.0 ], [ 79.289238027, 15.133913877, 0.0 ], [ 79.290228864, 15.133539188, 0.0 ], [ 79.290676114, 15.133535334, 0.0 ], [ 79.290711797, 15.133535026, 0.0 ], [ 79.291852515, 15.133260253, 0.0 ], [ 79.292272997, 15.133152008, 0.0 ], [ 79.292816151, 15.132962266, 0.0 ], [ 79.293013284, 15.132893389, 0.0 ], [ 79.293226361, 15.132818956, 0.0 ], [ 79.293242622, 15.132862297, 0.0 ], [ 79.293284442, 15.13297383, 0.0 ], [ 79.293413704, 15.133318535, 0.0 ], [ 79.293435438, 15.133302215, 0.0 ], [ 79.293630953, 15.133155393, 0.0 ], [ 79.293790647, 15.133035468, 0.0 ], [ 79.293969014, 15.132901513, 0.0 ], [ 79.294255649, 15.13268626, 0.0 ], [ 79.294406141, 15.132573242, 0.0 ], [ 79.294657674, 15.132384347, 0.0 ], [ 79.295001966, 15.132125785, 0.0 ], [ 79.295047678, 15.13216858, 0.0 ], [ 79.295457837, 15.132552513, 0.0 ], [ 79.296342241, 15.132265272, 0.0 ], [ 79.29638654, 15.132250884, 0.0 ], [ 79.296432024, 15.132236107, 0.0 ], [ 79.296450488, 15.132233173, 0.0 ], [ 79.296458499, 15.132231905, 0.0 ], [ 79.296494383, 15.132226202, 0.0 ], [ 79.296500932, 15.132225158, 0.0 ], [ 79.29651743, 15.132222535, 0.0 ], [ 79.296524315, 15.132221439, 0.0 ], [ 79.296545461, 15.132218083, 0.0 ], [ 79.29656031, 15.132215727, 0.0 ], [ 79.296596371, 15.132209998, 0.0 ], [ 79.296621272, 15.132206038, 0.0 ], [ 79.296697689, 15.132193898, 0.0 ], [ 79.302523191, 15.131126877, 0.0 ], [ 79.303624219, 15.130944037, 0.0 ], [ 79.306390712, 15.130459109, 0.0 ], [ 79.307591113, 15.128952646, 0.0 ], [ 79.307721165, 15.129371722, 0.0 ], [ 79.30778087, 15.129301061, 0.0 ], [ 79.307856086, 15.129203213, 0.0 ], [ 79.308407538, 15.12848579, 0.0 ], [ 79.308821471, 15.127947269, 0.0 ], [ 79.309205048, 15.12744824, 0.0 ], [ 79.309434753, 15.127149401, 0.0 ], [ 79.309823686, 15.126643406, 0.0 ], [ 79.310247642, 15.126091851, 0.0 ], [ 79.310547312, 15.125701982, 0.0 ], [ 79.311149943, 15.125773899, 0.0 ], [ 79.311925329, 15.125866428, 0.0 ], [ 79.312325104, 15.125897178, 0.0 ], [ 79.312412421, 15.125903894, 0.0 ], [ 79.312594154, 15.125405953, 0.0 ], [ 79.312750657, 15.125454869, 0.0 ], [ 79.312899486, 15.125434596, 0.0 ], [ 79.312907845, 15.125437623, 0.0 ], [ 79.313108587, 15.125406107, 0.0 ], [ 79.31325035, 15.125386794, 0.0 ], [ 79.313428791, 15.125362486, 0.0 ], [ 79.313575695, 15.125342479, 0.0 ], [ 79.313866784, 15.125302825, 0.0 ], [ 79.313942554, 15.125289725, 0.0 ], [ 79.314146675, 15.125254446, 0.0 ], [ 79.31414778, 15.125242977, 0.0 ], [ 79.31433998, 15.125212805, 0.0 ], [ 79.31438428, 15.124702387, 0.0 ], [ 79.314520597, 15.124668129, 0.0 ], [ 79.314614602, 15.124644501, 0.0 ], [ 79.314727324, 15.124616168, 0.0 ], [ 79.314841231, 15.124587545, 0.0 ], [ 79.314842328, 15.124560603, 0.0 ], [ 79.314855053, 15.124248905, 0.0 ], [ 79.315026648, 15.124174701, 0.0 ], [ 79.31512098, 15.124140167, 0.0 ], [ 79.316269623, 15.124167851, 0.0 ], [ 79.317399924, 15.123928464, 0.0 ], [ 79.317191767, 15.123405988, 0.0 ], [ 79.317179272, 15.123174926, 0.0 ], [ 79.317329148, 15.123029215, 0.0 ], [ 79.317915555, 15.122973136, 0.0 ], [ 79.318091012, 15.122956357, 0.0 ], [ 79.318526066, 15.122887663, 0.0 ], [ 79.320022735, 15.122379755, 0.0 ], [ 79.321481927, 15.121780258, 0.0 ], [ 79.32160056, 15.12174096, 0.0 ] ] } },
{ "type": "Feature", "properties": { "Name": null, "description": "Ankalapalli  VB", "timestamp": null, "begin": null, "end": null, "altitudeMode": null, "tessellate": 1, "extrude": 0, "visibility": -1, "drawOrder": null, "icon": null }, "geometry": { "type": "LineString", "coordinates": [ [ 79.284578324, 15.155025558, 0.0 ], [ 79.284783079, 15.155035601, 0.0 ], [ 79.285023271, 15.155002434, 0.0 ], [ 79.2850864, 15.154883943, 0.0 ], [ 79.285145734, 15.154503188, 0.0 ], [ 79.285042257, 15.154169358, 0.0 ], [ 79.284935902, 15.153809278, 0.0 ], [ 79.285018234, 15.153578289, 0.0 ], [ 79.285035938, 15.153528617, 0.0 ], [ 79.28510868, 15.153324532, 0.0 ], [ 79.285164992, 15.1530671, 0.0 ], [ 79.285521493, 15.15219376, 0.0 ], [ 79.285607809, 15.151997821, 0.0 ], [ 79.285627282, 15.151374131, 0.0 ], [ 79.285753939, 15.151245603, 0.0 ], [ 79.285518258, 15.150251448, 0.0 ], [ 79.28561301, 15.150200238, 0.0 ], [ 79.285792854, 15.15016841, 0.0 ], [ 79.286100196, 15.150089496, 0.0 ], [ 79.286406678, 15.1498355, 0.0 ], [ 79.286283268, 15.149260314, 0.0 ], [ 79.286328374, 15.148851452, 0.0 ], [ 79.286456416, 15.148581803, 0.0 ], [ 79.286649611, 15.148346439, 0.0 ], [ 79.286985067, 15.148250386, 0.0 ], [ 79.28699076, 15.148121038, 0.0 ], [ 79.286898463, 15.14774825, 0.0 ], [ 79.28684772, 15.14748638, 0.0 ], [ 79.28698781, 15.147460774, 0.0 ], [ 79.287809486, 15.147310568, 0.0 ], [ 79.288024026, 15.147248372, 0.0 ], [ 79.288353414, 15.147136084, 0.0 ], [ 79.288816911, 15.14697807, 0.0 ], [ 79.288930093, 15.146809907, 0.0 ], [ 79.288936947, 15.146733907, 0.0 ], [ 79.288896916, 15.146689094, 0.0 ], [ 79.288895183, 15.14660372, 0.0 ], [ 79.288899359, 15.146400189, 0.0 ], [ 79.288931444, 15.146260792, 0.0 ], [ 79.28907841, 15.146358889, 0.0 ], [ 79.289186817, 15.14641437, 0.0 ], [ 79.289319831, 15.146433164, 0.0 ], [ 79.2896879, 15.146425741, 0.0 ], [ 79.28997031, 15.146197287, 0.0 ], [ 79.28997745, 15.145778574, 0.0 ], [ 79.290003522, 15.14530107, 0.0 ], [ 79.289962194, 15.145048292, 0.0 ], [ 79.289901322, 15.144930441, 0.0 ], [ 79.289854725, 15.144812427, 0.0 ], [ 79.289791877, 15.14465325, 0.0 ], [ 79.289564443, 15.144077187, 0.0 ], [ 79.289416302, 15.143676159, 0.0 ], [ 79.290175917, 15.143228614, 0.0 ], [ 79.290770653, 15.14292311, 0.0 ], [ 79.290831292, 15.142858923, 0.0 ], [ 79.290930677, 15.142826869, 0.0 ], [ 79.290920876, 15.14274965, 0.0 ], [ 79.291214677, 15.142510877, 0.0 ], [ 79.292363702, 15.142208777, 0.0 ], [ 79.292616687, 15.141081439, 0.0 ], [ 79.292567236, 15.140852621, 0.0 ], [ 79.292504884, 15.140694144, 0.0 ], [ 79.292450633, 15.140568644, 0.0 ], [ 79.292458767, 15.140477869, 0.0 ], [ 79.29227719, 15.140233681, 0.0 ], [ 79.292046187, 15.14007223, 0.0 ], [ 79.291636522, 15.13978591, 0.0 ], [ 79.291418622, 15.138633518, 0.0 ], [ 79.291663968, 15.138581773, 0.0 ], [ 79.291600034, 15.13807539, 0.0 ], [ 79.291397595, 15.13798387, 0.0 ], [ 79.291301713, 15.137885674, 0.0 ], [ 79.291224479, 15.137776683, 0.0 ], [ 79.291205404, 15.137667898, 0.0 ], [ 79.291320136, 15.137522365, 0.0 ], [ 79.291273292, 15.137444468, 0.0 ], [ 79.291274004, 15.137368413, 0.0 ], [ 79.291183426, 15.136938467, 0.0 ], [ 79.291062416, 15.136766949, 0.0 ], [ 79.290993278, 15.136640432, 0.0 ], [ 79.290899522, 15.136160177, 0.0 ], [ 79.290952048, 15.135900914, 0.0 ], [ 79.290945106, 15.135760706, 0.0 ], [ 79.290999547, 15.135711556, 0.0 ], [ 79.291080101, 15.135179036, 0.0 ], [ 79.291184817, 15.134532671, 0.0 ], [ 79.291229648, 15.134243201, 0.0 ], [ 79.29119852, 15.134037423, 0.0 ], [ 79.291093261, 15.133633069, 0.0 ], [ 79.29110376, 15.133501371, 0.0 ], [ 79.291082372, 15.133445763, 0.0 ] ] } }
]
}
