{
"type": "FeatureCollection",
"name": "Line_Features",
"crs": { "type": "name", "properties": { "name": "urn:ogc:def:crs:OGC:1.3:CRS84" } },
"features": [
{ "type": "Feature", "properties": { "Name": null, "description": "0", "timestamp": null, "begin": null, "end": null, "altitudeMode": null, "tessellate": 1, "extrude": 0, "visibility": -1, "drawOrder": null, "icon": null }, "geometry": { "type": "LineString", "coordinates": [ [ 78.278138531, 14.962349379, 0.0 ], [ 78.278401144, 14.962706026, 0.0 ] ] } },
{ "type": "Feature", "properties": { "Name": null, "description": "0", "timestamp": null, "begin": null, "end": null, "altitudeMode": null, "tessellate": 1, "extrude": 0, "visibility": -1, "drawOrder": null, "icon": null }, "geometry": { "type": "LineString", "coordinates": [ [ 78.2241987, 14.976223751, 0.0 ], [ 78.223935436, 14.974545067, 0.0 ], [ 78.223584758, 14.97234717, 0.0 ], [ 78.223532955, 14.972024193, 0.0 ], [ 78.223490039, 14.971831074, 0.0 ], [ 78.223071615, 14.96891283, 0.0 ], [ 78.223178903, 14.968515863, 0.0 ], [ 78.223219313, 14.968360212, 0.0 ], [ 78.223613421, 14.966842165, 0.0 ], [ 78.223207871, 14.964694252, 0.0 ], [ 78.222125289, 14.960169458, 0.0 ], [ 78.221475303, 14.957486812, 0.0 ], [ 78.221413312, 14.95664531, 0.0 ], [ 78.221321062, 14.955723862, 0.0 ] ] } },
{ "type": "Feature", "properties": { "Name": null, "description": "0", "timestamp": null, "begin": null, "end": null, "altitudeMode": null, "tessellate": 1, "extrude": 0, "visibility": -1, "drawOrder": null, "icon": null }, "geometry": { "type": "LineString", "coordinates": [ [ 78.295567756, 14.959463946, 0.0 ], [ 78.295567756, 14.959463946, 0.0 ], [ 78.294880929, 14.959229564, 0.0 ], [ 78.294239146, 14.95907092, 0.0 ], [ 78.293528092, 14.958911463, 0.0 ], [ 78.293001534, 14.958831512, 0.0 ], [ 78.29196445, 14.958554492, 0.0 ], [ 78.290881552, 14.958265235, 0.0 ], [ 78.28970488, 14.957838355, 0.0 ], [ 78.288119217, 14.95694702, 0.0 ], [ 78.287757429, 14.956735041, 0.0 ], [ 78.28692593, 14.956270904, 0.0 ], [ 78.286043145, 14.955912617, 0.0 ], [ 78.284780574, 14.955399126, 0.0 ], [ 78.285854841, 14.95450226, 0.0 ], [ 78.286886935, 14.951511337, 0.0 ], [ 78.289082892, 14.949198671, 0.0 ], [ 78.289143652, 14.949168745, 0.0 ], [ 78.291055959, 14.948222914, 0.0 ], [ 78.293393409, 14.948305246, 0.0 ], [ 78.293991961, 14.94843442, 0.0 ], [ 78.297121286, 14.949109733, 0.0 ], [ 78.296796261, 14.947858981, 0.0 ] ] } },
{ "type": "Feature", "properties": { "Name": null, "description": "0", "timestamp": null, "begin": null, "end": null, "altitudeMode": null, "tessellate": 1, "extrude": 0, "visibility": -1, "drawOrder": null, "icon": null }, "geometry": { "type": "LineString", "coordinates": [ [ 78.281293033, 14.967401701, 0.0 ], [ 78.280632911, 14.965674002, 0.0 ], [ 78.278401109, 14.962705978, 0.0 ] ] } },
{ "type": "Feature", "properties": { "Name": null, "description": "0", "timestamp": null, "begin": null, "end": null, "altitudeMode": null, "tessellate": 1, "extrude": 0, "visibility": -1, "drawOrder": null, "icon": null }, "geometry": { "type": "LineString", "coordinates": [ [ 78.206139386, 14.946905102, 0.0 ], [ 78.206138583, 14.946916242, 0.0 ], [ 78.206994422, 14.94769282, 0.0 ], [ 78.208218563, 14.947536812, 0.0 ], [ 78.209533157, 14.947370186, 0.0 ], [ 78.209571736, 14.947845031, 0.0 ], [ 78.209582104, 14.947976811, 0.0 ], [ 78.20963664, 14.948670012, 0.0 ], [ 78.209680692, 14.949229962, 0.0 ], [ 78.20973719, 14.949974402, 0.0 ], [ 78.209734983, 14.950147538, 0.0 ], [ 78.209752062, 14.950218782, 0.0 ], [ 78.209775665, 14.950317237, 0.0 ] ] } },
{ "type": "Feature", "properties": { "Name": null, "description": "0", "timestamp": null, "begin": null, "end": null, "altitudeMode": null, "tessellate": 1, "extrude": 0, "visibility": -1, "drawOrder": null, "icon": null }, "geometry": { "type": "LineString", "coordinates": [ [ 78.202275306, 14.955372432, 0.0 ], [ 78.208883615, 14.953451283, 0.0 ], [ 78.210374721, 14.952959628, 0.0 ], [ 78.210865478, 14.952797814, 0.0 ], [ 78.210925478, 14.952775103, 0.0 ], [ 78.210965677, 14.952756492, 0.0 ] ] } },
{ "type": "Feature", "properties": { "Name": null, "description": "0", "timestamp": null, "begin": null, "end": null, "altitudeMode": null, "tessellate": 1, "extrude": 0, "visibility": -1, "drawOrder": null, "icon": null }, "geometry": { "type": "LineString", "coordinates": [ [ 78.238491928, 14.961394009, 0.0 ], [ 78.238491931, 14.961394017, 0.0 ], [ 78.238569106, 14.961715004, 0.0 ], [ 78.238950968, 14.963202964, 0.0 ], [ 78.239281881, 14.96448524, 0.0 ] ] } },
{ "type": "Feature", "properties": { "Name": null, "description": "0", "timestamp": null, "begin": null, "end": null, "altitudeMode": null, "tessellate": 1, "extrude": 0, "visibility": -1, "drawOrder": null, "icon": null }, "geometry": { "type": "LineString", "coordinates": [ [ 78.276631313, 14.960352303, 0.0 ], [ 78.276461419, 14.960126355, 0.0 ], [ 78.274459199, 14.958136074, 0.0 ], [ 78.273426505, 14.957265107, 0.0 ], [ 78.272628691, 14.95661692, 0.0 ], [ 78.272092223, 14.956193102, 0.0 ], [ 78.271785884, 14.955451842, 0.0 ], [ 78.271773003, 14.955412748, 0.0 ], [ 78.27175287, 14.955367746, 0.0 ], [ 78.271744724, 14.955343081, 0.0 ], [ 78.271619667, 14.955028442, 0.0 ], [ 78.271162855, 14.953924524, 0.0 ], [ 78.270162641, 14.951473079, 0.0 ], [ 78.269966712, 14.951060555, 0.0 ], [ 78.269544377, 14.949755072, 0.0 ], [ 78.268845582, 14.947553457, 0.0 ] ] } },
{ "type": "Feature", "properties": { "Name": null, "description": "0", "timestamp": null, "begin": null, "end": null, "altitudeMode": null, "tessellate": 1, "extrude": 0, "visibility": -1, "drawOrder": null, "icon": null }, "geometry": { "type": "LineString", "coordinates": [ [ 78.260154055, 14.957072983, 0.0 ], [ 78.262129011, 14.961083573, 0.0 ], [ 78.262452965, 14.962985126, 0.0 ] ] } }
]
}
