{
"type": "FeatureCollection",
"name": "Line_Features___4_",
"crs": { "type": "name", "properties": { "name": "urn:ogc:def:crs:OGC:1.3:CRS84" } },
"features": [
{ "type": "Feature", "properties": { "Name": null, "description": "Paper_Mill_Double_Road", "timestamp": null, "begin": null, "end": null, "altitudeMode": null, "tessellate": 1, "extrude": 0, "visibility": -1, "drawOrder": null, "icon": null }, "geometry": { "type": "LineString", "coordinates": [ [ 79.950415693, 15.994211002, 0.0 ], [ 79.950414887, 15.994193589, 0.0 ], [ 79.95040644, 15.994184472, 0.0 ], [ 79.950387646, 15.994173877, 0.0 ], [ 79.950363313, 15.994173704, 0.0 ], [ 79.950270972, 15.994192253, 0.0 ], [ 79.950121707, 15.994240345, 0.0 ], [ 79.94960329, 15.994401103, 0.0 ], [ 79.949364275, 15.994483222, 0.0 ], [ 79.94925624, 15.994533005, 0.0 ], [ 79.94913595, 15.994604848, 0.0 ], [ 79.948993884, 15.994666632, 0.0 ], [ 79.94880021, 15.994730929, 0.0 ], [ 79.94863612, 15.994786765, 0.0 ], [ 79.948517235, 15.994831144, 0.0 ], [ 79.94830492, 15.99491125, 0.0 ], [ 79.948165383, 15.994957191, 0.0 ], [ 79.948000806, 15.995018701, 0.0 ], [ 79.94790216, 15.995052748, 0.0 ], [ 79.947668699, 15.995121622, 0.0 ], [ 79.947532063, 15.995165136, 0.0 ], [ 79.947211282, 15.995253712, 0.0 ], [ 79.947089733, 15.995281978, 0.0 ], [ 79.946673213, 15.995356165, 0.0 ], [ 79.946214504, 15.995435169, 0.0 ], [ 79.945895143, 15.995493315, 0.0 ], [ 79.94557947, 15.995564513, 0.0 ], [ 79.94532552, 15.995644782, 0.0 ], [ 79.94512041, 15.995708477, 0.0 ], [ 79.944613058, 15.995808852, 0.0 ], [ 79.944260266, 15.995885515, 0.0 ], [ 79.943818015, 15.996006301, 0.0 ], [ 79.943504255, 15.996069027, 0.0 ], [ 79.943237314, 15.996097607, 0.0 ], [ 79.943124474, 15.996072692, 0.0 ], [ 79.942803614, 15.995964182, 0.0 ], [ 79.942601913, 15.995901832, 0.0 ], [ 79.942478629, 15.995886718, 0.0 ], [ 79.94239723, 15.995901828, 0.0 ], [ 79.942164706, 15.995971361, 0.0 ], [ 79.941855921, 15.99607953, 0.0 ], [ 79.941693753, 15.996124759, 0.0 ], [ 79.941538761, 15.996177308, 0.0 ], [ 79.941369453, 15.996215396, 0.0 ], [ 79.941160465, 15.996267978, 0.0 ], [ 79.940764467, 15.996378826, 0.0 ], [ 79.940713142, 15.996386172, 0.0 ], [ 79.940675414, 15.99637293, 0.0 ], [ 79.940637048, 15.996350323, 0.0 ], [ 79.940605358, 15.996295286, 0.0 ], [ 79.940561045, 15.995927231, 0.0 ], [ 79.94053, 15.995777946, 0.0 ], [ 79.940497936, 15.995673612, 0.0 ], [ 79.940442114, 15.995545678, 0.0 ], [ 79.940303567, 15.995321382, 0.0 ], [ 79.940155613, 15.995133985, 0.0 ], [ 79.940079003, 15.995057923, 0.0 ], [ 79.939971787, 15.994965843, 0.0 ], [ 79.939711609, 15.994806855, 0.0 ], [ 79.939361875, 15.994680949, 0.0 ], [ 79.939170028, 15.994618865, 0.0 ], [ 79.939034184, 15.994517789, 0.0 ], [ 79.938978004, 15.994402313, 0.0 ], [ 79.938953612, 15.994200535, 0.0 ], [ 79.938897969, 15.993984717, 0.0 ], [ 79.938859783, 15.993809366, 0.0 ], [ 79.938829433, 15.99356906, 0.0 ], [ 79.938783662, 15.993097511, 0.0 ], [ 79.938845572, 15.992867654, 0.0 ], [ 79.938926547, 15.992624361, 0.0 ], [ 79.938955229, 15.992481279, 0.0 ], [ 79.938959637, 15.992385599, 0.0 ], [ 79.938948392, 15.992356599, 0.0 ], [ 79.938780121, 15.992144643, 0.0 ] ] } },
{ "type": "Feature", "properties": { "Name": null, "description": "Paper_Mill_Double_Road", "timestamp": null, "begin": null, "end": null, "altitudeMode": null, "tessellate": 1, "extrude": 0, "visibility": -1, "drawOrder": null, "icon": null }, "geometry": { "type": "LineString", "coordinates": [ [ 79.938846825, 15.992095096, 0.0 ], [ 79.939022734, 15.992316673, 0.0 ], [ 79.939044421, 15.992372604, 0.0 ], [ 79.939038972, 15.992490884, 0.0 ], [ 79.939008151, 15.992644642, 0.0 ], [ 79.938926357, 15.992890392, 0.0 ], [ 79.93886878, 15.993104163, 0.0 ], [ 79.938913057, 15.993560324, 0.0 ], [ 79.938942826, 15.993796025, 0.0 ], [ 79.938979947, 15.993966484, 0.0 ], [ 79.93903652, 15.994185909, 0.0 ], [ 79.939059944, 15.994379683, 0.0 ], [ 79.939101609, 15.994465322, 0.0 ], [ 79.939210109, 15.994546053, 0.0 ], [ 79.939389893, 15.994604233, 0.0 ], [ 79.939749138, 15.994733563, 0.0 ], [ 79.940022501, 15.994900608, 0.0 ], [ 79.940137119, 15.994999045, 0.0 ], [ 79.940219383, 15.995080721, 0.0 ], [ 79.940373312, 15.995275684, 0.0 ], [ 79.940517319, 15.995508821, 0.0 ], [ 79.940577229, 15.995646122, 0.0 ], [ 79.940611701, 15.995758295, 0.0 ], [ 79.940644182, 15.995914483, 0.0 ], [ 79.940686965, 15.996269823, 0.0 ], [ 79.940701204, 15.996294552, 0.0 ], [ 79.940720506, 15.996302369, 0.0 ], [ 79.940720506, 15.996302369, 0.0 ], [ 79.940720672, 15.996302436, 0.0 ], [ 79.940720839, 15.996302503, 0.0 ], [ 79.940721005, 15.996302568, 0.0 ], [ 79.940721172, 15.996302634, 0.0 ], [ 79.94072134, 15.996302698, 0.0 ], [ 79.940721507, 15.996302762, 0.0 ], [ 79.940721675, 15.996302825, 0.0 ], [ 79.940721843, 15.996302888, 0.0 ], [ 79.940722011, 15.99630295, 0.0 ], [ 79.94072218, 15.996303011, 0.0 ], [ 79.940722349, 15.996303072, 0.0 ], [ 79.940722518, 15.996303132, 0.0 ], [ 79.940722687, 15.996303191, 0.0 ], [ 79.940722856, 15.99630325, 0.0 ], [ 79.940723026, 15.996303308, 0.0 ], [ 79.940723196, 15.996303366, 0.0 ], [ 79.940723366, 15.996303423, 0.0 ], [ 79.940723537, 15.996303479, 0.0 ], [ 79.940723707, 15.996303535, 0.0 ], [ 79.940723878, 15.99630359, 0.0 ], [ 79.940724049, 15.996303644, 0.0 ], [ 79.940724221, 15.996303698, 0.0 ], [ 79.940724392, 15.996303751, 0.0 ], [ 79.940724564, 15.996303804, 0.0 ], [ 79.940724736, 15.996303855, 0.0 ], [ 79.940724908, 15.996303907, 0.0 ], [ 79.94072508, 15.996303957, 0.0 ], [ 79.940725253, 15.996304007, 0.0 ], [ 79.940725426, 15.996304056, 0.0 ], [ 79.940725599, 15.996304105, 0.0 ], [ 79.940725772, 15.996304153, 0.0 ], [ 79.940725945, 15.9963042, 0.0 ], [ 79.940726118, 15.996304247, 0.0 ], [ 79.940726292, 15.996304293, 0.0 ], [ 79.940726466, 15.996304338, 0.0 ], [ 79.94072664, 15.996304383, 0.0 ], [ 79.940726814, 15.996304427, 0.0 ], [ 79.940726989, 15.996304471, 0.0 ], [ 79.940727163, 15.996304513, 0.0 ], [ 79.940727338, 15.996304555, 0.0 ], [ 79.940727513, 15.996304597, 0.0 ], [ 79.940727688, 15.996304638, 0.0 ], [ 79.940727863, 15.996304678, 0.0 ], [ 79.940728039, 15.996304717, 0.0 ], [ 79.940728214, 15.996304756, 0.0 ], [ 79.94072839, 15.996304794, 0.0 ], [ 79.940728566, 15.996304832, 0.0 ], [ 79.940728742, 15.996304869, 0.0 ], [ 79.940728918, 15.996304905, 0.0 ], [ 79.940729094, 15.996304941, 0.0 ], [ 79.940729271, 15.996304976, 0.0 ], [ 79.940729447, 15.99630501, 0.0 ], [ 79.940729624, 15.996305044, 0.0 ], [ 79.940729801, 15.996305077, 0.0 ], [ 79.940729978, 15.996305109, 0.0 ], [ 79.940730155, 15.99630514, 0.0 ], [ 79.940730332, 15.996305171, 0.0 ], [ 79.940730509, 15.996305202, 0.0 ], [ 79.940730687, 15.996305231, 0.0 ], [ 79.940730864, 15.99630526, 0.0 ], [ 79.940731042, 15.996305289, 0.0 ], [ 79.94073122, 15.996305316, 0.0 ], [ 79.940731398, 15.996305343, 0.0 ], [ 79.940731576, 15.99630537, 0.0 ], [ 79.940731754, 15.996305395, 0.0 ], [ 79.940731932, 15.99630542, 0.0 ], [ 79.94073211, 15.996305445, 0.0 ], [ 79.940732289, 15.996305468, 0.0 ], [ 79.940732467, 15.996305491, 0.0 ], [ 79.940732646, 15.996305514, 0.0 ], [ 79.940732825, 15.996305536, 0.0 ], [ 79.940733003, 15.996305557, 0.0 ], [ 79.940733182, 15.996305577, 0.0 ], [ 79.940733361, 15.996305597, 0.0 ], [ 79.94073354, 15.996305616, 0.0 ], [ 79.940733719, 15.996305634, 0.0 ], [ 79.940733898, 15.996305652, 0.0 ], [ 79.940734078, 15.996305669, 0.0 ], [ 79.940734257, 15.996305685, 0.0 ], [ 79.940734436, 15.996305701, 0.0 ], [ 79.940734616, 15.996305716, 0.0 ], [ 79.940734795, 15.99630573, 0.0 ], [ 79.940734975, 15.996305744, 0.0 ], [ 79.940735154, 15.996305757, 0.0 ], [ 79.940735334, 15.996305769, 0.0 ], [ 79.940735514, 15.996305781, 0.0 ], [ 79.940735693, 15.996305792, 0.0 ], [ 79.940735873, 15.996305802, 0.0 ], [ 79.940736053, 15.996305812, 0.0 ], [ 79.940736233, 15.996305821, 0.0 ], [ 79.940736413, 15.996305829, 0.0 ], [ 79.940736592, 15.996305837, 0.0 ], [ 79.940736772, 15.996305844, 0.0 ], [ 79.940736952, 15.99630585, 0.0 ], [ 79.940737132, 15.996305855, 0.0 ], [ 79.940737312, 15.99630586, 0.0 ], [ 79.940737492, 15.996305865, 0.0 ], [ 79.940737672, 15.996305868, 0.0 ], [ 79.940737852, 15.996305871, 0.0 ], [ 79.940738033, 15.996305874, 0.0 ], [ 79.940738213, 15.996305875, 0.0 ], [ 79.940738393, 15.996305876, 0.0 ], [ 79.940738573, 15.996305876, 0.0 ], [ 79.940738753, 15.996305876, 0.0 ], [ 79.940738933, 15.996305875, 0.0 ], [ 79.940739113, 15.996305873, 0.0 ], [ 79.940739293, 15.996305871, 0.0 ], [ 79.940739473, 15.996305868, 0.0 ], [ 79.940739653, 15.996305864, 0.0 ], [ 79.940739833, 15.996305859, 0.0 ], [ 79.940740013, 15.996305854, 0.0 ], [ 79.940740193, 15.996305848, 0.0 ], [ 79.940740373, 15.996305842, 0.0 ], [ 79.940740553, 15.996305835, 0.0 ], [ 79.940740733, 15.996305827, 0.0 ], [ 79.940740913, 15.996305819, 0.0 ], [ 79.940741093, 15.996305809, 0.0 ], [ 79.940741273, 15.9963058, 0.0 ], [ 79.940741452, 15.996305789, 0.0 ], [ 79.940741632, 15.996305778, 0.0 ], [ 79.940741812, 15.996305766, 0.0 ], [ 79.940741991, 15.996305754, 0.0 ], [ 79.940742171, 15.996305741, 0.0 ], [ 79.94074235, 15.996305727, 0.0 ], [ 79.94074253, 15.996305712, 0.0 ], [ 79.940742709, 15.996305697, 0.0 ], [ 79.940742889, 15.996305681, 0.0 ], [ 79.940743068, 15.996305665, 0.0 ], [ 79.940743247, 15.996305648, 0.0 ], [ 79.940743426, 15.99630563, 0.0 ], [ 79.940743605, 15.996305611, 0.0 ], [ 79.940743784, 15.996305592, 0.0 ], [ 79.940743963, 15.996305572, 0.0 ], [ 79.940744142, 15.996305552, 0.0 ], [ 79.940744321, 15.99630553, 0.0 ], [ 79.940744499, 15.996305509, 0.0 ], [ 79.940744678, 15.996305486, 0.0 ], [ 79.940744856, 15.996305463, 0.0 ], [ 79.940745035, 15.996305439, 0.0 ], [ 79.940745213, 15.996305415, 0.0 ], [ 79.940745391, 15.996305389, 0.0 ], [ 79.940745569, 15.996305364, 0.0 ], [ 79.940745747, 15.996305337, 0.0 ], [ 79.940745925, 15.99630531, 0.0 ], [ 79.940746103, 15.996305282, 0.0 ], [ 79.940746281, 15.996305254, 0.0 ], [ 79.940746458, 15.996305225, 0.0 ], [ 79.940746636, 15.996305195, 0.0 ], [ 79.940746813, 15.996305164, 0.0 ], [ 79.94074699, 15.996305133, 0.0 ], [ 79.940747167, 15.996305101, 0.0 ], [ 79.940747344, 15.996305069, 0.0 ], [ 79.940747521, 15.996305036, 0.0 ], [ 79.940747698, 15.996305002, 0.0 ], [ 79.940747874, 15.996304968, 0.0 ], [ 79.940748051, 15.996304933, 0.0 ], [ 79.940748227, 15.996304897, 0.0 ], [ 79.940748403, 15.99630486, 0.0 ], [ 79.940748579, 15.996304823, 0.0 ], [ 79.940748755, 15.996304786, 0.0 ], [ 79.94074893, 15.996304747, 0.0 ], [ 79.940749106, 15.996304708, 0.0 ], [ 79.940749281, 15.996304669, 0.0 ], [ 79.940749456, 15.996304628, 0.0 ], [ 79.940749632, 15.996304587, 0.0 ], [ 79.940749806, 15.996304546, 0.0 ], [ 79.940749981, 15.996304503, 0.0 ], [ 79.940750156, 15.99630446, 0.0 ], [ 79.94075033, 15.996304417, 0.0 ], [ 79.940750504, 15.996304373, 0.0 ], [ 79.940750678, 15.996304328, 0.0 ], [ 79.940750852, 15.996304282, 0.0 ], [ 79.940751026, 15.996304236, 0.0 ], [ 79.940751199, 15.996304189, 0.0 ], [ 79.940751372, 15.996304142, 0.0 ], [ 79.940751545, 15.996304094, 0.0 ], [ 79.940751718, 15.996304045, 0.0 ], [ 79.940751891, 15.996303995, 0.0 ], [ 79.940752063, 15.996303945, 0.0 ], [ 79.940752236, 15.996303895, 0.0 ], [ 79.940752236, 15.996303895, 0.0 ], [ 79.940757759, 15.996302258, 0.0 ], [ 79.941040355, 15.996211091, 0.0 ], [ 79.941332629, 15.996136476, 0.0 ], [ 79.941548066, 15.996090804, 0.0 ], [ 79.941910961, 15.9959769, 0.0 ], [ 79.942141791, 15.995900689, 0.0 ], [ 79.942451792, 15.995818783, 0.0 ], [ 79.94251503, 15.995818832, 0.0 ], [ 79.9426347, 15.995836821, 0.0 ], [ 79.942759534, 15.99586815, 0.0 ], [ 79.942984432, 15.995944227, 0.0 ], [ 79.943216497, 15.996002847, 0.0 ], [ 79.943337078, 15.996009307, 0.0 ], [ 79.943677681, 15.995951214, 0.0 ], [ 79.944027015, 15.995860597, 0.0 ], [ 79.945024085, 15.995631154, 0.0 ], [ 79.945494881, 15.995512539, 0.0 ], [ 79.945851753, 15.99542944, 0.0 ], [ 79.946478622, 15.995313685, 0.0 ], [ 79.946751172, 15.995255706, 0.0 ], [ 79.947086564, 15.995201913, 0.0 ], [ 79.947659654, 15.995055266, 0.0 ], [ 79.947969361, 15.994950636, 0.0 ], [ 79.94815226, 15.994889957, 0.0 ], [ 79.948366843, 15.994803228, 0.0 ], [ 79.948953664, 15.994596653, 0.0 ], [ 79.9491351, 15.994527993, 0.0 ], [ 79.949283278, 15.994434042, 0.0 ], [ 79.949596161, 15.994329316, 0.0 ], [ 79.950353304, 15.994095096, 0.0 ], [ 79.950410877, 15.994071948, 0.0 ], [ 79.950438975, 15.994050771, 0.0 ], [ 79.950454093, 15.994022661, 0.0 ] ] } },
{ "type": "Feature", "properties": { "Name": null, "description": "Kunduru East VB", "timestamp": null, "begin": null, "end": null, "altitudeMode": null, "tessellate": 1, "extrude": 0, "visibility": -1, "drawOrder": null, "icon": null }, "geometry": { "type": "LineString", "coordinates": [ [ 79.937626033, 16.018864709, 0.0 ], [ 79.937686261, 16.018441883, 0.0 ], [ 79.937839047, 16.017657867, 0.0 ], [ 79.937902081, 16.01701043, 0.0 ], [ 79.938084058, 16.016056306, 0.0 ], [ 79.938180239, 16.015609195, 0.0 ], [ 79.938319265, 16.014828933, 0.0 ], [ 79.938464528, 16.014384965, 0.0 ], [ 79.939518304, 16.012568472, 0.0 ], [ 79.939846934, 16.011190649, 0.0 ], [ 79.939954332, 16.010667167, 0.0 ], [ 79.93992204, 16.009183432, 0.0 ], [ 79.939902955, 16.008443226, 0.0 ], [ 79.94009534, 16.007628832, 0.0 ], [ 79.939793858, 16.007291452, 0.0 ], [ 79.939631314, 16.006595203, 0.0 ], [ 79.93955383, 16.006242727, 0.0 ], [ 79.939465689, 16.005884073, 0.0 ], [ 79.939230941, 16.005215753, 0.0 ], [ 79.939018429, 16.004610734, 0.0 ], [ 79.939282495, 16.003460965, 0.0 ], [ 79.939346168, 16.003405382, 0.0 ], [ 79.939386345, 16.00336795, 0.0 ], [ 79.939455483, 16.003307121, 0.0 ], [ 79.939484925, 16.003281216, 0.0 ], [ 79.939529272, 16.003242198, 0.0 ], [ 79.939725425, 16.003069617, 0.0 ], [ 79.93903173, 16.002353053, 0.0 ], [ 79.938637927, 16.002345802, 0.0 ], [ 79.93860709, 16.002345234, 0.0 ], [ 79.938548525, 16.002344156, 0.0 ], [ 79.938516015, 16.002343557, 0.0 ], [ 79.938478139, 16.00234286, 0.0 ], [ 79.938458808, 16.002342504, 0.0 ], [ 79.938372989, 16.001430458, 0.0 ], [ 79.938369393, 16.001392244, 0.0 ], [ 79.937477714, 16.000767222, 0.0 ], [ 79.937485257, 16.000716534, 0.0 ], [ 79.937522257, 16.00046793, 0.0 ], [ 79.93754863, 16.000290717, 0.0 ], [ 79.93759311, 15.999974697, 0.0 ], [ 79.937668362, 15.999486209, 0.0 ], [ 79.937691332, 15.999331868, 0.0 ], [ 79.937654488, 15.999271052, 0.0 ], [ 79.93761259, 15.999200921, 0.0 ], [ 79.937418033, 15.998842352, 0.0 ], [ 79.937343531, 15.998705044, 0.0 ], [ 79.937233407, 15.998502083, 0.0 ], [ 79.937154546, 15.998356107, 0.0 ], [ 79.937035301, 15.998136971, 0.0 ], [ 79.936861183, 15.997816066, 0.0 ], [ 79.936740239, 15.997874375, 0.0 ], [ 79.936470511, 15.997911145, 0.0 ], [ 79.935629648, 15.99802727, 0.0 ], [ 79.934975066, 15.996736104, 0.0 ], [ 79.934607417, 15.995998118, 0.0 ], [ 79.934042393, 15.994876515, 0.0 ], [ 79.934126657, 15.994810613, 0.0 ], [ 79.934608892, 15.994433462, 0.0 ], [ 79.934309622, 15.994064415, 0.0 ], [ 79.934088706, 15.993788773, 0.0 ], [ 79.933580677, 15.993587083, 0.0 ], [ 79.933341388, 15.993491945, 0.0 ], [ 79.932966985, 15.993342853, 0.0 ], [ 79.931951734, 15.992938562, 0.0 ], [ 79.931946119, 15.992944844, 0.0 ], [ 79.931089047, 15.993527819, 0.0 ], [ 79.930285469, 15.99406065, 0.0 ], [ 79.929816672, 15.994381116, 0.0 ], [ 79.929685606, 15.994484362, 0.0 ], [ 79.929168295, 15.99489191, 0.0 ], [ 79.92871023, 15.994931027, 0.0 ], [ 79.92849007, 15.994960413, 0.0 ], [ 79.927777142, 15.995025931, 0.0 ], [ 79.92582174, 15.995205624, 0.0 ], [ 79.925804185, 15.995207232, 0.0 ], [ 79.92397589, 15.995268165, 0.0 ], [ 79.923757444, 15.995275437, 0.0 ], [ 79.922990743, 15.99528981, 0.0 ], [ 79.92119264, 15.99524067, 0.0 ], [ 79.920980311, 15.99521857, 0.0 ], [ 79.920438092, 15.995162876, 0.0 ], [ 79.919794217, 15.994929234, 0.0 ], [ 79.919797259, 15.994939913, 0.0 ], [ 79.918625366, 15.994901941, 0.0 ], [ 79.91768293, 15.994613695, 0.0 ], [ 79.917349976, 15.994511868, 0.0 ], [ 79.917086104, 15.994274155, 0.0 ], [ 79.916483064, 15.993748363, 0.0 ], [ 79.916325799, 15.993771771, 0.0 ], [ 79.91669816, 15.994728266, 0.0 ], [ 79.91651312, 15.996038963, 0.0 ], [ 79.916509633, 15.996148477, 0.0 ], [ 79.916359313, 15.997431766, 0.0 ], [ 79.916242765, 15.998285655, 0.0 ], [ 79.916203417, 15.99864436, 0.0 ], [ 79.916108624, 15.999619972, 0.0 ] ] } },
{ "type": "Feature", "properties": { "Name": null, "description": "Paper_Mill_Double_Road", "timestamp": null, "begin": null, "end": null, "altitudeMode": null, "tessellate": 1, "extrude": 0, "visibility": -1, "drawOrder": null, "icon": null }, "geometry": { "type": "LineString", "coordinates": [ [ 79.950443491, 15.994120195, 0.0 ], [ 79.950237755, 15.994159234, 0.0 ], [ 79.9499448, 15.994256076, 0.0 ], [ 79.949596768, 15.994354339, 0.0 ], [ 79.949451916, 15.994401964, 0.0 ], [ 79.949311902, 15.994448174, 0.0 ], [ 79.94914598, 15.994554341, 0.0 ], [ 79.948992502, 15.994623364, 0.0 ], [ 79.948798421, 15.994694158, 0.0 ], [ 79.948479879, 15.994808707, 0.0 ], [ 79.948093728, 15.994944294, 0.0 ], [ 79.947649145, 15.995095629, 0.0 ], [ 79.947400933, 15.99516538, 0.0 ], [ 79.946842361, 15.995284156, 0.0 ], [ 79.946417708, 15.995369556, 0.0 ], [ 79.945846721, 15.995472929, 0.0 ], [ 79.945154156, 15.995658223, 0.0 ], [ 79.944475356, 15.995798838, 0.0 ], [ 79.944119156, 15.995883891, 0.0 ], [ 79.943751219, 15.995979308, 0.0 ], [ 79.943416183, 15.996044984, 0.0 ], [ 79.943205403, 15.99604224, 0.0 ], [ 79.942970886, 15.995986056, 0.0 ], [ 79.942713885, 15.995898116, 0.0 ], [ 79.942565789, 15.995858456, 0.0 ], [ 79.942390523, 15.995865684, 0.0 ], [ 79.942238912, 15.99591515, 0.0 ], [ 79.941982549, 15.995993604, 0.0 ], [ 79.941592436, 15.996120988, 0.0 ], [ 79.940921442, 15.996301095, 0.0 ], [ 79.94073598, 15.996352734, 0.0 ], [ 79.940700986, 15.996348343, 0.0 ], [ 79.940671544, 15.996326637, 0.0 ], [ 79.940646162, 15.996282555, 0.0 ], [ 79.940602613, 15.995920857, 0.0 ], [ 79.940570851, 15.995768121, 0.0 ], [ 79.940537583, 15.995659867, 0.0 ], [ 79.940479717, 15.99552725, 0.0 ], [ 79.940338439, 15.995298533, 0.0 ], [ 79.940187498, 15.995107353, 0.0 ], [ 79.940108061, 15.995028484, 0.0 ], [ 79.939997144, 15.994933225, 0.0 ], [ 79.939730374, 15.994770209, 0.0 ], [ 79.939375884, 15.994642591, 0.0 ], [ 79.939190069, 15.994582459, 0.0 ], [ 79.939067896, 15.994491555, 0.0 ], [ 79.939018974, 15.994390998, 0.0 ], [ 79.938995066, 15.994193222, 0.0 ], [ 79.938938958, 15.9939756, 0.0 ], [ 79.938901304, 15.993802695, 0.0 ], [ 79.938871245, 15.993564692, 0.0 ], [ 79.938826221, 15.993100837, 0.0 ], [ 79.938885964, 15.992879023, 0.0 ], [ 79.938967349, 15.992634502, 0.0 ], [ 79.938997101, 15.992486082, 0.0 ], [ 79.939002029, 15.992379101, 0.0 ], [ 79.938985563, 15.992336636, 0.0 ], [ 79.938813473, 15.992119869, 0.0 ] ] } },
{ "type": "Feature", "properties": { "Name": null, "description": "HT Lines", "timestamp": null, "begin": null, "end": null, "altitudeMode": null, "tessellate": 1, "extrude": 0, "visibility": -1, "drawOrder": null, "icon": null }, "geometry": { "type": "LineString", "coordinates": [ [ 79.928524289, 16.021051907, 0.0 ], [ 79.928439541, 16.020778674, 0.0 ] ] } },
{ "type": "Feature", "properties": { "Name": null, "description": "HT Lines", "timestamp": null, "begin": null, "end": null, "altitudeMode": null, "tessellate": 1, "extrude": 0, "visibility": -1, "drawOrder": null, "icon": null }, "geometry": { "type": "LineString", "coordinates": [ [ 79.928157026, 16.020860638, 0.0 ], [ 79.927916885, 16.021079217, 0.0 ] ] } },
{ "type": "Feature", "properties": { "Name": null, "description": "HT Lines", "timestamp": null, "begin": null, "end": null, "altitudeMode": null, "tessellate": 1, "extrude": 0, "visibility": -1, "drawOrder": null, "icon": null }, "geometry": { "type": "LineString", "coordinates": [ [ 79.927916885, 16.021079217, 0.0 ], [ 79.928241774, 16.021133871, 0.0 ] ] } },
{ "type": "Feature", "properties": { "Name": null, "description": "HT Lines", "timestamp": null, "begin": null, "end": null, "altitudeMode": null, "tessellate": 1, "extrude": 0, "visibility": -1, "drawOrder": null, "icon": null }, "geometry": { "type": "LineString", "coordinates": [ [ 79.928241774, 16.021133871, 0.0 ], [ 79.928439541, 16.020778674, 0.0 ] ] } },
{ "type": "Feature", "properties": { "Name": null, "description": "HT Lines", "timestamp": null, "begin": null, "end": null, "altitudeMode": null, "tessellate": 1, "extrude": 0, "visibility": -1, "drawOrder": null, "icon": null }, "geometry": { "type": "LineString", "coordinates": [ [ 79.928439541, 16.020778674, 0.0 ], [ 79.928764429, 16.020833327, 0.0 ] ] } },
{ "type": "Feature", "properties": { "Name": null, "description": "HT Lines", "timestamp": null, "begin": null, "end": null, "altitudeMode": null, "tessellate": 1, "extrude": 0, "visibility": -1, "drawOrder": null, "icon": null }, "geometry": { "type": "LineString", "coordinates": [ [ 79.928764429, 16.020833327, 0.0 ], [ 79.928524289, 16.021051907, 0.0 ] ] } },
{ "type": "Feature", "properties": { "Name": null, "description": "HT Lines", "timestamp": null, "begin": null, "end": null, "altitudeMode": null, "tessellate": 1, "extrude": 0, "visibility": -1, "drawOrder": null, "icon": null }, "geometry": { "type": "LineString", "coordinates": [ [ 79.928524289, 16.021051907, 0.0 ], [ 79.928241774, 16.021133871, 0.0 ] ] } },
{ "type": "Feature", "properties": { "Name": null, "description": "HT Lines", "timestamp": null, "begin": null, "end": null, "altitudeMode": null, "tessellate": 1, "extrude": 0, "visibility": -1, "drawOrder": null, "icon": null }, "geometry": { "type": "LineString", "coordinates": [ [ 79.928241774, 16.021133871, 0.0 ], [ 79.928157026, 16.020860638, 0.0 ] ] } },
{ "type": "Feature", "properties": { "Name": null, "description": "HT Lines", "timestamp": null, "begin": null, "end": null, "altitudeMode": null, "tessellate": 1, "extrude": 0, "visibility": -1, "drawOrder": null, "icon": null }, "geometry": { "type": "LineString", "coordinates": [ [ 79.928157026, 16.020860638, 0.0 ], [ 79.928439541, 16.020778674, 0.0 ] ] } },
{ "type": "Feature", "properties": { "Name": null, "description": "HT Lines", "timestamp": null, "begin": null, "end": null, "altitudeMode": null, "tessellate": 1, "extrude": 0, "visibility": -1, "drawOrder": null, "icon": null }, "geometry": { "type": "LineString", "coordinates": [ [ 79.928524289, 16.021051907, 0.0 ], [ 79.928157026, 16.020860638, 0.0 ] ] } },
{ "type": "Feature", "properties": { "Name": null, "description": "HT Lines", "timestamp": null, "begin": null, "end": null, "altitudeMode": null, "tessellate": 1, "extrude": 0, "visibility": -1, "drawOrder": null, "icon": null }, "geometry": { "type": "LineString", "coordinates": [ [ 79.928051092, 16.020519097, 0.0 ], [ 79.928333606, 16.020437134, 0.0 ] ] } },
{ "type": "Feature", "properties": { "Name": null, "description": "HT Lines", "timestamp": null, "begin": null, "end": null, "altitudeMode": null, "tessellate": 1, "extrude": 0, "visibility": -1, "drawOrder": null, "icon": null }, "geometry": { "type": "LineString", "coordinates": [ [ 79.928347709, 16.021475411, 0.0 ], [ 79.928630224, 16.021393448, 0.0 ] ] } },
{ "type": "Feature", "properties": { "Name": null, "description": "HT Lines", "timestamp": null, "begin": null, "end": null, "altitudeMode": null, "tessellate": 1, "extrude": 0, "visibility": -1, "drawOrder": null, "icon": null }, "geometry": { "type": "LineString", "coordinates": [ [ 79.923105149, 15.989549648, 0.0 ], [ 79.923020418, 15.989276413, 0.0 ] ] } },
{ "type": "Feature", "properties": { "Name": null, "description": "HT Lines", "timestamp": null, "begin": null, "end": null, "altitudeMode": null, "tessellate": 1, "extrude": 0, "visibility": -1, "drawOrder": null, "icon": null }, "geometry": { "type": "LineString", "coordinates": [ [ 79.922737947, 15.989358373, 0.0 ], [ 79.922497841, 15.989576949, 0.0 ] ] } },
{ "type": "Feature", "properties": { "Name": null, "description": "HT Lines", "timestamp": null, "begin": null, "end": null, "altitudeMode": null, "tessellate": 1, "extrude": 0, "visibility": -1, "drawOrder": null, "icon": null }, "geometry": { "type": "LineString", "coordinates": [ [ 79.922497841, 15.989576949, 0.0 ], [ 79.922822677, 15.989631607, 0.0 ] ] } },
{ "type": "Feature", "properties": { "Name": null, "description": "HT Lines", "timestamp": null, "begin": null, "end": null, "altitudeMode": null, "tessellate": 1, "extrude": 0, "visibility": -1, "drawOrder": null, "icon": null }, "geometry": { "type": "LineString", "coordinates": [ [ 79.922822677, 15.989631607, 0.0 ], [ 79.923020418, 15.989276413, 0.0 ] ] } },
{ "type": "Feature", "properties": { "Name": null, "description": "HT Lines", "timestamp": null, "begin": null, "end": null, "altitudeMode": null, "tessellate": 1, "extrude": 0, "visibility": -1, "drawOrder": null, "icon": null }, "geometry": { "type": "LineString", "coordinates": [ [ 79.923020418, 15.989276413, 0.0 ], [ 79.923345254, 15.989331071, 0.0 ] ] } },
{ "type": "Feature", "properties": { "Name": null, "description": "HT Lines", "timestamp": null, "begin": null, "end": null, "altitudeMode": null, "tessellate": 1, "extrude": 0, "visibility": -1, "drawOrder": null, "icon": null }, "geometry": { "type": "LineString", "coordinates": [ [ 79.923345254, 15.989331071, 0.0 ], [ 79.923105149, 15.989549648, 0.0 ] ] } },
{ "type": "Feature", "properties": { "Name": null, "description": "HT Lines", "timestamp": null, "begin": null, "end": null, "altitudeMode": null, "tessellate": 1, "extrude": 0, "visibility": -1, "drawOrder": null, "icon": null }, "geometry": { "type": "LineString", "coordinates": [ [ 79.923105149, 15.989549648, 0.0 ], [ 79.922822677, 15.989631607, 0.0 ] ] } },
{ "type": "Feature", "properties": { "Name": null, "description": "HT Lines", "timestamp": null, "begin": null, "end": null, "altitudeMode": null, "tessellate": 1, "extrude": 0, "visibility": -1, "drawOrder": null, "icon": null }, "geometry": { "type": "LineString", "coordinates": [ [ 79.922737947, 15.989358373, 0.0 ], [ 79.923020418, 15.989276413, 0.0 ] ] } },
{ "type": "Feature", "properties": { "Name": null, "description": "HT Lines", "timestamp": null, "begin": null, "end": null, "altitudeMode": null, "tessellate": 1, "extrude": 0, "visibility": -1, "drawOrder": null, "icon": null }, "geometry": { "type": "LineString", "coordinates": [ [ 79.923105149, 15.989549648, 0.0 ], [ 79.922737947, 15.989358373, 0.0 ] ] } },
{ "type": "Feature", "properties": { "Name": null, "description": "HT Lines", "timestamp": null, "begin": null, "end": null, "altitudeMode": null, "tessellate": 1, "extrude": 0, "visibility": -1, "drawOrder": null, "icon": null }, "geometry": { "type": "LineString", "coordinates": [ [ 79.922632036, 15.98901683, 0.0 ], [ 79.922914506, 15.988934871, 0.0 ] ] } },
{ "type": "Feature", "properties": { "Name": null, "description": "HT Lines", "timestamp": null, "begin": null, "end": null, "altitudeMode": null, "tessellate": 1, "extrude": 0, "visibility": -1, "drawOrder": null, "icon": null }, "geometry": { "type": "LineString", "coordinates": [ [ 79.92292859, 15.98997315, 0.0 ], [ 79.923211062, 15.98989119, 0.0 ] ] } },
{ "type": "Feature", "properties": { "Name": null, "description": "HT Lines", "timestamp": null, "begin": null, "end": null, "altitudeMode": null, "tessellate": 1, "extrude": 0, "visibility": -1, "drawOrder": null, "icon": null }, "geometry": { "type": "LineString", "coordinates": [ [ 79.923706084, 15.993014489, 0.0 ], [ 79.923621352, 15.992741255, 0.0 ] ] } },
{ "type": "Feature", "properties": { "Name": null, "description": "HT Lines", "timestamp": null, "begin": null, "end": null, "altitudeMode": null, "tessellate": 1, "extrude": 0, "visibility": -1, "drawOrder": null, "icon": null }, "geometry": { "type": "LineString", "coordinates": [ [ 79.923338876, 15.992823215, 0.0 ], [ 79.923098766, 15.993041791, 0.0 ] ] } },
{ "type": "Feature", "properties": { "Name": null, "description": "HT Lines", "timestamp": null, "begin": null, "end": null, "altitudeMode": null, "tessellate": 1, "extrude": 0, "visibility": -1, "drawOrder": null, "icon": null }, "geometry": { "type": "LineString", "coordinates": [ [ 79.923098766, 15.993041791, 0.0 ], [ 79.923423608, 15.993096449, 0.0 ] ] } },
{ "type": "Feature", "properties": { "Name": null, "description": "HT Lines", "timestamp": null, "begin": null, "end": null, "altitudeMode": null, "tessellate": 1, "extrude": 0, "visibility": -1, "drawOrder": null, "icon": null }, "geometry": { "type": "LineString", "coordinates": [ [ 79.923423608, 15.993096449, 0.0 ], [ 79.923621352, 15.992741255, 0.0 ] ] } },
{ "type": "Feature", "properties": { "Name": null, "description": "HT Lines", "timestamp": null, "begin": null, "end": null, "altitudeMode": null, "tessellate": 1, "extrude": 0, "visibility": -1, "drawOrder": null, "icon": null }, "geometry": { "type": "LineString", "coordinates": [ [ 79.923621352, 15.992741255, 0.0 ], [ 79.923946194, 15.992795912, 0.0 ] ] } },
{ "type": "Feature", "properties": { "Name": null, "description": "HT Lines", "timestamp": null, "begin": null, "end": null, "altitudeMode": null, "tessellate": 1, "extrude": 0, "visibility": -1, "drawOrder": null, "icon": null }, "geometry": { "type": "LineString", "coordinates": [ [ 79.923946194, 15.992795912, 0.0 ], [ 79.923706084, 15.993014489, 0.0 ] ] } },
{ "type": "Feature", "properties": { "Name": null, "description": "HT Lines", "timestamp": null, "begin": null, "end": null, "altitudeMode": null, "tessellate": 1, "extrude": 0, "visibility": -1, "drawOrder": null, "icon": null }, "geometry": { "type": "LineString", "coordinates": [ [ 79.923706084, 15.993014489, 0.0 ], [ 79.923423608, 15.993096449, 0.0 ] ] } },
{ "type": "Feature", "properties": { "Name": null, "description": "HT Lines", "timestamp": null, "begin": null, "end": null, "altitudeMode": null, "tessellate": 1, "extrude": 0, "visibility": -1, "drawOrder": null, "icon": null }, "geometry": { "type": "LineString", "coordinates": [ [ 79.923423608, 15.993096449, 0.0 ], [ 79.923338876, 15.992823215, 0.0 ] ] } },
{ "type": "Feature", "properties": { "Name": null, "description": "HT Lines", "timestamp": null, "begin": null, "end": null, "altitudeMode": null, "tessellate": 1, "extrude": 0, "visibility": -1, "drawOrder": null, "icon": null }, "geometry": { "type": "LineString", "coordinates": [ [ 79.923338876, 15.992823215, 0.0 ], [ 79.923621352, 15.992741255, 0.0 ] ] } },
{ "type": "Feature", "properties": { "Name": null, "description": "HT Lines", "timestamp": null, "begin": null, "end": null, "altitudeMode": null, "tessellate": 1, "extrude": 0, "visibility": -1, "drawOrder": null, "icon": null }, "geometry": { "type": "LineString", "coordinates": [ [ 79.923706084, 15.993014489, 0.0 ], [ 79.923338876, 15.992823215, 0.0 ] ] } },
{ "type": "Feature", "properties": { "Name": null, "description": "HT Lines", "timestamp": null, "begin": null, "end": null, "altitudeMode": null, "tessellate": 1, "extrude": 0, "visibility": -1, "drawOrder": null, "icon": null }, "geometry": { "type": "LineString", "coordinates": [ [ 79.923232962, 15.992481672, 0.0 ], [ 79.923515437, 15.992399712, 0.0 ] ] } },
{ "type": "Feature", "properties": { "Name": null, "description": "HT Lines", "timestamp": null, "begin": null, "end": null, "altitudeMode": null, "tessellate": 1, "extrude": 0, "visibility": -1, "drawOrder": null, "icon": null }, "geometry": { "type": "LineString", "coordinates": [ [ 79.923529523, 15.993437991, 0.0 ], [ 79.923811999, 15.993356032, 0.0 ] ] } },
{ "type": "Feature", "properties": { "Name": null, "description": "HT Lines", "timestamp": null, "begin": null, "end": null, "altitudeMode": null, "tessellate": 1, "extrude": 0, "visibility": -1, "drawOrder": null, "icon": null }, "geometry": { "type": "LineString", "coordinates": [ [ 79.924287398, 15.996539593, 0.0 ], [ 79.924202663, 15.99626636, 0.0 ] ] } },
{ "type": "Feature", "properties": { "Name": null, "description": "HT Lines", "timestamp": null, "begin": null, "end": null, "altitudeMode": null, "tessellate": 1, "extrude": 0, "visibility": -1, "drawOrder": null, "icon": null }, "geometry": { "type": "LineString", "coordinates": [ [ 79.923920183, 15.99634832, 0.0 ], [ 79.923680069, 15.996566897, 0.0 ] ] } },
{ "type": "Feature", "properties": { "Name": null, "description": "HT Lines", "timestamp": null, "begin": null, "end": null, "altitudeMode": null, "tessellate": 1, "extrude": 0, "visibility": -1, "drawOrder": null, "icon": null }, "geometry": { "type": "LineString", "coordinates": [ [ 79.923680069, 15.996566897, 0.0 ], [ 79.924004917, 15.996621554, 0.0 ] ] } },
{ "type": "Feature", "properties": { "Name": null, "description": "HT Lines", "timestamp": null, "begin": null, "end": null, "altitudeMode": null, "tessellate": 1, "extrude": 0, "visibility": -1, "drawOrder": null, "icon": null }, "geometry": { "type": "LineString", "coordinates": [ [ 79.924004917, 15.996621554, 0.0 ], [ 79.924202663, 15.99626636, 0.0 ] ] } },
{ "type": "Feature", "properties": { "Name": null, "description": "HT Lines", "timestamp": null, "begin": null, "end": null, "altitudeMode": null, "tessellate": 1, "extrude": 0, "visibility": -1, "drawOrder": null, "icon": null }, "geometry": { "type": "LineString", "coordinates": [ [ 79.924202663, 15.99626636, 0.0 ], [ 79.924527511, 15.996321016, 0.0 ] ] } },
{ "type": "Feature", "properties": { "Name": null, "description": "HT Lines", "timestamp": null, "begin": null, "end": null, "altitudeMode": null, "tessellate": 1, "extrude": 0, "visibility": -1, "drawOrder": null, "icon": null }, "geometry": { "type": "LineString", "coordinates": [ [ 79.924527511, 15.996321016, 0.0 ], [ 79.924287398, 15.996539593, 0.0 ] ] } },
{ "type": "Feature", "properties": { "Name": null, "description": "HT Lines", "timestamp": null, "begin": null, "end": null, "altitudeMode": null, "tessellate": 1, "extrude": 0, "visibility": -1, "drawOrder": null, "icon": null }, "geometry": { "type": "LineString", "coordinates": [ [ 79.924287398, 15.996539593, 0.0 ], [ 79.924004917, 15.996621554, 0.0 ] ] } },
{ "type": "Feature", "properties": { "Name": null, "description": "HT Lines", "timestamp": null, "begin": null, "end": null, "altitudeMode": null, "tessellate": 1, "extrude": 0, "visibility": -1, "drawOrder": null, "icon": null }, "geometry": { "type": "LineString", "coordinates": [ [ 79.924004917, 15.996621554, 0.0 ], [ 79.923920183, 15.99634832, 0.0 ] ] } },
{ "type": "Feature", "properties": { "Name": null, "description": "HT Lines", "timestamp": null, "begin": null, "end": null, "altitudeMode": null, "tessellate": 1, "extrude": 0, "visibility": -1, "drawOrder": null, "icon": null }, "geometry": { "type": "LineString", "coordinates": [ [ 79.923920183, 15.99634832, 0.0 ], [ 79.924202663, 15.99626636, 0.0 ] ] } },
{ "type": "Feature", "properties": { "Name": null, "description": "HT Lines", "timestamp": null, "begin": null, "end": null, "altitudeMode": null, "tessellate": 1, "extrude": 0, "visibility": -1, "drawOrder": null, "icon": null }, "geometry": { "type": "LineString", "coordinates": [ [ 79.924287398, 15.996539593, 0.0 ], [ 79.923920183, 15.99634832, 0.0 ] ] } },
{ "type": "Feature", "properties": { "Name": null, "description": "HT Lines", "timestamp": null, "begin": null, "end": null, "altitudeMode": null, "tessellate": 1, "extrude": 0, "visibility": -1, "drawOrder": null, "icon": null }, "geometry": { "type": "LineString", "coordinates": [ [ 79.923814266, 15.996006777, 0.0 ], [ 79.924096746, 15.995924817, 0.0 ] ] } },
{ "type": "Feature", "properties": { "Name": null, "description": "HT Lines", "timestamp": null, "begin": null, "end": null, "altitudeMode": null, "tessellate": 1, "extrude": 0, "visibility": -1, "drawOrder": null, "icon": null }, "geometry": { "type": "LineString", "coordinates": [ [ 79.924110834, 15.996963096, 0.0 ], [ 79.924393315, 15.996881136, 0.0 ] ] } },
{ "type": "Feature", "properties": { "Name": null, "description": "HT Lines", "timestamp": null, "begin": null, "end": null, "altitudeMode": null, "tessellate": 1, "extrude": 0, "visibility": -1, "drawOrder": null, "icon": null }, "geometry": { "type": "LineString", "coordinates": [ [ 79.924896171, 16.000056672, 0.0 ], [ 79.924811435, 15.999783438, 0.0 ] ] } },
{ "type": "Feature", "properties": { "Name": null, "description": "HT Lines", "timestamp": null, "begin": null, "end": null, "altitudeMode": null, "tessellate": 1, "extrude": 0, "visibility": -1, "drawOrder": null, "icon": null }, "geometry": { "type": "LineString", "coordinates": [ [ 79.924528949, 15.999865399, 0.0 ], [ 79.924288831, 16.000083976, 0.0 ] ] } },
{ "type": "Feature", "properties": { "Name": null, "description": "HT Lines", "timestamp": null, "begin": null, "end": null, "altitudeMode": null, "tessellate": 1, "extrude": 0, "visibility": -1, "drawOrder": null, "icon": null }, "geometry": { "type": "LineString", "coordinates": [ [ 79.924288831, 16.000083976, 0.0 ], [ 79.924613685, 16.000138632, 0.0 ] ] } },
{ "type": "Feature", "properties": { "Name": null, "description": "HT Lines", "timestamp": null, "begin": null, "end": null, "altitudeMode": null, "tessellate": 1, "extrude": 0, "visibility": -1, "drawOrder": null, "icon": null }, "geometry": { "type": "LineString", "coordinates": [ [ 79.924613685, 16.000138632, 0.0 ], [ 79.924811435, 15.999783438, 0.0 ] ] } },
{ "type": "Feature", "properties": { "Name": null, "description": "HT Lines", "timestamp": null, "begin": null, "end": null, "altitudeMode": null, "tessellate": 1, "extrude": 0, "visibility": -1, "drawOrder": null, "icon": null }, "geometry": { "type": "LineString", "coordinates": [ [ 79.924811435, 15.999783438, 0.0 ], [ 79.925136288, 15.999838094, 0.0 ] ] } },
{ "type": "Feature", "properties": { "Name": null, "description": "HT Lines", "timestamp": null, "begin": null, "end": null, "altitudeMode": null, "tessellate": 1, "extrude": 0, "visibility": -1, "drawOrder": null, "icon": null }, "geometry": { "type": "LineString", "coordinates": [ [ 79.925136288, 15.999838094, 0.0 ], [ 79.924896171, 16.000056672, 0.0 ] ] } },
{ "type": "Feature", "properties": { "Name": null, "description": "HT Lines", "timestamp": null, "begin": null, "end": null, "altitudeMode": null, "tessellate": 1, "extrude": 0, "visibility": -1, "drawOrder": null, "icon": null }, "geometry": { "type": "LineString", "coordinates": [ [ 79.924896171, 16.000056672, 0.0 ], [ 79.924613685, 16.000138632, 0.0 ] ] } },
{ "type": "Feature", "properties": { "Name": null, "description": "HT Lines", "timestamp": null, "begin": null, "end": null, "altitudeMode": null, "tessellate": 1, "extrude": 0, "visibility": -1, "drawOrder": null, "icon": null }, "geometry": { "type": "LineString", "coordinates": [ [ 79.924613685, 16.000138632, 0.0 ], [ 79.924528949, 15.999865399, 0.0 ] ] } },
{ "type": "Feature", "properties": { "Name": null, "description": "HT Lines", "timestamp": null, "begin": null, "end": null, "altitudeMode": null, "tessellate": 1, "extrude": 0, "visibility": -1, "drawOrder": null, "icon": null }, "geometry": { "type": "LineString", "coordinates": [ [ 79.924528949, 15.999865399, 0.0 ], [ 79.924811435, 15.999783438, 0.0 ] ] } },
{ "type": "Feature", "properties": { "Name": null, "description": "HT Lines", "timestamp": null, "begin": null, "end": null, "altitudeMode": null, "tessellate": 1, "extrude": 0, "visibility": -1, "drawOrder": null, "icon": null }, "geometry": { "type": "LineString", "coordinates": [ [ 79.924896171, 16.000056672, 0.0 ], [ 79.924528949, 15.999865399, 0.0 ] ] } },
{ "type": "Feature", "properties": { "Name": null, "description": "HT Lines", "timestamp": null, "begin": null, "end": null, "altitudeMode": null, "tessellate": 1, "extrude": 0, "visibility": -1, "drawOrder": null, "icon": null }, "geometry": { "type": "LineString", "coordinates": [ [ 79.92442303, 15.999523856, 0.0 ], [ 79.924705515, 15.999441896, 0.0 ] ] } },
{ "type": "Feature", "properties": { "Name": null, "description": "HT Lines", "timestamp": null, "begin": null, "end": null, "altitudeMode": null, "tessellate": 1, "extrude": 0, "visibility": -1, "drawOrder": null, "icon": null }, "geometry": { "type": "LineString", "coordinates": [ [ 79.924719605, 16.000480174, 0.0 ], [ 79.925002091, 16.000398214, 0.0 ] ] } },
{ "type": "Feature", "properties": { "Name": null, "description": "HT Lines", "timestamp": null, "begin": null, "end": null, "altitudeMode": null, "tessellate": 1, "extrude": 0, "visibility": -1, "drawOrder": null, "icon": null }, "geometry": { "type": "LineString", "coordinates": [ [ 79.926123469, 16.007084038, 0.0 ], [ 79.926038729, 16.006810805, 0.0 ] ] } },
{ "type": "Feature", "properties": { "Name": null, "description": "HT Lines", "timestamp": null, "begin": null, "end": null, "altitudeMode": null, "tessellate": 1, "extrude": 0, "visibility": -1, "drawOrder": null, "icon": null }, "geometry": { "type": "LineString", "coordinates": [ [ 79.925756233, 16.006892766, 0.0 ], [ 79.925516108, 16.007111344, 0.0 ] ] } },
{ "type": "Feature", "properties": { "Name": null, "description": "HT Lines", "timestamp": null, "begin": null, "end": null, "altitudeMode": null, "tessellate": 1, "extrude": 0, "visibility": -1, "drawOrder": null, "icon": null }, "geometry": { "type": "LineString", "coordinates": [ [ 79.925516108, 16.007111344, 0.0 ], [ 79.925840973, 16.007166, 0.0 ] ] } },
{ "type": "Feature", "properties": { "Name": null, "description": "HT Lines", "timestamp": null, "begin": null, "end": null, "altitudeMode": null, "tessellate": 1, "extrude": 0, "visibility": -1, "drawOrder": null, "icon": null }, "geometry": { "type": "LineString", "coordinates": [ [ 79.925840973, 16.007166, 0.0 ], [ 79.926038729, 16.006810805, 0.0 ] ] } },
{ "type": "Feature", "properties": { "Name": null, "description": "HT Lines", "timestamp": null, "begin": null, "end": null, "altitudeMode": null, "tessellate": 1, "extrude": 0, "visibility": -1, "drawOrder": null, "icon": null }, "geometry": { "type": "LineString", "coordinates": [ [ 79.926038729, 16.006810805, 0.0 ], [ 79.926363594, 16.006865459, 0.0 ] ] } },
{ "type": "Feature", "properties": { "Name": null, "description": "HT Lines", "timestamp": null, "begin": null, "end": null, "altitudeMode": null, "tessellate": 1, "extrude": 0, "visibility": -1, "drawOrder": null, "icon": null }, "geometry": { "type": "LineString", "coordinates": [ [ 79.926363594, 16.006865459, 0.0 ], [ 79.926123469, 16.007084038, 0.0 ] ] } },
{ "type": "Feature", "properties": { "Name": null, "description": "HT Lines", "timestamp": null, "begin": null, "end": null, "altitudeMode": null, "tessellate": 1, "extrude": 0, "visibility": -1, "drawOrder": null, "icon": null }, "geometry": { "type": "LineString", "coordinates": [ [ 79.926123469, 16.007084038, 0.0 ], [ 79.925840973, 16.007166, 0.0 ] ] } },
{ "type": "Feature", "properties": { "Name": null, "description": "HT Lines", "timestamp": null, "begin": null, "end": null, "altitudeMode": null, "tessellate": 1, "extrude": 0, "visibility": -1, "drawOrder": null, "icon": null }, "geometry": { "type": "LineString", "coordinates": [ [ 79.925840973, 16.007166, 0.0 ], [ 79.925756233, 16.006892766, 0.0 ] ] } },
{ "type": "Feature", "properties": { "Name": null, "description": "HT Lines", "timestamp": null, "begin": null, "end": null, "altitudeMode": null, "tessellate": 1, "extrude": 0, "visibility": -1, "drawOrder": null, "icon": null }, "geometry": { "type": "LineString", "coordinates": [ [ 79.925756233, 16.006892766, 0.0 ], [ 79.926038729, 16.006810805, 0.0 ] ] } },
{ "type": "Feature", "properties": { "Name": null, "description": "HT Lines", "timestamp": null, "begin": null, "end": null, "altitudeMode": null, "tessellate": 1, "extrude": 0, "visibility": -1, "drawOrder": null, "icon": null }, "geometry": { "type": "LineString", "coordinates": [ [ 79.926123469, 16.007084038, 0.0 ], [ 79.925756233, 16.006892766, 0.0 ] ] } },
{ "type": "Feature", "properties": { "Name": null, "description": "HT Lines", "timestamp": null, "begin": null, "end": null, "altitudeMode": null, "tessellate": 1, "extrude": 0, "visibility": -1, "drawOrder": null, "icon": null }, "geometry": { "type": "LineString", "coordinates": [ [ 79.925650309, 16.006551225, 0.0 ], [ 79.925932804, 16.006469263, 0.0 ] ] } },
{ "type": "Feature", "properties": { "Name": null, "description": "HT Lines", "timestamp": null, "begin": null, "end": null, "altitudeMode": null, "tessellate": 1, "extrude": 0, "visibility": -1, "drawOrder": null, "icon": null }, "geometry": { "type": "LineString", "coordinates": [ [ 79.925946898, 16.007507542, 0.0 ], [ 79.926229394, 16.00742558, 0.0 ] ] } },
{ "type": "Feature", "properties": { "Name": null, "description": "HT Lines", "timestamp": null, "begin": null, "end": null, "altitudeMode": null, "tessellate": 1, "extrude": 0, "visibility": -1, "drawOrder": null, "icon": null }, "geometry": { "type": "LineString", "coordinates": [ [ 79.925565777, 16.003583046, 0.0 ], [ 79.925481039, 16.003309813, 0.0 ] ] } },
{ "type": "Feature", "properties": { "Name": null, "description": "HT Lines", "timestamp": null, "begin": null, "end": null, "altitudeMode": null, "tessellate": 1, "extrude": 0, "visibility": -1, "drawOrder": null, "icon": null }, "geometry": { "type": "LineString", "coordinates": [ [ 79.925198549, 16.003391774, 0.0 ], [ 79.924958427, 16.003610352, 0.0 ] ] } },
{ "type": "Feature", "properties": { "Name": null, "description": "HT Lines", "timestamp": null, "begin": null, "end": null, "altitudeMode": null, "tessellate": 1, "extrude": 0, "visibility": -1, "drawOrder": null, "icon": null }, "geometry": { "type": "LineString", "coordinates": [ [ 79.924958427, 16.003610352, 0.0 ], [ 79.925283287, 16.003665007, 0.0 ] ] } },
{ "type": "Feature", "properties": { "Name": null, "description": "HT Lines", "timestamp": null, "begin": null, "end": null, "altitudeMode": null, "tessellate": 1, "extrude": 0, "visibility": -1, "drawOrder": null, "icon": null }, "geometry": { "type": "LineString", "coordinates": [ [ 79.925283287, 16.003665007, 0.0 ], [ 79.925481039, 16.003309813, 0.0 ] ] } },
{ "type": "Feature", "properties": { "Name": null, "description": "HT Lines", "timestamp": null, "begin": null, "end": null, "altitudeMode": null, "tessellate": 1, "extrude": 0, "visibility": -1, "drawOrder": null, "icon": null }, "geometry": { "type": "LineString", "coordinates": [ [ 79.925481039, 16.003309813, 0.0 ], [ 79.925805899, 16.003364468, 0.0 ] ] } },
{ "type": "Feature", "properties": { "Name": null, "description": "HT Lines", "timestamp": null, "begin": null, "end": null, "altitudeMode": null, "tessellate": 1, "extrude": 0, "visibility": -1, "drawOrder": null, "icon": null }, "geometry": { "type": "LineString", "coordinates": [ [ 79.925805899, 16.003364468, 0.0 ], [ 79.925565777, 16.003583046, 0.0 ] ] } },
{ "type": "Feature", "properties": { "Name": null, "description": "HT Lines", "timestamp": null, "begin": null, "end": null, "altitudeMode": null, "tessellate": 1, "extrude": 0, "visibility": -1, "drawOrder": null, "icon": null }, "geometry": { "type": "LineString", "coordinates": [ [ 79.925565777, 16.003583046, 0.0 ], [ 79.925283287, 16.003665007, 0.0 ] ] } },
{ "type": "Feature", "properties": { "Name": null, "description": "HT Lines", "timestamp": null, "begin": null, "end": null, "altitudeMode": null, "tessellate": 1, "extrude": 0, "visibility": -1, "drawOrder": null, "icon": null }, "geometry": { "type": "LineString", "coordinates": [ [ 79.925283287, 16.003665007, 0.0 ], [ 79.925198549, 16.003391774, 0.0 ] ] } },
{ "type": "Feature", "properties": { "Name": null, "description": "HT Lines", "timestamp": null, "begin": null, "end": null, "altitudeMode": null, "tessellate": 1, "extrude": 0, "visibility": -1, "drawOrder": null, "icon": null }, "geometry": { "type": "LineString", "coordinates": [ [ 79.925198549, 16.003391774, 0.0 ], [ 79.925481039, 16.003309813, 0.0 ] ] } },
{ "type": "Feature", "properties": { "Name": null, "description": "HT Lines", "timestamp": null, "begin": null, "end": null, "altitudeMode": null, "tessellate": 1, "extrude": 0, "visibility": -1, "drawOrder": null, "icon": null }, "geometry": { "type": "LineString", "coordinates": [ [ 79.925565777, 16.003583046, 0.0 ], [ 79.925198549, 16.003391774, 0.0 ] ] } },
{ "type": "Feature", "properties": { "Name": null, "description": "HT Lines", "timestamp": null, "begin": null, "end": null, "altitudeMode": null, "tessellate": 1, "extrude": 0, "visibility": -1, "drawOrder": null, "icon": null }, "geometry": { "type": "LineString", "coordinates": [ [ 79.925092627, 16.003050232, 0.0 ], [ 79.925375117, 16.002968271, 0.0 ] ] } },
{ "type": "Feature", "properties": { "Name": null, "description": "HT Lines", "timestamp": null, "begin": null, "end": null, "altitudeMode": null, "tessellate": 1, "extrude": 0, "visibility": -1, "drawOrder": null, "icon": null }, "geometry": { "type": "LineString", "coordinates": [ [ 79.925389209, 16.004006549, 0.0 ], [ 79.925671701, 16.003924588, 0.0 ] ] } },
{ "type": "Feature", "properties": { "Name": null, "description": "HT Lines", "timestamp": null, "begin": null, "end": null, "altitudeMode": null, "tessellate": 1, "extrude": 0, "visibility": -1, "drawOrder": null, "icon": null }, "geometry": { "type": "LineString", "coordinates": [ [ 79.926718434, 16.010624038, 0.0 ], [ 79.926633692, 16.010350805, 0.0 ] ] } },
{ "type": "Feature", "properties": { "Name": null, "description": "HT Lines", "timestamp": null, "begin": null, "end": null, "altitudeMode": null, "tessellate": 1, "extrude": 0, "visibility": -1, "drawOrder": null, "icon": null }, "geometry": { "type": "LineString", "coordinates": [ [ 79.926351192, 16.010432767, 0.0 ], [ 79.926111062, 16.010651345, 0.0 ] ] } },
{ "type": "Feature", "properties": { "Name": null, "description": "HT Lines", "timestamp": null, "begin": null, "end": null, "altitudeMode": null, "tessellate": 1, "extrude": 0, "visibility": -1, "drawOrder": null, "icon": null }, "geometry": { "type": "LineString", "coordinates": [ [ 79.926111062, 16.010651345, 0.0 ], [ 79.926435933, 16.010706, 0.0 ] ] } },
{ "type": "Feature", "properties": { "Name": null, "description": "HT Lines", "timestamp": null, "begin": null, "end": null, "altitudeMode": null, "tessellate": 1, "extrude": 0, "visibility": -1, "drawOrder": null, "icon": null }, "geometry": { "type": "LineString", "coordinates": [ [ 79.926435933, 16.010706, 0.0 ], [ 79.926633692, 16.010350805, 0.0 ] ] } },
{ "type": "Feature", "properties": { "Name": null, "description": "HT Lines", "timestamp": null, "begin": null, "end": null, "altitudeMode": null, "tessellate": 1, "extrude": 0, "visibility": -1, "drawOrder": null, "icon": null }, "geometry": { "type": "LineString", "coordinates": [ [ 79.926633692, 16.010350805, 0.0 ], [ 79.926958563, 16.010405459, 0.0 ] ] } },
{ "type": "Feature", "properties": { "Name": null, "description": "HT Lines", "timestamp": null, "begin": null, "end": null, "altitudeMode": null, "tessellate": 1, "extrude": 0, "visibility": -1, "drawOrder": null, "icon": null }, "geometry": { "type": "LineString", "coordinates": [ [ 79.926958563, 16.010405459, 0.0 ], [ 79.926718434, 16.010624038, 0.0 ] ] } },
{ "type": "Feature", "properties": { "Name": null, "description": "HT Lines", "timestamp": null, "begin": null, "end": null, "altitudeMode": null, "tessellate": 1, "extrude": 0, "visibility": -1, "drawOrder": null, "icon": null }, "geometry": { "type": "LineString", "coordinates": [ [ 79.926718434, 16.010624038, 0.0 ], [ 79.926435933, 16.010706, 0.0 ] ] } },
{ "type": "Feature", "properties": { "Name": null, "description": "HT Lines", "timestamp": null, "begin": null, "end": null, "altitudeMode": null, "tessellate": 1, "extrude": 0, "visibility": -1, "drawOrder": null, "icon": null }, "geometry": { "type": "LineString", "coordinates": [ [ 79.926435933, 16.010706, 0.0 ], [ 79.926351192, 16.010432767, 0.0 ] ] } },
{ "type": "Feature", "properties": { "Name": null, "description": "HT Lines", "timestamp": null, "begin": null, "end": null, "altitudeMode": null, "tessellate": 1, "extrude": 0, "visibility": -1, "drawOrder": null, "icon": null }, "geometry": { "type": "LineString", "coordinates": [ [ 79.926351192, 16.010432767, 0.0 ], [ 79.926633692, 16.010350805, 0.0 ] ] } },
{ "type": "Feature", "properties": { "Name": null, "description": "HT Lines", "timestamp": null, "begin": null, "end": null, "altitudeMode": null, "tessellate": 1, "extrude": 0, "visibility": -1, "drawOrder": null, "icon": null }, "geometry": { "type": "LineString", "coordinates": [ [ 79.926718434, 16.010624038, 0.0 ], [ 79.926351192, 16.010432767, 0.0 ] ] } },
{ "type": "Feature", "properties": { "Name": null, "description": "HT Lines", "timestamp": null, "begin": null, "end": null, "altitudeMode": null, "tessellate": 1, "extrude": 0, "visibility": -1, "drawOrder": null, "icon": null }, "geometry": { "type": "LineString", "coordinates": [ [ 79.926245265, 16.010091225, 0.0 ], [ 79.926527764, 16.010009263, 0.0 ] ] } },
{ "type": "Feature", "properties": { "Name": null, "description": "HT Lines", "timestamp": null, "begin": null, "end": null, "altitudeMode": null, "tessellate": 1, "extrude": 0, "visibility": -1, "drawOrder": null, "icon": null }, "geometry": { "type": "LineString", "coordinates": [ [ 79.926541861, 16.011047541, 0.0 ], [ 79.926824362, 16.010965579, 0.0 ] ] } },
{ "type": "Feature", "properties": { "Name": null, "description": "HT Lines", "timestamp": null, "begin": null, "end": null, "altitudeMode": null, "tessellate": 1, "extrude": 0, "visibility": -1, "drawOrder": null, "icon": null }, "geometry": { "type": "LineString", "coordinates": [ [ 79.927322876, 16.014091843, 0.0 ], [ 79.927238132, 16.01381861, 0.0 ] ] } },
{ "type": "Feature", "properties": { "Name": null, "description": "HT Lines", "timestamp": null, "begin": null, "end": null, "altitudeMode": null, "tessellate": 1, "extrude": 0, "visibility": -1, "drawOrder": null, "icon": null }, "geometry": { "type": "LineString", "coordinates": [ [ 79.926955627, 16.013900573, 0.0 ], [ 79.926715494, 16.014119151, 0.0 ] ] } },
{ "type": "Feature", "properties": { "Name": null, "description": "HT Lines", "timestamp": null, "begin": null, "end": null, "altitudeMode": null, "tessellate": 1, "extrude": 0, "visibility": -1, "drawOrder": null, "icon": null }, "geometry": { "type": "LineString", "coordinates": [ [ 79.926715494, 16.014119151, 0.0 ], [ 79.927040371, 16.014173806, 0.0 ] ] } },
{ "type": "Feature", "properties": { "Name": null, "description": "HT Lines", "timestamp": null, "begin": null, "end": null, "altitudeMode": null, "tessellate": 1, "extrude": 0, "visibility": -1, "drawOrder": null, "icon": null }, "geometry": { "type": "LineString", "coordinates": [ [ 79.927040371, 16.014173806, 0.0 ], [ 79.927238132, 16.01381861, 0.0 ] ] } },
{ "type": "Feature", "properties": { "Name": null, "description": "HT Lines", "timestamp": null, "begin": null, "end": null, "altitudeMode": null, "tessellate": 1, "extrude": 0, "visibility": -1, "drawOrder": null, "icon": null }, "geometry": { "type": "LineString", "coordinates": [ [ 79.927238132, 16.01381861, 0.0 ], [ 79.927563009, 16.013873263, 0.0 ] ] } },
{ "type": "Feature", "properties": { "Name": null, "description": "HT Lines", "timestamp": null, "begin": null, "end": null, "altitudeMode": null, "tessellate": 1, "extrude": 0, "visibility": -1, "drawOrder": null, "icon": null }, "geometry": { "type": "LineString", "coordinates": [ [ 79.927563009, 16.013873263, 0.0 ], [ 79.927322876, 16.014091843, 0.0 ] ] } },
{ "type": "Feature", "properties": { "Name": null, "description": "HT Lines", "timestamp": null, "begin": null, "end": null, "altitudeMode": null, "tessellate": 1, "extrude": 0, "visibility": -1, "drawOrder": null, "icon": null }, "geometry": { "type": "LineString", "coordinates": [ [ 79.927322876, 16.014091843, 0.0 ], [ 79.927040371, 16.014173806, 0.0 ] ] } },
{ "type": "Feature", "properties": { "Name": null, "description": "HT Lines", "timestamp": null, "begin": null, "end": null, "altitudeMode": null, "tessellate": 1, "extrude": 0, "visibility": -1, "drawOrder": null, "icon": null }, "geometry": { "type": "LineString", "coordinates": [ [ 79.927040371, 16.014173806, 0.0 ], [ 79.926955627, 16.013900573, 0.0 ] ] } },
{ "type": "Feature", "properties": { "Name": null, "description": "HT Lines", "timestamp": null, "begin": null, "end": null, "altitudeMode": null, "tessellate": 1, "extrude": 0, "visibility": -1, "drawOrder": null, "icon": null }, "geometry": { "type": "LineString", "coordinates": [ [ 79.926955627, 16.013900573, 0.0 ], [ 79.927238132, 16.01381861, 0.0 ] ] } },
{ "type": "Feature", "properties": { "Name": null, "description": "HT Lines", "timestamp": null, "begin": null, "end": null, "altitudeMode": null, "tessellate": 1, "extrude": 0, "visibility": -1, "drawOrder": null, "icon": null }, "geometry": { "type": "LineString", "coordinates": [ [ 79.927322876, 16.014091843, 0.0 ], [ 79.926955627, 16.013900573, 0.0 ] ] } },
{ "type": "Feature", "properties": { "Name": null, "description": "HT Lines", "timestamp": null, "begin": null, "end": null, "altitudeMode": null, "tessellate": 1, "extrude": 0, "visibility": -1, "drawOrder": null, "icon": null }, "geometry": { "type": "LineString", "coordinates": [ [ 79.926849698, 16.013559031, 0.0 ], [ 79.927132202, 16.013477069, 0.0 ] ] } },
{ "type": "Feature", "properties": { "Name": null, "description": "HT Lines", "timestamp": null, "begin": null, "end": null, "altitudeMode": null, "tessellate": 1, "extrude": 0, "visibility": -1, "drawOrder": null, "icon": null }, "geometry": { "type": "LineString", "coordinates": [ [ 79.927146301, 16.014515347, 0.0 ], [ 79.927428807, 16.014433384, 0.0 ] ] } },
{ "type": "Feature", "properties": { "Name": null, "description": "HT Lines", "timestamp": null, "begin": null, "end": null, "altitudeMode": null, "tessellate": 1, "extrude": 0, "visibility": -1, "drawOrder": null, "icon": null }, "geometry": { "type": "LineString", "coordinates": [ [ 79.927927147, 16.017594988, 0.0 ], [ 79.927842401, 16.017321756, 0.0 ] ] } },
{ "type": "Feature", "properties": { "Name": null, "description": "HT Lines", "timestamp": null, "begin": null, "end": null, "altitudeMode": null, "tessellate": 1, "extrude": 0, "visibility": -1, "drawOrder": null, "icon": null }, "geometry": { "type": "LineString", "coordinates": [ [ 79.927559891, 16.017403719, 0.0 ], [ 79.927319754, 16.017622298, 0.0 ] ] } },
{ "type": "Feature", "properties": { "Name": null, "description": "HT Lines", "timestamp": null, "begin": null, "end": null, "altitudeMode": null, "tessellate": 1, "extrude": 0, "visibility": -1, "drawOrder": null, "icon": null }, "geometry": { "type": "LineString", "coordinates": [ [ 79.927319754, 16.017622298, 0.0 ], [ 79.927644637, 16.017676951, 0.0 ] ] } },
{ "type": "Feature", "properties": { "Name": null, "description": "HT Lines", "timestamp": null, "begin": null, "end": null, "altitudeMode": null, "tessellate": 1, "extrude": 0, "visibility": -1, "drawOrder": null, "icon": null }, "geometry": { "type": "LineString", "coordinates": [ [ 79.927644637, 16.017676951, 0.0 ], [ 79.927842401, 16.017321756, 0.0 ] ] } },
{ "type": "Feature", "properties": { "Name": null, "description": "HT Lines", "timestamp": null, "begin": null, "end": null, "altitudeMode": null, "tessellate": 1, "extrude": 0, "visibility": -1, "drawOrder": null, "icon": null }, "geometry": { "type": "LineString", "coordinates": [ [ 79.927842401, 16.017321756, 0.0 ], [ 79.928167283, 16.017376408, 0.0 ] ] } },
{ "type": "Feature", "properties": { "Name": null, "description": "HT Lines", "timestamp": null, "begin": null, "end": null, "altitudeMode": null, "tessellate": 1, "extrude": 0, "visibility": -1, "drawOrder": null, "icon": null }, "geometry": { "type": "LineString", "coordinates": [ [ 79.928167283, 16.017376408, 0.0 ], [ 79.927927147, 16.017594988, 0.0 ] ] } },
{ "type": "Feature", "properties": { "Name": null, "description": "HT Lines", "timestamp": null, "begin": null, "end": null, "altitudeMode": null, "tessellate": 1, "extrude": 0, "visibility": -1, "drawOrder": null, "icon": null }, "geometry": { "type": "LineString", "coordinates": [ [ 79.927927147, 16.017594988, 0.0 ], [ 79.927644637, 16.017676951, 0.0 ] ] } },
{ "type": "Feature", "properties": { "Name": null, "description": "HT Lines", "timestamp": null, "begin": null, "end": null, "altitudeMode": null, "tessellate": 1, "extrude": 0, "visibility": -1, "drawOrder": null, "icon": null }, "geometry": { "type": "LineString", "coordinates": [ [ 79.927644637, 16.017676951, 0.0 ], [ 79.927559891, 16.017403719, 0.0 ] ] } },
{ "type": "Feature", "properties": { "Name": null, "description": "HT Lines", "timestamp": null, "begin": null, "end": null, "altitudeMode": null, "tessellate": 1, "extrude": 0, "visibility": -1, "drawOrder": null, "icon": null }, "geometry": { "type": "LineString", "coordinates": [ [ 79.927559891, 16.017403719, 0.0 ], [ 79.927842401, 16.017321756, 0.0 ] ] } },
{ "type": "Feature", "properties": { "Name": null, "description": "HT Lines", "timestamp": null, "begin": null, "end": null, "altitudeMode": null, "tessellate": 1, "extrude": 0, "visibility": -1, "drawOrder": null, "icon": null }, "geometry": { "type": "LineString", "coordinates": [ [ 79.927927147, 16.017594988, 0.0 ], [ 79.927559891, 16.017403719, 0.0 ] ] } },
{ "type": "Feature", "properties": { "Name": null, "description": "HT Lines", "timestamp": null, "begin": null, "end": null, "altitudeMode": null, "tessellate": 1, "extrude": 0, "visibility": -1, "drawOrder": null, "icon": null }, "geometry": { "type": "LineString", "coordinates": [ [ 79.927453959, 16.017062178, 0.0 ], [ 79.927736468, 16.016980215, 0.0 ] ] } },
{ "type": "Feature", "properties": { "Name": null, "description": "HT Lines", "timestamp": null, "begin": null, "end": null, "altitudeMode": null, "tessellate": 1, "extrude": 0, "visibility": -1, "drawOrder": null, "icon": null }, "geometry": { "type": "LineString", "coordinates": [ [ 79.927750569, 16.018018492, 0.0 ], [ 79.92803308, 16.017936529, 0.0 ] ] } },
{ "type": "Feature", "properties": { "Name": null, "description": "HT Lines", "timestamp": null, "begin": null, "end": null, "altitudeMode": null, "tessellate": 1, "extrude": 0, "visibility": -1, "drawOrder": null, "icon": null }, "geometry": { "type": "LineString", "coordinates": [ [ 79.929571137, 16.024478473, 0.0 ], [ 79.929486386, 16.024205241, 0.0 ] ] } },
{ "type": "Feature", "properties": { "Name": null, "description": "HT Lines", "timestamp": null, "begin": null, "end": null, "altitudeMode": null, "tessellate": 1, "extrude": 0, "visibility": -1, "drawOrder": null, "icon": null }, "geometry": { "type": "LineString", "coordinates": [ [ 79.929203868, 16.024287205, 0.0 ], [ 79.928963723, 16.024505786, 0.0 ] ] } },
{ "type": "Feature", "properties": { "Name": null, "description": "HT Lines", "timestamp": null, "begin": null, "end": null, "altitudeMode": null, "tessellate": 1, "extrude": 0, "visibility": -1, "drawOrder": null, "icon": null }, "geometry": { "type": "LineString", "coordinates": [ [ 79.928963723, 16.024505786, 0.0 ], [ 79.929288618, 16.024560438, 0.0 ] ] } },
{ "type": "Feature", "properties": { "Name": null, "description": "HT Lines", "timestamp": null, "begin": null, "end": null, "altitudeMode": null, "tessellate": 1, "extrude": 0, "visibility": -1, "drawOrder": null, "icon": null }, "geometry": { "type": "LineString", "coordinates": [ [ 79.929288618, 16.024560438, 0.0 ], [ 79.929486386, 16.024205241, 0.0 ] ] } },
{ "type": "Feature", "properties": { "Name": null, "description": "HT Lines", "timestamp": null, "begin": null, "end": null, "altitudeMode": null, "tessellate": 1, "extrude": 0, "visibility": -1, "drawOrder": null, "icon": null }, "geometry": { "type": "LineString", "coordinates": [ [ 79.929486386, 16.024205241, 0.0 ], [ 79.929811281, 16.024259892, 0.0 ] ] } },
{ "type": "Feature", "properties": { "Name": null, "description": "HT Lines", "timestamp": null, "begin": null, "end": null, "altitudeMode": null, "tessellate": 1, "extrude": 0, "visibility": -1, "drawOrder": null, "icon": null }, "geometry": { "type": "LineString", "coordinates": [ [ 79.929811281, 16.024259892, 0.0 ], [ 79.929571137, 16.024478473, 0.0 ] ] } },
{ "type": "Feature", "properties": { "Name": null, "description": "HT Lines", "timestamp": null, "begin": null, "end": null, "altitudeMode": null, "tessellate": 1, "extrude": 0, "visibility": -1, "drawOrder": null, "icon": null }, "geometry": { "type": "LineString", "coordinates": [ [ 79.929571137, 16.024478473, 0.0 ], [ 79.929288618, 16.024560438, 0.0 ] ] } },
{ "type": "Feature", "properties": { "Name": null, "description": "HT Lines", "timestamp": null, "begin": null, "end": null, "altitudeMode": null, "tessellate": 1, "extrude": 0, "visibility": -1, "drawOrder": null, "icon": null }, "geometry": { "type": "LineString", "coordinates": [ [ 79.929288618, 16.024560438, 0.0 ], [ 79.929203868, 16.024287205, 0.0 ] ] } },
{ "type": "Feature", "properties": { "Name": null, "description": "HT Lines", "timestamp": null, "begin": null, "end": null, "altitudeMode": null, "tessellate": 1, "extrude": 0, "visibility": -1, "drawOrder": null, "icon": null }, "geometry": { "type": "LineString", "coordinates": [ [ 79.929203868, 16.024287205, 0.0 ], [ 79.929486386, 16.024205241, 0.0 ] ] } },
{ "type": "Feature", "properties": { "Name": null, "description": "HT Lines", "timestamp": null, "begin": null, "end": null, "altitudeMode": null, "tessellate": 1, "extrude": 0, "visibility": -1, "drawOrder": null, "icon": null }, "geometry": { "type": "LineString", "coordinates": [ [ 79.929571137, 16.024478473, 0.0 ], [ 79.929203868, 16.024287205, 0.0 ] ] } },
{ "type": "Feature", "properties": { "Name": null, "description": "HT Lines", "timestamp": null, "begin": null, "end": null, "altitudeMode": null, "tessellate": 1, "extrude": 0, "visibility": -1, "drawOrder": null, "icon": null }, "geometry": { "type": "LineString", "coordinates": [ [ 79.92909793, 16.023945665, 0.0 ], [ 79.929380448, 16.023863701, 0.0 ] ] } },
{ "type": "Feature", "properties": { "Name": null, "description": "HT Lines", "timestamp": null, "begin": null, "end": null, "altitudeMode": null, "tessellate": 1, "extrude": 0, "visibility": -1, "drawOrder": null, "icon": null }, "geometry": { "type": "LineString", "coordinates": [ [ 79.929394556, 16.024901978, 0.0 ], [ 79.929677076, 16.024820013, 0.0 ] ] } },
{ "type": "Feature", "properties": { "Name": null, "description": "0", "timestamp": null, "begin": null, "end": null, "altitudeMode": null, "tessellate": 1, "extrude": 0, "visibility": -1, "drawOrder": null, "icon": null }, "geometry": { "type": "LineString", "coordinates": [ [ 79.935629648, 15.99802727, 0.0 ], [ 79.936741637, 15.997873701, 0.0 ] ] } },
{ "type": "Feature", "properties": { "Name": null, "description": "Kommalapadu VB With Stones", "timestamp": null, "begin": null, "end": null, "altitudeMode": null, "tessellate": 1, "extrude": 0, "visibility": -1, "drawOrder": null, "icon": null }, "geometry": { "type": "LineString", "coordinates": [ [ 79.941498868, 16.004165728, 0.0 ], [ 79.941385955, 16.00413076, 0.0 ], [ 79.940674033, 16.003854095, 0.0 ], [ 79.939346168, 16.003405382, 0.0 ], [ 79.939282495, 16.003460965, 0.0 ], [ 79.939018429, 16.004610734, 0.0 ], [ 79.939465689, 16.005884073, 0.0 ], [ 79.93955383, 16.006242727, 0.0 ], [ 79.939626067, 16.00657273, 0.0 ], [ 79.939793858, 16.007291452, 0.0 ], [ 79.94009534, 16.007628832, 0.0 ], [ 79.940010485, 16.007961549, 0.0 ], [ 79.939902955, 16.008443226, 0.0 ], [ 79.93992204, 16.009183432, 0.0 ], [ 79.939954332, 16.010667167, 0.0 ], [ 79.93991445, 16.010829041, 0.0 ], [ 79.939869639, 16.011096259, 0.0 ], [ 79.939514474, 16.012572756, 0.0 ], [ 79.939428508, 16.012736418, 0.0 ], [ 79.938464528, 16.014384965, 0.0 ], [ 79.938319265, 16.014828933, 0.0 ], [ 79.938187851, 16.015571819, 0.0 ], [ 79.938000862, 16.016490024, 0.0 ], [ 79.937902081, 16.01701043, 0.0 ], [ 79.937884811, 16.017245053, 0.0 ], [ 79.937839047, 16.017657867, 0.0 ], [ 79.937686261, 16.018441883, 0.0 ], [ 79.937627949, 16.018844696, 0.0 ] ] } },
{ "type": "Feature", "properties": { "Name": null, "description": "HT Lines", "timestamp": null, "begin": null, "end": null, "altitudeMode": null, "tessellate": 1, "extrude": 0, "visibility": -1, "drawOrder": null, "icon": null }, "geometry": { "type": "LineString", "coordinates": [ [ 79.928439541, 16.020778674, 0.0 ], [ 79.928333606, 16.020437134, 0.0 ] ] } },
{ "type": "Feature", "properties": { "Name": null, "description": "HT Lines", "timestamp": null, "begin": null, "end": null, "altitudeMode": null, "tessellate": 1, "extrude": 0, "visibility": -1, "drawOrder": null, "icon": null }, "geometry": { "type": "LineString", "coordinates": [ [ 79.928157026, 16.020860638, 0.0 ], [ 79.928051092, 16.020519097, 0.0 ] ] } },
{ "type": "Feature", "properties": { "Name": null, "description": "HT Lines", "timestamp": null, "begin": null, "end": null, "altitudeMode": null, "tessellate": 1, "extrude": 0, "visibility": -1, "drawOrder": null, "icon": null }, "geometry": { "type": "LineString", "coordinates": [ [ 79.928524289, 16.021051907, 0.0 ], [ 79.928630224, 16.021393448, 0.0 ] ] } },
{ "type": "Feature", "properties": { "Name": null, "description": "HT Lines", "timestamp": null, "begin": null, "end": null, "altitudeMode": null, "tessellate": 1, "extrude": 0, "visibility": -1, "drawOrder": null, "icon": null }, "geometry": { "type": "LineString", "coordinates": [ [ 79.928241774, 16.021133871, 0.0 ], [ 79.928347709, 16.021475411, 0.0 ] ] } },
{ "type": "Feature", "properties": { "Name": null, "description": "HT Lines", "timestamp": null, "begin": null, "end": null, "altitudeMode": null, "tessellate": 1, "extrude": 0, "visibility": -1, "drawOrder": null, "icon": null }, "geometry": { "type": "LineString", "coordinates": [ [ 79.923020418, 15.989276413, 0.0 ], [ 79.922914506, 15.988934871, 0.0 ] ] } },
{ "type": "Feature", "properties": { "Name": null, "description": "HT Lines", "timestamp": null, "begin": null, "end": null, "altitudeMode": null, "tessellate": 1, "extrude": 0, "visibility": -1, "drawOrder": null, "icon": null }, "geometry": { "type": "LineString", "coordinates": [ [ 79.922737947, 15.989358373, 0.0 ], [ 79.922632036, 15.98901683, 0.0 ] ] } },
{ "type": "Feature", "properties": { "Name": null, "description": "HT Lines", "timestamp": null, "begin": null, "end": null, "altitudeMode": null, "tessellate": 1, "extrude": 0, "visibility": -1, "drawOrder": null, "icon": null }, "geometry": { "type": "LineString", "coordinates": [ [ 79.923105149, 15.989549648, 0.0 ], [ 79.923211062, 15.98989119, 0.0 ] ] } },
{ "type": "Feature", "properties": { "Name": null, "description": "HT Lines", "timestamp": null, "begin": null, "end": null, "altitudeMode": null, "tessellate": 1, "extrude": 0, "visibility": -1, "drawOrder": null, "icon": null }, "geometry": { "type": "LineString", "coordinates": [ [ 79.922822677, 15.989631607, 0.0 ], [ 79.92292859, 15.98997315, 0.0 ] ] } },
{ "type": "Feature", "properties": { "Name": null, "description": "HT Lines", "timestamp": null, "begin": null, "end": null, "altitudeMode": null, "tessellate": 1, "extrude": 0, "visibility": -1, "drawOrder": null, "icon": null }, "geometry": { "type": "LineString", "coordinates": [ [ 79.923621352, 15.992741255, 0.0 ], [ 79.923515437, 15.992399712, 0.0 ] ] } },
{ "type": "Feature", "properties": { "Name": null, "description": "HT Lines", "timestamp": null, "begin": null, "end": null, "altitudeMode": null, "tessellate": 1, "extrude": 0, "visibility": -1, "drawOrder": null, "icon": null }, "geometry": { "type": "LineString", "coordinates": [ [ 79.923338876, 15.992823215, 0.0 ], [ 79.923232962, 15.992481672, 0.0 ] ] } },
{ "type": "Feature", "properties": { "Name": null, "description": "HT Lines", "timestamp": null, "begin": null, "end": null, "altitudeMode": null, "tessellate": 1, "extrude": 0, "visibility": -1, "drawOrder": null, "icon": null }, "geometry": { "type": "LineString", "coordinates": [ [ 79.923706084, 15.993014489, 0.0 ], [ 79.923811999, 15.993356032, 0.0 ] ] } },
{ "type": "Feature", "properties": { "Name": null, "description": "HT Lines", "timestamp": null, "begin": null, "end": null, "altitudeMode": null, "tessellate": 1, "extrude": 0, "visibility": -1, "drawOrder": null, "icon": null }, "geometry": { "type": "LineString", "coordinates": [ [ 79.923423608, 15.993096449, 0.0 ], [ 79.923529523, 15.993437991, 0.0 ] ] } },
{ "type": "Feature", "properties": { "Name": null, "description": "HT Lines", "timestamp": null, "begin": null, "end": null, "altitudeMode": null, "tessellate": 1, "extrude": 0, "visibility": -1, "drawOrder": null, "icon": null }, "geometry": { "type": "LineString", "coordinates": [ [ 79.924202663, 15.99626636, 0.0 ], [ 79.924096746, 15.995924817, 0.0 ] ] } },
{ "type": "Feature", "properties": { "Name": null, "description": "HT Lines", "timestamp": null, "begin": null, "end": null, "altitudeMode": null, "tessellate": 1, "extrude": 0, "visibility": -1, "drawOrder": null, "icon": null }, "geometry": { "type": "LineString", "coordinates": [ [ 79.923920183, 15.99634832, 0.0 ], [ 79.923814266, 15.996006777, 0.0 ] ] } },
{ "type": "Feature", "properties": { "Name": null, "description": "HT Lines", "timestamp": null, "begin": null, "end": null, "altitudeMode": null, "tessellate": 1, "extrude": 0, "visibility": -1, "drawOrder": null, "icon": null }, "geometry": { "type": "LineString", "coordinates": [ [ 79.924287398, 15.996539593, 0.0 ], [ 79.924393315, 15.996881136, 0.0 ] ] } },
{ "type": "Feature", "properties": { "Name": null, "description": "HT Lines", "timestamp": null, "begin": null, "end": null, "altitudeMode": null, "tessellate": 1, "extrude": 0, "visibility": -1, "drawOrder": null, "icon": null }, "geometry": { "type": "LineString", "coordinates": [ [ 79.924004917, 15.996621554, 0.0 ], [ 79.924110834, 15.996963096, 0.0 ] ] } },
{ "type": "Feature", "properties": { "Name": null, "description": "HT Lines", "timestamp": null, "begin": null, "end": null, "altitudeMode": null, "tessellate": 1, "extrude": 0, "visibility": -1, "drawOrder": null, "icon": null }, "geometry": { "type": "LineString", "coordinates": [ [ 79.924811435, 15.999783438, 0.0 ], [ 79.924705515, 15.999441896, 0.0 ] ] } },
{ "type": "Feature", "properties": { "Name": null, "description": "HT Lines", "timestamp": null, "begin": null, "end": null, "altitudeMode": null, "tessellate": 1, "extrude": 0, "visibility": -1, "drawOrder": null, "icon": null }, "geometry": { "type": "LineString", "coordinates": [ [ 79.924528949, 15.999865399, 0.0 ], [ 79.92442303, 15.999523856, 0.0 ] ] } },
{ "type": "Feature", "properties": { "Name": null, "description": "HT Lines", "timestamp": null, "begin": null, "end": null, "altitudeMode": null, "tessellate": 1, "extrude": 0, "visibility": -1, "drawOrder": null, "icon": null }, "geometry": { "type": "LineString", "coordinates": [ [ 79.924896171, 16.000056672, 0.0 ], [ 79.925002091, 16.000398214, 0.0 ] ] } },
{ "type": "Feature", "properties": { "Name": null, "description": "HT Lines", "timestamp": null, "begin": null, "end": null, "altitudeMode": null, "tessellate": 1, "extrude": 0, "visibility": -1, "drawOrder": null, "icon": null }, "geometry": { "type": "LineString", "coordinates": [ [ 79.924613685, 16.000138632, 0.0 ], [ 79.924719605, 16.000480174, 0.0 ] ] } },
{ "type": "Feature", "properties": { "Name": null, "description": "HT Lines", "timestamp": null, "begin": null, "end": null, "altitudeMode": null, "tessellate": 1, "extrude": 0, "visibility": -1, "drawOrder": null, "icon": null }, "geometry": { "type": "LineString", "coordinates": [ [ 79.926038729, 16.006810805, 0.0 ], [ 79.925932804, 16.006469263, 0.0 ] ] } },
{ "type": "Feature", "properties": { "Name": null, "description": "HT Lines", "timestamp": null, "begin": null, "end": null, "altitudeMode": null, "tessellate": 1, "extrude": 0, "visibility": -1, "drawOrder": null, "icon": null }, "geometry": { "type": "LineString", "coordinates": [ [ 79.925756233, 16.006892766, 0.0 ], [ 79.925650309, 16.006551225, 0.0 ] ] } },
{ "type": "Feature", "properties": { "Name": null, "description": "HT Lines", "timestamp": null, "begin": null, "end": null, "altitudeMode": null, "tessellate": 1, "extrude": 0, "visibility": -1, "drawOrder": null, "icon": null }, "geometry": { "type": "LineString", "coordinates": [ [ 79.926123469, 16.007084038, 0.0 ], [ 79.926229394, 16.00742558, 0.0 ] ] } },
{ "type": "Feature", "properties": { "Name": null, "description": "HT Lines", "timestamp": null, "begin": null, "end": null, "altitudeMode": null, "tessellate": 1, "extrude": 0, "visibility": -1, "drawOrder": null, "icon": null }, "geometry": { "type": "LineString", "coordinates": [ [ 79.925840973, 16.007166, 0.0 ], [ 79.925946898, 16.007507542, 0.0 ] ] } },
{ "type": "Feature", "properties": { "Name": null, "description": "HT Lines", "timestamp": null, "begin": null, "end": null, "altitudeMode": null, "tessellate": 1, "extrude": 0, "visibility": -1, "drawOrder": null, "icon": null }, "geometry": { "type": "LineString", "coordinates": [ [ 79.925481039, 16.003309813, 0.0 ], [ 79.925375117, 16.002968271, 0.0 ] ] } },
{ "type": "Feature", "properties": { "Name": null, "description": "HT Lines", "timestamp": null, "begin": null, "end": null, "altitudeMode": null, "tessellate": 1, "extrude": 0, "visibility": -1, "drawOrder": null, "icon": null }, "geometry": { "type": "LineString", "coordinates": [ [ 79.925198549, 16.003391774, 0.0 ], [ 79.925092627, 16.003050232, 0.0 ] ] } },
{ "type": "Feature", "properties": { "Name": null, "description": "HT Lines", "timestamp": null, "begin": null, "end": null, "altitudeMode": null, "tessellate": 1, "extrude": 0, "visibility": -1, "drawOrder": null, "icon": null }, "geometry": { "type": "LineString", "coordinates": [ [ 79.925565777, 16.003583046, 0.0 ], [ 79.925671701, 16.003924588, 0.0 ] ] } },
{ "type": "Feature", "properties": { "Name": null, "description": "HT Lines", "timestamp": null, "begin": null, "end": null, "altitudeMode": null, "tessellate": 1, "extrude": 0, "visibility": -1, "drawOrder": null, "icon": null }, "geometry": { "type": "LineString", "coordinates": [ [ 79.925283287, 16.003665007, 0.0 ], [ 79.925389209, 16.004006549, 0.0 ] ] } },
{ "type": "Feature", "properties": { "Name": null, "description": "HT Lines", "timestamp": null, "begin": null, "end": null, "altitudeMode": null, "tessellate": 1, "extrude": 0, "visibility": -1, "drawOrder": null, "icon": null }, "geometry": { "type": "LineString", "coordinates": [ [ 79.926633692, 16.010350805, 0.0 ], [ 79.926527764, 16.010009263, 0.0 ] ] } },
{ "type": "Feature", "properties": { "Name": null, "description": "HT Lines", "timestamp": null, "begin": null, "end": null, "altitudeMode": null, "tessellate": 1, "extrude": 0, "visibility": -1, "drawOrder": null, "icon": null }, "geometry": { "type": "LineString", "coordinates": [ [ 79.926351192, 16.010432767, 0.0 ], [ 79.926245265, 16.010091225, 0.0 ] ] } },
{ "type": "Feature", "properties": { "Name": null, "description": "HT Lines", "timestamp": null, "begin": null, "end": null, "altitudeMode": null, "tessellate": 1, "extrude": 0, "visibility": -1, "drawOrder": null, "icon": null }, "geometry": { "type": "LineString", "coordinates": [ [ 79.926718434, 16.010624038, 0.0 ], [ 79.926824362, 16.010965579, 0.0 ] ] } },
{ "type": "Feature", "properties": { "Name": null, "description": "HT Lines", "timestamp": null, "begin": null, "end": null, "altitudeMode": null, "tessellate": 1, "extrude": 0, "visibility": -1, "drawOrder": null, "icon": null }, "geometry": { "type": "LineString", "coordinates": [ [ 79.926435933, 16.010706, 0.0 ], [ 79.926541861, 16.011047541, 0.0 ] ] } },
{ "type": "Feature", "properties": { "Name": null, "description": "HT Lines", "timestamp": null, "begin": null, "end": null, "altitudeMode": null, "tessellate": 1, "extrude": 0, "visibility": -1, "drawOrder": null, "icon": null }, "geometry": { "type": "LineString", "coordinates": [ [ 79.927238132, 16.01381861, 0.0 ], [ 79.927132202, 16.013477069, 0.0 ] ] } },
{ "type": "Feature", "properties": { "Name": null, "description": "HT Lines", "timestamp": null, "begin": null, "end": null, "altitudeMode": null, "tessellate": 1, "extrude": 0, "visibility": -1, "drawOrder": null, "icon": null }, "geometry": { "type": "LineString", "coordinates": [ [ 79.926955627, 16.013900573, 0.0 ], [ 79.926849698, 16.013559031, 0.0 ] ] } },
{ "type": "Feature", "properties": { "Name": null, "description": "HT Lines", "timestamp": null, "begin": null, "end": null, "altitudeMode": null, "tessellate": 1, "extrude": 0, "visibility": -1, "drawOrder": null, "icon": null }, "geometry": { "type": "LineString", "coordinates": [ [ 79.927322876, 16.014091843, 0.0 ], [ 79.927428807, 16.014433384, 0.0 ] ] } },
{ "type": "Feature", "properties": { "Name": null, "description": "HT Lines", "timestamp": null, "begin": null, "end": null, "altitudeMode": null, "tessellate": 1, "extrude": 0, "visibility": -1, "drawOrder": null, "icon": null }, "geometry": { "type": "LineString", "coordinates": [ [ 79.927040371, 16.014173806, 0.0 ], [ 79.927146301, 16.014515347, 0.0 ] ] } },
{ "type": "Feature", "properties": { "Name": null, "description": "HT Lines", "timestamp": null, "begin": null, "end": null, "altitudeMode": null, "tessellate": 1, "extrude": 0, "visibility": -1, "drawOrder": null, "icon": null }, "geometry": { "type": "LineString", "coordinates": [ [ 79.927842401, 16.017321756, 0.0 ], [ 79.927736468, 16.016980215, 0.0 ] ] } },
{ "type": "Feature", "properties": { "Name": null, "description": "HT Lines", "timestamp": null, "begin": null, "end": null, "altitudeMode": null, "tessellate": 1, "extrude": 0, "visibility": -1, "drawOrder": null, "icon": null }, "geometry": { "type": "LineString", "coordinates": [ [ 79.927559891, 16.017403719, 0.0 ], [ 79.927453959, 16.017062178, 0.0 ] ] } },
{ "type": "Feature", "properties": { "Name": null, "description": "HT Lines", "timestamp": null, "begin": null, "end": null, "altitudeMode": null, "tessellate": 1, "extrude": 0, "visibility": -1, "drawOrder": null, "icon": null }, "geometry": { "type": "LineString", "coordinates": [ [ 79.927927147, 16.017594988, 0.0 ], [ 79.92803308, 16.017936529, 0.0 ] ] } },
{ "type": "Feature", "properties": { "Name": null, "description": "HT Lines", "timestamp": null, "begin": null, "end": null, "altitudeMode": null, "tessellate": 1, "extrude": 0, "visibility": -1, "drawOrder": null, "icon": null }, "geometry": { "type": "LineString", "coordinates": [ [ 79.927644637, 16.017676951, 0.0 ], [ 79.927750569, 16.018018492, 0.0 ] ] } },
{ "type": "Feature", "properties": { "Name": null, "description": "HT Lines", "timestamp": null, "begin": null, "end": null, "altitudeMode": null, "tessellate": 1, "extrude": 0, "visibility": -1, "drawOrder": null, "icon": null }, "geometry": { "type": "LineString", "coordinates": [ [ 79.929486386, 16.024205241, 0.0 ], [ 79.929380448, 16.023863701, 0.0 ] ] } },
{ "type": "Feature", "properties": { "Name": null, "description": "HT Lines", "timestamp": null, "begin": null, "end": null, "altitudeMode": null, "tessellate": 1, "extrude": 0, "visibility": -1, "drawOrder": null, "icon": null }, "geometry": { "type": "LineString", "coordinates": [ [ 79.929203868, 16.024287205, 0.0 ], [ 79.92909793, 16.023945665, 0.0 ] ] } },
{ "type": "Feature", "properties": { "Name": null, "description": "HT Lines", "timestamp": null, "begin": null, "end": null, "altitudeMode": null, "tessellate": 1, "extrude": 0, "visibility": -1, "drawOrder": null, "icon": null }, "geometry": { "type": "LineString", "coordinates": [ [ 79.929571137, 16.024478473, 0.0 ], [ 79.929677076, 16.024820013, 0.0 ] ] } },
{ "type": "Feature", "properties": { "Name": null, "description": "HT Lines", "timestamp": null, "begin": null, "end": null, "altitudeMode": null, "tessellate": 1, "extrude": 0, "visibility": -1, "drawOrder": null, "icon": null }, "geometry": { "type": "LineString", "coordinates": [ [ 79.929288618, 16.024560438, 0.0 ], [ 79.929394556, 16.024901978, 0.0 ] ] } }
]
}
