{
"type": "FeatureCollection",
"name": "Line_Features___2_",
"crs": { "type": "name", "properties": { "name": "urn:ogc:def:crs:OGC:1.3:CRS84" } },
"features": [
{ "type": "Feature", "properties": { "Name": null, "description": "0", "timestamp": null, "begin": null, "end": null, "altitudeMode": null, "tessellate": 1, "extrude": 0, "visibility": -1, "drawOrder": null, "icon": null }, "geometry": { "type": "LineString", "coordinates": [ [ 79.32688571, 15.813479954, 0.0 ], [ 79.328025804, 15.813255386, 0.0 ], [ 79.331632397, 15.813712989, 0.0 ], [ 79.331825071, 15.813721012, 0.0 ], [ 79.333031281, 15.813646754, 0.0 ], [ 79.33337248, 15.813925725, 0.0 ], [ 79.333597261, 15.813855478, 0.0 ], [ 79.336477315, 15.812181634, 0.0 ], [ 79.338001639, 15.811781233, 0.0 ], [ 79.33818227, 15.812150524, 0.0 ], [ 79.338631843, 15.812130459, 0.0 ], [ 79.338712127, 15.812604113, 0.0 ], [ 79.33914162, 15.816397358, 0.0 ], [ 79.34172264, 15.81416556, 0.0 ], [ 79.342063824, 15.815213223, 0.0 ], [ 79.343585137, 15.814593055, 0.0 ], [ 79.344339775, 15.81427194, 0.0 ], [ 79.344464597, 15.814393559, 0.0 ], [ 79.344503565, 15.814740663, 0.0 ], [ 79.3446169, 15.814726498, 0.0 ], [ 79.344790454, 15.815197564, 0.0 ], [ 79.344737329, 15.815325074, 0.0 ], [ 79.344974632, 15.815955529, 0.0 ], [ 79.346375451, 15.815727076, 0.0 ], [ 79.346517127, 15.814221776, 0.0 ], [ 79.346612756, 15.814239485, 0.0 ], [ 79.347400825, 15.814140309, 0.0 ], [ 79.348477558, 15.813991551, 0.0 ], [ 79.351870688, 15.813779039, 0.0 ], [ 79.353878934, 15.813495689, 0.0 ], [ 79.355214223, 15.813442566, 0.0 ], [ 79.355873267, 15.813348788, 0.0 ], [ 79.356110322, 15.813315057, 0.0 ], [ 79.357804797, 15.813212238, 0.0 ] ] } },
{ "type": "Feature", "properties": { "Name": null, "description": "Manginapudi VB", "timestamp": null, "begin": null, "end": null, "altitudeMode": null, "tessellate": 1, "extrude": 0, "visibility": -1, "drawOrder": null, "icon": null }, "geometry": { "type": "LineString", "coordinates": [ [ 79.389081247, 15.819056756, 0.0 ], [ 79.389793449, 15.820826125, 0.0 ], [ 79.390161501, 15.821750021, 0.0 ], [ 79.390936502, 15.823502538, 0.0 ], [ 79.393808318, 15.826941495, 0.0 ], [ 79.394080512, 15.827267442, 0.0 ], [ 79.393936156, 15.826855329, 0.0 ], [ 79.393932938, 15.826845738, 0.0 ], [ 79.398204281, 15.830063928, 0.0 ], [ 79.397803968, 15.827639709, 0.0 ], [ 79.396348667, 15.820742851, 0.0 ], [ 79.396068459, 15.819754867, 0.0 ], [ 79.395376482, 15.817181477, 0.0 ] ] } },
{ "type": "Feature", "properties": { "Name": null, "description": "Rudrasamudram VB", "timestamp": null, "begin": null, "end": null, "altitudeMode": null, "tessellate": 1, "extrude": 0, "visibility": -1, "drawOrder": null, "icon": null }, "geometry": { "type": "LineString", "coordinates": [ [ 79.426968951, 15.822799128, 0.0 ], [ 79.426680655, 15.822661898, 0.0 ], [ 79.426440945, 15.822562626, 0.0 ], [ 79.42506797, 15.821950551, 0.0 ], [ 79.424855011, 15.82185561, 0.0 ], [ 79.423138318, 15.822121954, 0.0 ], [ 79.422974811, 15.822142275, 0.0 ], [ 79.421917247, 15.822216694, 0.0 ], [ 79.421834105, 15.821348189, 0.0 ], [ 79.421805341, 15.82104775, 0.0 ], [ 79.421025939, 15.820908757, 0.0 ], [ 79.420523923, 15.820819229, 0.0 ], [ 79.419317236, 15.820604033, 0.0 ], [ 79.418379062, 15.820436717, 0.0 ], [ 79.417267197, 15.820238433, 0.0 ], [ 79.416793539, 15.820474792, 0.0 ], [ 79.416164968, 15.820788446, 0.0 ], [ 79.415541464, 15.821099569, 0.0 ], [ 79.415533476, 15.821103976, 0.0 ], [ 79.414635231, 15.821598993, 0.0 ], [ 79.411466949, 15.823160185, 0.0 ], [ 79.40889349, 15.824898921, 0.0 ], [ 79.404637308, 15.827107373, 0.0 ], [ 79.403351605, 15.827753851, 0.0 ], [ 79.403177347, 15.827840983, 0.0 ], [ 79.398329868, 15.83026472, 0.0 ], [ 79.398240501, 15.830283265, 0.0 ], [ 79.398208246, 15.830087916, 0.0 ], [ 79.398204727, 15.830066588, 0.0 ], [ 79.398134889, 15.830085268, 0.0 ], [ 79.397756487, 15.830186477, 0.0 ], [ 79.395333515, 15.830834558, 0.0 ], [ 79.395161705, 15.830872727, 0.0 ], [ 79.39120443, 15.831751761, 0.0 ], [ 79.39111899, 15.831770702, 0.0 ], [ 79.38933481, 15.83215332, 0.0 ], [ 79.38933222, 15.832166794, 0.0 ], [ 79.389260695, 15.832182648, 0.0 ], [ 79.389255029, 15.832168408, 0.0 ], [ 79.389181953, 15.832182216, 0.0 ], [ 79.388262136, 15.832356123, 0.0 ], [ 79.387705898, 15.832461279, 0.0 ], [ 79.38730391, 15.832537287, 0.0 ], [ 79.386557219, 15.832678457, 0.0 ], [ 79.385952894, 15.832792713, 0.0 ], [ 79.384784652, 15.833013585, 0.0 ], [ 79.384338027, 15.833098021, 0.0 ], [ 79.384199268, 15.833124254, 0.0 ], [ 79.384043089, 15.83315285, 0.0 ], [ 79.382571348, 15.833422302, 0.0 ], [ 79.382267208, 15.833596237, 0.0 ], [ 79.381767671, 15.833881863, 0.0 ], [ 79.381244266, 15.83417734, 0.0 ], [ 79.380896216, 15.834373828, 0.0 ], [ 79.380896234, 15.834373892, 0.0 ], [ 79.380877221, 15.834392186, 0.0 ], [ 79.380505632, 15.834749617, 0.0 ], [ 79.380378137, 15.834872261, 0.0 ], [ 79.379689656, 15.835536305, 0.0 ], [ 79.378861338, 15.836269549, 0.0 ], [ 79.377446398, 15.837372379, 0.0 ], [ 79.376222764, 15.838324368, 0.0 ], [ 79.37600831, 15.838505381, 0.0 ], [ 79.375783403, 15.838591441, 0.0 ], [ 79.375767853, 15.839920984, 0.0 ], [ 79.376955678, 15.839496029, 0.0 ], [ 79.376745935, 15.845026607, 0.0 ], [ 79.378262736, 15.847266162, 0.0 ], [ 79.378270565, 15.847280752, 0.0 ], [ 79.378680799, 15.848414966, 0.0 ], [ 79.378736128, 15.848567923, 0.0 ], [ 79.378968929, 15.849095309, 0.0 ] ] } }
]
}
