{
"type": "FeatureCollection",
"name": "Point_Features___5_",
"crs": { "type": "name", "properties": { "name": "urn:ogc:def:crs:OGC:1.3:CRS84" } },
"features": [
{ "type": "Feature", "properties": { "Name": "GALIVEEDU SOLAR\n  PARK (500 MW)", "description": "100 MW", "timestamp": null, "begin": null, "end": null, "altitudeMode": null, "tessellate": -1, "extrude": 0, "visibility": -1, "drawOrder": null, "icon": null }, "geometry": { "type": "Point", "coordinates": [ 78.441733319, 14.022683977, 0.0 ] } },
{ "type": "Feature", "properties": { "Name": "GALIVEEDU SOLAR PARK\n(500 MW)", "description": "100 MW", "timestamp": null, "begin": null, "end": null, "altitudeMode": null, "tessellate": -1, "extrude": 0, "visibility": -1, "drawOrder": null, "icon": null }, "geometry": { "type": "Point", "coordinates": [ 78.449177216, 14.04972759, 0.0 ] } },
{ "type": "Feature", "properties": { "Name": "GALIVEEDU SOLAR PARK (500 MW)", "description": "100 MW", "timestamp": null, "begin": null, "end": null, "altitudeMode": null, "tessellate": -1, "extrude": 0, "visibility": -1, "drawOrder": null, "icon": null }, "geometry": { "type": "Point", "coordinates": [ 78.465981979, 14.096400652, 0.0 ] } }
]
}
