{
"type": "FeatureCollection",
"name": "Point_Features___11_",
"crs": { "type": "name", "properties": { "name": "urn:ogc:def:crs:OGC:1.3:CRS84" } },
"features": [
{ "type": "Feature", "properties": { "Name": "ANANTHAPURAMU ULTRA MEGA\nSOLAR PARK (1000 MW)", "description": "0", "timestamp": null, "begin": null, "end": null, "altitudeMode": null, "tessellate": -1, "extrude": 0, "visibility": -1, "drawOrder": null, "icon": null }, "geometry": { "type": "Point", "coordinates": [ 78.415313878, 14.018160204, 0.0 ] } }
]
}
