{
"type": "FeatureCollection",
"name": "Point_Features___9_",
"crs": { "type": "name", "properties": { "name": "urn:ogc:def:crs:OGC:1.3:CRS84" } },
"features": [
{ "type": "Feature", "properties": { "Name": "Marrikommadinne", "description": "FOREST CA BOUNDARY", "timestamp": null, "begin": null, "end": null, "altitudeMode": null, "tessellate": -1, "extrude": 0, "visibility": -1, "drawOrder": null, "icon": null }, "geometry": { "type": "Point", "coordinates": [ 78.427100638, 14.115535814, 0.0 ] } }
]
}
