{
"type": "FeatureCollection",
"name": "Point_Features___3_",
"crs": { "type": "name", "properties": { "name": "urn:ogc:def:crs:OGC:1.3:CRS84" } },
"features": [
{ "type": "Feature", "properties": { "Name": "KADAPA ULREA MEGA SOLAR\nPARK 1000 MW)", "description": "100 MW", "timestamp": null, "begin": null, "end": null, "altitudeMode": null, "tessellate": -1, "extrude": 0, "visibility": -1, "drawOrder": null, "icon": null }, "geometry": { "type": "Point", "coordinates": [ 78.222536256, 14.948326435, 0.0 ] } },
{ "type": "Feature", "properties": { "Name": "KADAPA ULREA MEGA SOLAR\nPARK 1000 MW)", "description": "100 MW", "timestamp": null, "begin": null, "end": null, "altitudeMode": null, "tessellate": -1, "extrude": 0, "visibility": -1, "drawOrder": null, "icon": null }, "geometry": { "type": "Point", "coordinates": [ 78.257165842, 14.923909826, 0.0 ] } },
{ "type": "Feature", "properties": { "Name": null, "description": "0", "timestamp": null, "begin": null, "end": null, "altitudeMode": null, "tessellate": -1, "extrude": 0, "visibility": -1, "drawOrder": null, "icon": null }, "geometry": { "type": "Point", "coordinates": [ 78.283409416, 14.900516047, 0.0 ] } },
{ "type": "Feature", "properties": { "Name": null, "description": "0", "timestamp": null, "begin": null, "end": null, "altitudeMode": null, "tessellate": -1, "extrude": 0, "visibility": -1, "drawOrder": null, "icon": null }, "geometry": { "type": "Point", "coordinates": [ 78.283409411, 14.900516052, 0.0 ] } },
{ "type": "Feature", "properties": { "Name": null, "description": "0", "timestamp": null, "begin": null, "end": null, "altitudeMode": null, "tessellate": -1, "extrude": 0, "visibility": -1, "drawOrder": null, "icon": null }, "geometry": { "type": "Point", "coordinates": [ 78.283409416, 14.900516047, 0.0 ] } }
]
}
