{
"type": "FeatureCollection",
"name": "Point_Features___7_",
"crs": { "type": "name", "properties": { "name": "urn:ogc:def:crs:OGC:1.3:CRS84" } },
"features": [
{ "type": "Feature", "properties": { "Name": "BT Road", "description": "FEATURE_LABEL", "timestamp": null, "begin": null, "end": null, "altitudeMode": null, "tessellate": -1, "extrude": 0, "visibility": -1, "drawOrder": null, "icon": null }, "geometry": { "type": "Point", "coordinates": [ 79.324717221, 15.129730196, 0.0 ] } },
{ "type": "Feature", "properties": { "Name": "PEDARAJUPALEM", "description": "Ankalapalli", "timestamp": null, "begin": null, "end": null, "altitudeMode": null, "tessellate": -1, "extrude": 0, "visibility": -1, "drawOrder": null, "icon": null }, "geometry": { "type": "Point", "coordinates": [ 79.296257336, 15.12017375, 0.0 ] } },
{ "type": "Feature", "properties": { "Name": "ANKALAPALLI", "description": "Ankalapalli", "timestamp": null, "begin": null, "end": null, "altitudeMode": null, "tessellate": -1, "extrude": 0, "visibility": -1, "drawOrder": null, "icon": null }, "geometry": { "type": "Point", "coordinates": [ 79.285361751, 15.138698169, 0.0 ] } },
{ "type": "Feature", "properties": { "Name": "KOVILAMPADU", "description": "Ankalapalli", "timestamp": null, "begin": null, "end": null, "altitudeMode": null, "tessellate": -1, "extrude": 0, "visibility": -1, "drawOrder": null, "icon": null }, "geometry": { "type": "Point", "coordinates": [ 79.302497572, 15.13982758, 0.0 ] } },
{ "type": "Feature", "properties": { "Name": "KAMBHAMPADU", "description": "Ankalapalli", "timestamp": null, "begin": null, "end": null, "altitudeMode": null, "tessellate": -1, "extrude": 0, "visibility": -1, "drawOrder": null, "icon": null }, "geometry": { "type": "Point", "coordinates": [ 79.320307248, 15.1344599, 0.0 ] } },
{ "type": "Feature", "properties": { "Name": "CS PURAM ULTRA\nMEGA SOLAR PARK", "description": "CART TRACK", "timestamp": null, "begin": null, "end": null, "altitudeMode": null, "tessellate": -1, "extrude": 0, "visibility": -1, "drawOrder": null, "icon": null }, "geometry": { "type": "Point", "coordinates": [ 79.28889852, 15.128163709, 0.0 ] } }
]
}
