{
"type": "FeatureCollection",
"name": "Point_Features___10_",
"crs": { "type": "name", "properties": { "name": "urn:ogc:def:crs:OGC:1.3:CRS84" } },
"features": [
{ "type": "Feature", "properties": { "Name": "ANANTHAPURAM\nULTRA MEGA SOLAR PARK II\n(500 MW)", "description": "P.Road", "timestamp": null, "begin": null, "end": null, "altitudeMode": null, "tessellate": -1, "extrude": 0, "visibility": -1, "drawOrder": null, "icon": null }, "geometry": { "type": "Point", "coordinates": [ 78.058628884, 14.960441386, 0.0 ] } }
]
}
