{
"type": "FeatureCollection",
"crs": { "type": "name", "properties": { "name": "urn:ogc:def:crs:OGC:1.3:CRS84" } },
"features": [
{ "type": "Feature", "properties": { "name": null, "voltage": 220000.0, "cables": "6", "operator": null }, "geometry": { "type": "LineString", "coordinates": [ [ 79.1124764, 14.1612039 ], [ 79.0971014, 14.1812343 ], [ 79.0870242, 14.1882796 ], [ 79.074829, 14.2003966 ], [ 79.0599863, 14.2111227 ], [ 79.0466474, 14.2302273 ], [ 79.0385641, 14.2473256 ], [ 79.0287308, 14.2607537 ], [ 79.0300978, 14.2647976 ], [ 79.0228637, 14.2774187 ], [ 79.0059152, 14.2838497 ], [ 78.9939937, 14.3217975 ], [ 78.9865228, 14.3286128 ], [ 78.9757247, 14.3484482 ], [ 78.9588598, 14.3732149 ], [ 78.9410627, 14.407165 ], [ 78.92344, 14.4258674 ], [ 78.9177313, 14.4288775 ], [ 78.8828059, 14.4317326 ], [ 78.8488647, 14.4277089 ], [ 78.8334882, 14.4171326 ], [ 78.8168073, 14.3841763 ], [ 78.8140317, 14.3827975 ], [ 78.8123641, 14.3836476 ], [ 78.8010829, 14.3837659 ] ] } },
{ "type": "Feature", "properties": { "name": null, "voltage": 132000.0, "cables": "3", "operator": null }, "geometry": { "type": "LineString", "coordinates": [ [ 79.057844, 14.708885 ], [ 79.0455541, 14.7116246 ], [ 79.0426527, 14.7115132 ], [ 79.0334855, 14.7165518 ], [ 79.0238573, 14.7294498 ], [ 79.017307, 14.7463544 ], [ 79.0197698, 14.7773542 ], [ 79.0287806, 14.7971451 ], [ 79.0177605, 14.8461431 ], [ 79.0158883, 14.8658595 ], [ 79.0116653, 14.8902427 ], [ 79.0051456, 14.9053261 ], [ 79.0015503, 14.9403859 ], [ 78.9948079, 14.9502409 ], [ 78.9938915, 14.9505965 ], [ 78.9906233, 14.9747015 ], [ 78.9833794, 14.9866724 ], [ 78.9842549, 14.9943742 ], [ 78.9873839, 14.9960979 ], [ 78.9895323, 14.9955565 ] ] } },
{ "type": "Feature", "properties": { "name": null, "voltage": 132000.0, "cables": "6", "operator": null }, "geometry": { "type": "LineString", "coordinates": [ [ 79.0579813, 14.7087973 ], [ 79.0671858, 14.6965164 ], [ 79.0759729, 14.6778915 ], [ 79.0770345, 14.6751773 ], [ 79.0783197, 14.6584533 ] ] } },
{ "type": "Feature", "properties": { "name": null, "voltage": 132000.0, "cables": "3", "operator": null }, "geometry": { "type": "LineString", "coordinates": [ [ 79.0556036, 14.5862607 ], [ 79.0564159, 14.6257069 ], [ 79.0659313, 14.632161 ], [ 79.0777937, 14.6582296 ], [ 79.1130745, 14.6749 ], [ 79.1175538, 14.678757 ], [ 79.1571768, 14.7014747 ], [ 79.1598924, 14.7011552 ], [ 79.1937809, 14.6806103 ], [ 79.1969918, 14.6768725 ], [ 79.1963638, 14.6789043 ], [ 79.2086166, 14.6714339 ], [ 79.2260141, 14.6569709 ], [ 79.2684624, 14.653039 ], [ 79.2813944, 14.6497771 ], [ 79.2993146, 14.6537617 ], [ 79.3307517, 14.6826695 ], [ 79.3515023, 14.6854626 ] ] } },
{ "type": "Feature", "properties": { "name": "HVDC Talcher - Kolar Line", "voltage": 500000.0, "cables": "2", "operator": "Power Grid Corporation of India Limited" }, "geometry": { "type": "LineString", "coordinates": [ [ 78.2339344, 13.4944295 ], [ 78.2409376, 13.5205824 ], [ 78.2606687, 13.5490854 ], [ 78.2720423, 13.569333 ], [ 78.2741137, 13.5828527 ], [ 78.272123, 13.593536 ], [ 78.2753986, 13.6037351 ], [ 78.2759203, 13.6130357 ], [ 78.2727698, 13.6301812 ], [ 78.2853336, 13.6515299 ], [ 78.287242, 13.6631939 ], [ 78.3167665, 13.7207929 ], [ 78.3209399, 13.7315756 ], [ 78.3204246, 13.7404006 ], [ 78.328259, 13.7570265 ], [ 78.3302923, 13.7588022 ], [ 78.3434121, 13.7801164 ], [ 78.3544464, 13.8049901 ], [ 78.3673385, 13.8150033 ], [ 78.383035, 13.8230803 ], [ 78.3923475, 13.8330771 ], [ 78.3933862, 13.849885 ], [ 78.3931505, 13.851902 ], [ 78.3914406, 13.8534536 ], [ 78.3910285, 13.8682448 ], [ 78.4038555, 13.8861384 ], [ 78.4084886, 13.8976349 ], [ 78.4147324, 13.9011774 ], [ 78.4279399, 13.9263219 ], [ 78.4320033, 13.9447614 ], [ 78.4390455, 13.9600332 ], [ 78.4480922, 13.9705507 ], [ 78.4569741, 13.982906 ], [ 78.4889111, 14.0106721 ], [ 78.4886891, 14.0263897 ], [ 78.4903001, 14.0362074 ], [ 78.5054676, 14.0697727 ], [ 78.5165686, 14.0894932 ], [ 78.5208343, 14.1128554 ], [ 78.5089732, 14.1489618 ], [ 78.5146136, 14.1666268 ], [ 78.5231496, 14.1835022 ], [ 78.5290914, 14.210077 ], [ 78.528283, 14.2319207 ], [ 78.5002038, 14.2847916 ], [ 78.491718, 14.2903291 ], [ 78.4919797, 14.3048914 ], [ 78.4946765, 14.3070338 ], [ 78.4971812, 14.3115151 ], [ 78.5008019, 14.3152615 ], [ 78.4979075, 14.3268832 ], [ 78.4944362, 14.3305103 ], [ 78.4860091, 14.3326473 ], [ 78.4815339, 14.3328853 ], [ 78.4800012, 14.3347169 ], [ 78.4809464, 14.3375523 ], [ 78.4753925, 14.3458875 ], [ 78.474797, 14.3488302 ], [ 78.4763389, 14.3531699 ], [ 78.4804212, 14.3579653 ], [ 78.4946177, 14.3843508 ], [ 78.5294921, 14.3951401 ], [ 78.5335117, 14.4088044 ], [ 78.5324506, 14.4111129 ], [ 78.5237268, 14.4167778 ], [ 78.5222946, 14.4229083 ], [ 78.5274379, 14.4295296 ], [ 78.5295601, 14.4392334 ], [ 78.5398364, 14.4501314 ], [ 78.5428994, 14.4599507 ], [ 78.5388641, 14.465093 ], [ 78.5363081, 14.4718548 ], [ 78.5384721, 14.4748409 ], [ 78.5447602, 14.4781204 ], [ 78.5572684, 14.4881663 ], [ 78.5646854, 14.4900944 ], [ 78.5749251, 14.4997248 ], [ 78.614437, 14.5723007 ], [ 78.6246033, 14.6051733 ], [ 78.6258567, 14.6072328 ], [ 78.6475486, 14.6097279 ], [ 78.6807771, 14.6210595 ], [ 78.6926513, 14.6198912 ], [ 78.6953065, 14.6207625 ], [ 78.701896, 14.6274354 ], [ 78.7276348, 14.6594197 ], [ 78.7465873, 14.6898938 ], [ 78.7559313, 14.6937528 ], [ 78.7883266, 14.7019829 ], [ 78.8741279, 14.719475 ], [ 78.8975582, 14.7292253 ], [ 78.9278058, 14.7166486 ], [ 78.9426019, 14.7235593 ], [ 78.9512007, 14.7475143 ], [ 78.9624014, 14.7580681 ], [ 78.9905493, 14.7947202 ], [ 78.9945292, 14.9116275 ], [ 78.991516, 14.9432044 ], [ 79.0035977, 14.9715117 ], [ 79.0260744, 14.9813525 ], [ 79.0345439, 14.9919213 ], [ 79.0376846, 14.9975338 ], [ 79.0420928, 15.001142 ], [ 79.0461399, 15.0088987 ], [ 79.0425566, 15.0385512 ], [ 79.0379678, 15.0659361 ], [ 79.0444616, 15.0753451 ], [ 79.067388, 15.0762349 ], [ 79.0693987, 15.0795593 ], [ 79.0721846, 15.0804926 ], [ 79.0775941, 15.0849362 ], [ 79.0832354, 15.0934014 ], [ 79.0963614, 15.098731 ], [ 79.1091641, 15.1059127 ], [ 79.1215192, 15.1183936 ], [ 79.1763606, 15.1205376 ], [ 79.2065576, 15.1345214 ], [ 79.2179947, 15.1518135 ], [ 79.2506794, 15.1766239 ], [ 79.2926784, 15.2178031 ], [ 79.2972, 15.2203638 ], [ 79.2974729, 15.2224878 ], [ 79.3038654, 15.2339826 ], [ 79.3152674, 15.2648138 ], [ 79.3787324, 15.3208572 ], [ 79.4067312, 15.3335476 ], [ 79.4507471, 15.3519265 ], [ 79.4512254, 15.3545404 ], [ 79.4489855, 15.3746123 ], [ 79.5007623, 15.4463 ], [ 79.5302656, 15.4907941 ], [ 79.5419695, 15.523189 ], [ 79.555857, 15.546151 ], [ 79.5735456, 15.5809981 ], [ 79.578712, 15.6111216 ], [ 79.6090032, 15.6396627 ], [ 79.6595286, 15.6902784 ], [ 79.6621685, 15.6929612 ], [ 79.664688, 15.6973685 ], [ 79.6970115, 15.72379 ], [ 79.7497578, 15.8018498 ], [ 79.8185427, 15.8610256 ], [ 79.8918655, 15.9608602 ], [ 79.8987863, 15.9915738 ], [ 79.9240923, 16.0253057 ], [ 79.9432125, 16.0699545 ], [ 79.9423641, 16.0754037 ], [ 79.9437741, 16.0779546 ], [ 79.960588, 16.1080938 ], [ 79.9970508, 16.1501948 ] ] } },
{ "type": "Feature", "properties": { "name": null, "voltage": 400000.0, "cables": "6", "operator": null }, "geometry": { "type": "LineString", "coordinates": [ [ 79.8972728, 14.2481163 ], [ 79.8851473, 14.2548391 ], [ 79.8836299, 14.2544822 ], [ 79.8753957, 14.2586971 ], [ 79.8719484, 14.2584571 ], [ 79.8516847, 14.2656074 ], [ 79.8466545, 14.2690745 ], [ 79.8323642, 14.2660396 ], [ 79.8268767, 14.2690188 ], [ 79.8004173, 14.289072 ], [ 79.7783974, 14.2996456 ], [ 79.7686774, 14.3089358 ], [ 79.7199767, 14.3594356 ], [ 79.709184, 14.3721417 ], [ 79.6887541, 14.4050292 ], [ 79.6870717, 14.4469187 ], [ 79.6737125, 14.4617417 ], [ 79.673322, 14.4636239 ], [ 79.6451006, 14.4949028 ], [ 79.6341559, 14.5162506 ], [ 79.6350576, 14.5602314 ], [ 79.627725, 14.5719798 ], [ 79.544133, 14.5989773 ], [ 79.5073284, 14.6203794 ], [ 79.460413, 14.6853029 ], [ 79.4217052, 14.684374 ], [ 79.3983618, 14.6787702 ], [ 79.3419942, 14.6388525 ], [ 79.3032829, 14.6353268 ], [ 79.2593602, 14.6483548 ], [ 79.2479245, 14.6539291 ], [ 79.2468292, 14.6596898 ], [ 79.2380268, 14.665179 ], [ 79.2129593, 14.7006789 ], [ 79.2096294, 14.7014799 ], [ 79.1977644, 14.693864 ], [ 79.1839101, 14.6943133 ], [ 79.148245, 14.7063027 ], [ 79.1154795, 14.7331398 ], [ 79.115427, 14.7393475 ], [ 79.1009287, 14.7483177 ], [ 79.0864377, 14.7512629 ], [ 79.0640922, 14.7611308 ], [ 79.0194669, 14.7623637 ], [ 79.0026683, 14.758631 ], [ 78.9908953, 14.7496401 ], [ 78.9509145, 14.7356373 ], [ 78.9446534, 14.7365779 ], [ 78.9185441, 14.7274717 ], [ 78.9123312, 14.7308786 ], [ 78.9015966, 14.7288489 ], [ 78.897586, 14.7301634 ], [ 78.8809274, 14.7238608 ], [ 78.8749121, 14.7207398 ], [ 78.8468539, 14.7267481 ], [ 78.7844224, 14.7252807 ], [ 78.7774537, 14.7315225 ], [ 78.7482561, 14.7499526 ], [ 78.729472, 14.7521232 ], [ 78.7175955, 14.7498967 ], [ 78.6633741, 14.7875956 ], [ 78.6305091, 14.8132116 ], [ 78.6104364, 14.8221313 ], [ 78.5695005, 14.8326597 ], [ 78.4476101, 14.8728821 ], [ 78.3899794, 14.8940896 ], [ 78.3881244, 14.8937564 ], [ 78.3611371, 14.9086148 ], [ 78.3566362, 14.9074025 ], [ 78.3478129, 14.9109991 ], [ 78.2437108, 14.958048 ], [ 78.212115, 14.9659651 ], [ 78.1535661, 14.9782515 ], [ 78.1296299, 14.9729474 ], [ 78.1049404, 14.9732936 ], [ 78.0601795, 14.9866364 ], [ 78.0144737, 14.991239 ], [ 77.9770573, 15.0026186 ], [ 77.9735906, 15.0062398 ], [ 77.9669037, 15.0088233 ], [ 77.9644339, 15.0112227 ], [ 77.9639198, 15.0135353 ], [ 77.9605512, 15.0147021 ], [ 77.9436328, 15.0122818 ], [ 77.8936108, 15.0266744 ], [ 77.8535215, 15.0479125 ], [ 77.8418023, 15.06538 ], [ 77.8081342, 15.0933694 ], [ 77.8023382, 15.0963883 ], [ 77.7785873, 15.0980131 ], [ 77.7627907, 15.0999778 ], [ 77.7460017, 15.1182793 ], [ 77.680409, 15.1416167 ], [ 77.6783216, 15.1466796 ], [ 77.6675576, 15.1519121 ], [ 77.6606907, 15.1523616 ] ] } },
{ "type": "Feature", "properties": { "name": null, "voltage": 765000.0, "cables": "6", "operator": null }, "geometry": { "type": "LineString", "coordinates": [ [ 79.9013488, 14.253747 ], [ 79.9024725, 14.2561591 ], [ 79.9018757, 14.2576727 ], [ 79.8820426, 14.2680835 ], [ 79.8800554, 14.2677205 ], [ 79.875421, 14.2688411 ], [ 79.8587622, 14.2780147 ], [ 79.8459507, 14.2948843 ], [ 79.83698, 14.2999166 ], [ 79.8128933, 14.2996337 ], [ 79.8111855, 14.2990677 ], [ 79.7879657, 14.3101457 ], [ 79.7777687, 14.3253922 ], [ 79.7713379, 14.3331013 ], [ 79.7733411, 14.3603755 ], [ 79.7750518, 14.3621184 ], [ 79.7744693, 14.3650257 ], [ 79.7590955, 14.384168 ], [ 79.7455651, 14.4045585 ], [ 79.7057704, 14.4468834 ], [ 79.6899103, 14.4607164 ], [ 79.6856662, 14.4716818 ], [ 79.6839667, 14.4910103 ], [ 79.6597929, 14.5212408 ], [ 79.6466118, 14.5564074 ], [ 79.6477473, 14.5585841 ], [ 79.6492658, 14.5664221 ], [ 79.6438458, 14.5780877 ], [ 79.6401571, 14.5835587 ], [ 79.6273518, 14.5874844 ], [ 79.6134327, 14.5950632 ], [ 79.5730628, 14.6073574 ], [ 79.5475819, 14.6188767 ], [ 79.5258649, 14.6555966 ], [ 79.5219966, 14.6587683 ], [ 79.497606, 14.6708089 ], [ 79.4704473, 14.6871895 ], [ 79.4694558, 14.6898553 ], [ 79.4617579, 14.6984644 ], [ 79.442771, 14.7005864 ], [ 79.401479, 14.7104561 ], [ 79.3597576, 14.7128574 ], [ 79.3206518, 14.7315349 ], [ 79.2980047, 14.7394413 ], [ 79.2536319, 14.7528077 ], [ 79.2421934, 14.7529994 ], [ 79.2393307, 14.7497936 ], [ 79.2390891, 14.7391273 ], [ 79.2171741, 14.7200444 ], [ 79.2132421, 14.7072029 ], [ 79.2153146, 14.7034353 ], [ 79.2146048, 14.7000491 ], [ 79.2129705, 14.6989599 ], [ 79.2069012, 14.6979673 ], [ 79.2019713, 14.6931572 ], [ 79.1957003, 14.6918392 ], [ 79.1841185, 14.6909415 ], [ 79.153365, 14.701114 ], [ 79.1463634, 14.7019701 ], [ 79.1239841, 14.7250382 ], [ 79.1106991, 14.7345666 ], [ 79.1113497, 14.743022 ], [ 79.1100175, 14.7467671 ], [ 79.0871179, 14.7533546 ], [ 79.0746394, 14.7611929 ], [ 79.0420325, 14.7726745 ], [ 79.0345884, 14.7735219 ], [ 79.0198009, 14.7789108 ], [ 79.0135594, 14.7780311 ], [ 78.9908323, 14.7614623 ], [ 78.9708747, 14.7488911 ], [ 78.9509346, 14.7426244 ], [ 78.9487001, 14.7429676 ], [ 78.9354679, 14.735195 ], [ 78.926723, 14.7364117 ], [ 78.9135391, 14.7362337 ], [ 78.8750448, 14.7235955 ], [ 78.8459785, 14.7304819 ], [ 78.8168531, 14.7676549 ], [ 78.8065276, 14.7828365 ], [ 78.7953402, 14.7879785 ], [ 78.7841853, 14.7855605 ], [ 78.7706267, 14.7863512 ], [ 78.7606459, 14.7904623 ], [ 78.7481766, 14.7865373 ], [ 78.7272795, 14.7883721 ], [ 78.7147834, 14.8010771 ], [ 78.7125948, 14.8008651 ], [ 78.7037866, 14.8061399 ], [ 78.6852617, 14.8291458 ], [ 78.6494754, 14.8880945 ], [ 78.6318434, 14.9439877 ], [ 78.6047329, 15.0102112 ], [ 78.5900307, 15.0351915 ], [ 78.5749454, 15.0843398 ], [ 78.5741787, 15.127393 ], [ 78.5620007, 15.1693132 ], [ 78.5607164, 15.2883711 ], [ 78.5679939, 15.3770358 ], [ 78.5612253, 15.4192704 ], [ 78.559565, 15.4423606 ], [ 78.560282, 15.4447473 ], [ 78.5435815, 15.4846253 ], [ 78.5330916, 15.5143913 ], [ 78.4568074, 15.6553601 ], [ 78.3733167, 15.6817481 ], [ 78.3486398, 15.6844707 ], [ 78.3410051, 15.6823923 ], [ 78.332971, 15.6828209 ], [ 78.3315094, 15.6841605 ], [ 78.2877419, 15.6932056 ], [ 78.1785519, 15.6758563 ], [ 78.1781119, 15.6750686 ] ] } },
{ "type": "Feature", "properties": { "name": null, "voltage": 220000.0, "cables": "6", "operator": null }, "geometry": { "type": "LineString", "coordinates": [ [ 79.0163673, 14.8349546 ], [ 79.0140171, 14.8308315 ], [ 79.0148629, 14.8191801 ], [ 79.0028188, 14.7849927 ], [ 78.9932817, 14.763975 ], [ 78.9939825, 14.7629907 ], [ 78.9832529, 14.7523514 ], [ 78.9725456, 14.7457579 ], [ 78.9325257, 14.7334652 ], [ 78.9301854, 14.7352628 ], [ 78.9297818, 14.7366973 ], [ 78.9263472, 14.7381473 ], [ 78.9183408, 14.7383626 ], [ 78.8744089, 14.7244301 ], [ 78.8741246, 14.723133 ], [ 78.8728586, 14.7221991 ], [ 78.8527554, 14.7278257 ], [ 78.8495985, 14.7267155 ], [ 78.8329902, 14.7401226 ], [ 78.8264564, 14.74326 ], [ 78.8159716, 14.7520946 ], [ 78.8125786, 14.7639324 ], [ 78.8069218, 14.7728985 ], [ 78.8021663, 14.7754816 ], [ 78.7715033, 14.7634007 ], [ 78.7622255, 14.7659347 ], [ 78.7551096, 14.7628897 ], [ 78.747763, 14.7655041 ], [ 78.7434071, 14.7736298 ], [ 78.7289581, 14.7853964 ], [ 78.7153566, 14.7984382 ], [ 78.7138116, 14.7981037 ], [ 78.6893257, 14.8059688 ], [ 78.6875582, 14.8045504 ], [ 78.6778915, 14.8053698 ], [ 78.6530194, 14.8167146 ], [ 78.6527082, 14.8185297 ], [ 78.6150983, 14.8399546 ], [ 78.5771987, 14.8392079 ], [ 78.5404283, 14.8503124 ], [ 78.4899947, 14.8726648 ], [ 78.4659138, 14.8882961 ], [ 78.449598, 14.8972907 ], [ 78.4247956, 14.9091153 ], [ 78.4063607, 14.9283439 ], [ 78.3816522, 14.945285 ], [ 78.3808261, 14.9443443 ], [ 78.3612004, 14.9543006 ], [ 78.3395105, 14.9671186 ], [ 78.3242863, 14.9677548 ], [ 78.3039444, 14.9519193 ], [ 78.3040704, 14.9498928 ], [ 78.3026757, 14.947786 ], [ 78.3039497, 14.9452852 ], [ 78.3009323, 14.9387546 ], [ 78.3105051, 14.9299328 ], [ 78.3172991, 14.9285929 ], [ 78.317562, 14.9293859 ], [ 78.3152797, 14.9303189 ] ] } },
{ "type": "Feature", "properties": { "name": null, "voltage": 765000.0, "cables": "6", "operator": null }, "geometry": { "type": "LineString", "coordinates": [ [ 79.0232474, 14.7805986 ], [ 79.0232742, 14.7823465 ], [ 79.0262461, 14.7842294 ], [ 79.0297919, 14.7840167 ], [ 79.0336919, 14.7850852 ], [ 79.0365726, 14.7911796 ], [ 79.0429723, 14.79953 ], [ 79.0520167, 14.8007228 ], [ 79.0558898, 14.8062774 ], [ 79.0518987, 14.8434652 ], [ 79.053551, 14.8575586 ], [ 79.047001, 14.8899266 ], [ 79.0302908, 14.9127207 ], [ 79.0276354, 14.9435876 ], [ 79.0422106, 14.9859389 ], [ 79.0435195, 14.9923644 ], [ 79.0417224, 14.999339 ], [ 79.0461856, 15.0049299 ], [ 79.072203, 15.0043237 ], [ 79.075132, 15.0051113 ], [ 79.0808183, 15.0049144 ], [ 79.0908819, 15.0057901 ], [ 79.0997815, 15.0081425 ], [ 79.1092068, 15.0094793 ], [ 79.1335291, 15.0241266 ], [ 79.1497672, 15.073807 ], [ 79.1643316, 15.1058056 ], [ 79.1764337, 15.1185975 ], [ 79.2084887, 15.1341746 ], [ 79.2235279, 15.1548146 ], [ 79.2427218, 15.1647972 ], [ 79.2957812, 15.2074461 ], [ 79.2990643, 15.2090353 ], [ 79.3038869, 15.2141549 ], [ 79.3251085, 15.2517374 ], [ 79.3270343, 15.2730955 ], [ 79.3751092, 15.3147079 ], [ 79.4546163, 15.3519366 ], [ 79.456585, 15.3579165 ], [ 79.4528192, 15.378581 ], [ 79.4509792, 15.3798689 ], [ 79.4524759, 15.3966214 ], [ 79.4978455, 15.4622605 ], [ 79.5108461, 15.4711402 ], [ 79.5129222, 15.4709747 ], [ 79.5218807, 15.4815524 ], [ 79.5376307, 15.51735 ], [ 79.5802188, 15.6396869 ], [ 79.6379936, 15.7022921 ], [ 79.6652877, 15.7399306 ], [ 79.6673638, 15.7403695 ], [ 79.7032839, 15.7686209 ], [ 79.7406363, 15.7957482 ], [ 79.7411245, 15.7984685 ], [ 79.7716749, 15.8224899 ], [ 79.823007, 15.8959767 ], [ 79.8676658, 16.0681197 ], [ 79.867537, 16.0701533 ], [ 79.8737115, 16.0979795 ], [ 79.8761496, 16.1252504 ], [ 79.8753181, 16.1269897 ], [ 79.8760691, 16.1287727 ], [ 79.8945415, 16.1510542 ], [ 79.9075609, 16.1723878 ], [ 79.9211329, 16.1894896 ], [ 79.9241531, 16.1905714 ], [ 79.932543, 16.1969852 ], [ 79.9439263, 16.2098223 ], [ 79.9453211, 16.2124441 ] ] } },
{ "type": "Feature", "properties": { "name": null, "voltage": 765000.0, "cables": "3", "operator": null }, "geometry": { "type": "LineString", "coordinates": [ [ 79.0232474, 14.7805986 ], [ 79.0223354, 14.7756917 ], [ 79.0228772, 14.7729322 ] ] } },
{ "type": "Feature", "properties": { "name": null, "voltage": 765000.0, "cables": "3", "operator": null }, "geometry": { "type": "LineString", "coordinates": [ [ 79.0228772, 14.7729322 ], [ 79.0235799, 14.7756969 ], [ 79.0232474, 14.7805986 ] ] } },
{ "type": "Feature", "properties": { "name": null, "voltage": 765000.0, "cables": "6", "operator": null }, "geometry": { "type": "LineString", "coordinates": [ [ 79.0228772, 14.7729322 ], [ 79.0228075, 14.7703645 ], [ 79.0250069, 14.7631543 ], [ 79.0246797, 14.761152 ], [ 79.0192723, 14.7565715 ], [ 79.0170246, 14.756753 ], [ 79.0102816, 14.7523488 ], [ 79.0073794, 14.7481313 ], [ 78.9951378, 14.7369256 ], [ 78.9943653, 14.7350527 ], [ 78.9838725, 14.7312447 ], [ 78.9777088, 14.7218904 ], [ 78.9674413, 14.7197839 ], [ 78.9473784, 14.722347 ], [ 78.9276749, 14.7158278 ], [ 78.8966954, 14.7266013 ], [ 78.8779575, 14.719125 ], [ 78.871429, 14.7107716 ], [ 78.834039, 14.7105952 ], [ 78.8329232, 14.7090905 ], [ 78.8148987, 14.7048046 ], [ 78.7947178, 14.7016239 ], [ 78.7902814, 14.6919829 ], [ 78.7852764, 14.6541725 ], [ 78.7786889, 14.638353 ], [ 78.7695533, 14.6296903 ], [ 78.7671661, 14.6287508 ], [ 78.755874, 14.620124 ], [ 78.7530523, 14.6080189 ], [ 78.7512284, 14.6051534 ], [ 78.7427473, 14.599085 ], [ 78.718645, 14.5762217 ], [ 78.7141281, 14.5690206 ], [ 78.7128675, 14.5638961 ], [ 78.7091875, 14.5601318 ], [ 78.7015378, 14.5490282 ] ] } },
{ "type": "Feature", "properties": { "name": null, "voltage": 220000.0, "cables": "6", "operator": null }, "geometry": { "type": "LineString", "coordinates": [ [ 78.9787254, 14.8221021 ], [ 78.9842359, 14.8220143 ], [ 79.0160813, 14.8364162 ] ] } },
{ "type": "Feature", "properties": { "name": null, "voltage": 400000.0, "cables": "3", "operator": null }, "geometry": { "type": "LineString", "coordinates": [ [ 79.3352595, 16.1438084 ], [ 79.3401717, 16.1114744 ], [ 79.3568118, 16.0606942 ], [ 79.3570156, 16.0269925 ], [ 79.334966, 15.9802501 ], [ 79.3228257, 15.963046 ], [ 79.2422813, 15.837016 ], [ 79.2312029, 15.8083429 ], [ 79.1987056, 15.7343216 ], [ 79.1526423, 15.6627889 ], [ 79.1440093, 15.6456874 ], [ 79.1452174, 15.6435891 ], [ 79.1519469, 15.6198711 ], [ 79.1601974, 15.5972161 ], [ 79.1566204, 15.5553127 ], [ 79.1307655, 15.5241836 ], [ 79.1196073, 15.5170542 ], [ 79.0893212, 15.4632623 ], [ 79.0808574, 15.4437967 ], [ 79.0504828, 15.3968556 ], [ 79.0396859, 15.3320436 ], [ 79.0422341, 15.2710905 ], [ 79.0315493, 15.2447664 ], [ 79.0116617, 15.1847435 ], [ 79.0149573, 15.1505397 ], [ 79.0177151, 15.1331322 ], [ 78.9871334, 15.0988908 ], [ 78.974872, 15.0688781 ], [ 78.963813, 15.0082988 ], [ 78.8811812, 14.8917138 ], [ 78.8586072, 14.882882 ] ] } },
{ "type": "Feature", "properties": { "name": null, "voltage": 400000.0, "cables": "6", "operator": null }, "geometry": { "type": "LineString", "coordinates": [ [ 78.814071, 14.8666689 ], [ 78.8229774, 14.8688784 ], [ 78.8586072, 14.882882 ] ] } },
{ "type": "Feature", "properties": { "name": null, "voltage": 400000.0, "cables": "3", "operator": null }, "geometry": { "type": "LineString", "coordinates": [ [ 78.8586072, 14.882882 ], [ 78.8838862, 14.8917958 ], [ 78.8862142, 14.8915196 ], [ 78.9041723, 14.9106128 ], [ 78.9452166, 14.9304217 ], [ 78.9655425, 14.9489159 ], [ 78.9799881, 14.9654619 ], [ 79.0020508, 14.9867916 ], [ 79.0090318, 15.0487976 ], [ 79.0142151, 15.0578669 ], [ 79.0197441, 15.0941343 ], [ 79.0232245, 15.1324152 ], [ 79.02101, 15.1994951 ], [ 79.0428741, 15.2706508 ], [ 79.0405741, 15.3321836 ], [ 79.0514317, 15.3973146 ], [ 79.0813297, 15.4434807 ], [ 79.0898073, 15.4630207 ], [ 79.102168, 15.4851183 ], [ 79.1115364, 15.4980292 ], [ 79.1204023, 15.5154612 ], [ 79.131373, 15.5234916 ], [ 79.159027, 15.5551051 ], [ 79.1660888, 15.6014902 ], [ 79.1541838, 15.6212197 ], [ 79.149486, 15.6537812 ], [ 79.1614757, 15.6751629 ], [ 79.2010889, 15.7361772 ], [ 79.2442088, 15.8356833 ], [ 79.2827708, 15.898761 ], [ 79.3089013, 15.9369832 ], [ 79.3236118, 15.9625458 ], [ 79.3359964, 15.9796744 ], [ 79.3445461, 15.9992875 ], [ 79.3607418, 16.0326432 ], [ 79.3588636, 16.0572818 ], [ 79.349878, 16.0868162 ], [ 79.3406646, 16.1125536 ], [ 79.3371896, 16.1377266 ], [ 79.3352595, 16.1438084 ] ] } },
{ "type": "Feature", "properties": { "name": null, "voltage": 400000.0, "cables": "6", "operator": null }, "geometry": { "type": "LineString", "coordinates": [ [ 78.7964345, 14.3846141 ], [ 78.7944098, 14.385343 ], [ 78.79036, 14.4032239 ] ] } },
{ "type": "Feature", "properties": { "name": null, "voltage": 132000.0, "cables": "3", "operator": null }, "geometry": { "type": "LineString", "coordinates": [ [ 78.8372484, 14.4784141 ], [ 78.8385362, 14.4909086 ], [ 78.8371392, 14.5076824 ], [ 78.8295891, 14.5152789 ], [ 78.8139241, 14.5282154 ], [ 78.78947, 14.5414555 ], [ 78.7878902, 14.5407122 ], [ 78.7308462, 14.568289 ], [ 78.7216244, 14.5663123 ], [ 78.7104355, 14.5714793 ], [ 78.7033729, 14.5666208 ], [ 78.6740436, 14.5704597 ], [ 78.6608527, 14.5756189 ], [ 78.646303, 14.5722748 ], [ 78.5939969, 14.5767604 ], [ 78.5847132, 14.5832924 ], [ 78.5834008, 14.5890951 ], [ 78.5799143, 14.5907452 ] ] } },
{ "type": "Feature", "properties": { "name": null, "voltage": 132000.0, "cables": "3", "operator": null }, "geometry": { "type": "LineString", "coordinates": [ [ 78.8374491, 14.4784565 ], [ 78.8395802, 14.4883883 ], [ 78.8366948, 14.5141769 ], [ 78.8226686, 14.5223494 ], [ 78.7940567, 14.5460642 ], [ 78.781709, 14.5497251 ], [ 78.7167525, 14.5759504 ], [ 78.7131049, 14.573338 ], [ 78.7005588, 14.5693692 ], [ 78.6854429, 14.5693356 ], [ 78.6747226, 14.5718607 ], [ 78.6643012, 14.57721 ], [ 78.5931479, 14.5884474 ], [ 78.5620338, 14.6009461 ], [ 78.5596098, 14.6029907 ], [ 78.5430614, 14.6098733 ], [ 78.5424027, 14.6110328 ] ] } },
{ "type": "Feature", "properties": { "name": null, "voltage": 220000.0, "cables": "6", "operator": null }, "geometry": { "type": "LineString", "coordinates": [ [ 78.8011668, 14.3841411 ], [ 78.8057044, 14.3849066 ], [ 78.8145791, 14.404785 ], [ 78.8087454, 14.4145751 ], [ 78.7888316, 14.4188164 ], [ 78.7785606, 14.4247705 ], [ 78.7432559, 14.45058 ], [ 78.7391424, 14.4552674 ], [ 78.7391037, 14.4568145 ], [ 78.6903851, 14.5296465 ], [ 78.6665326, 14.5577923 ], [ 78.631869, 14.5707352 ], [ 78.6303257, 14.5741258 ], [ 78.6268452, 14.5898704 ], [ 78.6296937, 14.6038118 ], [ 78.625693, 14.6296283 ], [ 78.6115989, 14.6430297 ], [ 78.5487761, 14.6646831 ], [ 78.5412411, 14.6655012 ], [ 78.4736255, 14.6920205 ], [ 78.4609389, 14.7048389 ] ] } },
{ "type": "Feature", "properties": { "name": null, "voltage": 400000.0, "cables": "6", "operator": null }, "geometry": { "type": "LineString", "coordinates": [ [ 78.7963359, 14.3839519 ], [ 78.7887684, 14.3856238 ], [ 78.784653, 14.3826406 ], [ 78.7810923, 14.3682011 ], [ 78.7623705, 14.3458624 ], [ 78.7630544, 14.3169992 ], [ 78.7571747, 14.3081054 ], [ 78.7539259, 14.3014245 ], [ 78.750076, 14.2971808 ], [ 78.7427677, 14.2865336 ] ] } },
{ "type": "Feature", "properties": { "name": null, "voltage": 220000.0, "cables": "3", "operator": null }, "geometry": { "type": "LineString", "coordinates": [ [ 78.8086785, 13.6572084 ], [ 78.8024528, 13.6841587 ], [ 78.7992905, 13.7880056 ], [ 78.8010378, 13.7933975 ], [ 78.7886293, 13.8549768 ], [ 78.7754797, 14.0303491 ], [ 78.7705803, 14.0817324 ], [ 78.764822, 14.1287669 ], [ 78.7689356, 14.1915199 ], [ 78.762325, 14.2384381 ], [ 78.7484643, 14.2829047 ], [ 78.7514427, 14.2886694 ], [ 78.757521, 14.3065269 ], [ 78.7610584, 14.3102457 ], [ 78.7658557, 14.3176867 ], [ 78.7644399, 14.3251237 ], [ 78.7699663, 14.3343401 ], [ 78.7921642, 14.3448568 ], [ 78.8114979, 14.3792457 ] ] } },
{ "type": "Feature", "properties": { "name": null, "voltage": 220000.0, "cables": "6", "operator": null }, "geometry": { "type": "LineString", "coordinates": [ [ 78.8010123, 14.3834505 ], [ 78.8114979, 14.3792457 ] ] } },
{ "type": "Feature", "properties": { "name": null, "voltage": 132000.0, "cables": "6", "operator": null }, "geometry": { "type": "LineString", "coordinates": [ [ 78.8014615, 14.3822912 ], [ 78.8029714, 14.3804472 ], [ 78.801734, 14.3782649 ], [ 78.7962842, 14.3776618 ], [ 78.7938048, 14.379665 ], [ 78.7941123, 14.3837086 ] ] } },
{ "type": "Feature", "properties": { "name": null, "voltage": 132000.0, "cables": "6", "operator": null }, "geometry": { "type": "LineString", "coordinates": [ [ 78.7928467, 14.4335014 ], [ 78.8029218, 14.4398369 ] ] } },
{ "type": "Feature", "properties": { "name": null, "voltage": 400000.0, "cables": "3", "operator": null }, "geometry": { "type": "LineString", "coordinates": [ [ 78.79036, 14.4032239 ], [ 78.7883356, 14.412269 ], [ 78.782723, 14.4175622 ], [ 78.7794803, 14.4177049 ], [ 78.7775759, 14.4199251 ], [ 78.7751865, 14.4207966 ], [ 78.7314028, 14.4285576 ], [ 78.6848922, 14.4449651 ], [ 78.6722628, 14.4593245 ], [ 78.674822, 14.5126467 ], [ 78.7068725, 14.5651357 ], [ 78.7106039, 14.5691301 ], [ 78.7119537, 14.57493 ], [ 78.7368409, 14.5985202 ] ] } },
{ "type": "Feature", "properties": { "name": null, "voltage": 400000.0, "cables": "3", "operator": null }, "geometry": { "type": "LineString", "coordinates": [ [ 78.7368409, 14.5985202 ], [ 78.7327323, 14.5927765 ], [ 78.7142576, 14.5759584 ], [ 78.7134547, 14.5710032 ], [ 78.7091415, 14.5627667 ], [ 78.6759158, 14.5124738 ], [ 78.6730693, 14.4619436 ], [ 78.6848608, 14.445973 ], [ 78.7316855, 14.4291561 ], [ 78.777335, 14.4211547 ], [ 78.7798562, 14.4185063 ], [ 78.7835527, 14.4183561 ], [ 78.7890528, 14.4126121 ], [ 78.79036, 14.4032239 ] ] } },
{ "type": "Feature", "properties": { "name": null, "voltage": 132000.0, "cables": "6", "operator": null }, "geometry": { "type": "LineString", "coordinates": [ [ 78.7402846, 14.1096492 ], [ 78.7441097, 14.1326099 ], [ 78.7383859, 14.2268871 ], [ 78.7401785, 14.2494723 ], [ 78.7419518, 14.251036 ], [ 78.7387325, 14.275066 ], [ 78.7430899, 14.2858902 ], [ 78.7517955, 14.2986736 ], [ 78.7554071, 14.302245 ], [ 78.757131, 14.3064551 ], [ 78.7653304, 14.3178879 ], [ 78.7638912, 14.3260656 ], [ 78.7770188, 14.3457947 ], [ 78.7769967, 14.3520788 ], [ 78.7798897, 14.3608261 ], [ 78.7864844, 14.3714425 ] ] } },
{ "type": "Feature", "properties": { "name": null, "voltage": 132000.0, "cables": "6", "operator": null }, "geometry": { "type": "LineString", "coordinates": [ [ 78.4599482, 14.3774975 ], [ 78.4602944, 14.3825358 ], [ 78.4536382, 14.3895782 ], [ 78.4374023, 14.3946943 ], [ 78.4293595, 14.4193049 ], [ 78.4195923, 14.4931837 ], [ 78.4044342, 14.5182009 ], [ 78.4024548, 14.523649 ] ] } },
{ "type": "Feature", "properties": { "name": null, "voltage": 765000.0, "cables": "6", "operator": null }, "geometry": { "type": "LineString", "coordinates": [ [ 78.7993956, 14.3776466 ], [ 78.7994277, 14.3762279 ], [ 78.7973088, 14.3741909 ], [ 78.7920034, 14.3706781 ], [ 78.7868965, 14.3732919 ], [ 78.786124, 14.377605 ], [ 78.7864995, 14.3831079 ], [ 78.7880069, 14.3844434 ], [ 78.7892085, 14.389598 ], [ 78.7878191, 14.3928196 ], [ 78.7873578, 14.3965087 ], [ 78.7876046, 14.4030348 ], [ 78.7845683, 14.4104958 ], [ 78.7718707, 14.4195516 ], [ 78.7535083, 14.4220143 ], [ 78.7478918, 14.4200244 ], [ 78.7336224, 14.4202322 ], [ 78.7007493, 14.4232611 ], [ 78.6344451, 14.4231157 ], [ 78.6071134, 14.4201699 ], [ 78.5999465, 14.4185749 ], [ 78.5937667, 14.4107089 ], [ 78.5516024, 14.4018501 ], [ 78.5424668, 14.406412 ], [ 78.5417265, 14.4086929 ], [ 78.5387492, 14.4099503 ], [ 78.5379767, 14.4120961 ], [ 78.5267758, 14.41778 ], [ 78.5192978, 14.4196556 ], [ 78.5141212, 14.4194321 ], [ 78.4951258, 14.4033829 ], [ 78.4754169, 14.3966542 ], [ 78.4436595, 14.394077 ], [ 78.4420448, 14.3925909 ], [ 78.4361869, 14.3912348 ], [ 78.4218072, 14.3856112 ], [ 78.4222669, 14.3826471 ], [ 78.4291767, 14.3710469 ], [ 78.4303902, 14.3670274 ], [ 78.4460395, 14.3422542 ], [ 78.4661311, 14.3337802 ], [ 78.4704426, 14.3347096 ], [ 78.4806779, 14.331087 ], [ 78.4826627, 14.3266483 ], [ 78.4895989, 14.3188518 ], [ 78.4913155, 14.3141166 ], [ 78.4896268, 14.2915832 ], [ 78.4898641, 14.2812039 ], [ 78.5100897, 14.2528187 ], [ 78.5097573, 14.217193 ], [ 78.5231526, 14.1890033 ], [ 78.5252478, 14.1883488 ], [ 78.5284914, 14.1818979 ], [ 78.5341809, 14.1623995 ], [ 78.5403759, 14.1300904 ], [ 78.5330116, 14.1124464 ], [ 78.5359421, 14.0806266 ], [ 78.5369277, 14.0788529 ], [ 78.5345969, 14.0434836 ], [ 78.5445957, 14.0289362 ], [ 78.5612617, 14.0224185 ], [ 78.5885079, 14.0211471 ], [ 78.5997869, 14.0075345 ], [ 78.6101866, 14.0045394 ], [ 78.6198678, 14.0095066 ], [ 78.6280546, 14.0120684 ], [ 78.6382152, 14.0040321 ], [ 78.6522491, 14.0002146 ], [ 78.6609675, 13.9919284 ], [ 78.6831161, 13.9733829 ], [ 78.6891656, 13.9723131 ], [ 78.6989689, 13.9687912 ], [ 78.7150541, 13.9333897 ], [ 78.7392932, 13.8958987 ], [ 78.7576841, 13.8581601 ], [ 78.7702541, 13.84596 ], [ 78.7766066, 13.8258774 ], [ 78.7819396, 13.8214435 ], [ 78.7842619, 13.8151225 ], [ 78.7898955, 13.7992347 ], [ 78.7966086, 13.7725914 ], [ 78.7991618, 13.7703316 ], [ 78.8045819, 13.7693033 ], [ 78.8178708, 13.7634887 ], [ 78.8200319, 13.7642928 ], [ 78.8385666, 13.7530738 ], [ 78.8463569, 13.7422098 ], [ 78.855267, 13.7384853 ], [ 78.8563214, 13.7344942 ], [ 78.8580598, 13.733106 ], [ 78.8633144, 13.7340456 ], [ 78.8687563, 13.72266 ], [ 78.8780454, 13.7195617 ], [ 78.8817097, 13.7199046 ], [ 78.8867377, 13.7167385 ], [ 78.9065185, 13.7102285 ], [ 78.9187834, 13.7029309 ], [ 78.9519685, 13.6746843 ], [ 78.966351, 13.6741508 ], [ 78.9691744, 13.6695193 ], [ 78.9806899, 13.656073 ], [ 78.9812171, 13.6534438 ], [ 78.9927806, 13.6400009 ], [ 79.0072372, 13.6293476 ], [ 79.0143086, 13.6048338 ], [ 79.0183737, 13.6016451 ], [ 79.0179336, 13.5999384 ], [ 79.0305384, 13.5859461 ], [ 79.0464483, 13.5720737 ], [ 79.0489928, 13.5698925 ], [ 79.0517682, 13.5699857 ], [ 79.0555663, 13.5675612 ], [ 79.0619698, 13.5588829 ], [ 79.066248, 13.5409433 ], [ 79.0637807, 13.5227233 ], [ 79.0651422, 13.5191994 ], [ 79.067273, 13.5186239 ], [ 79.0683511, 13.5157423 ], [ 79.0672476, 13.5137568 ], [ 79.0679241, 13.5064888 ], [ 79.0707779, 13.5040881 ], [ 79.0672434, 13.4700923 ], [ 79.0482732, 13.4496489 ], [ 79.051981, 13.4358943 ], [ 79.0526913, 13.4225214 ], [ 79.065028, 13.3897191 ], [ 79.0637343, 13.3880863 ], [ 79.0623307, 13.3698571 ], [ 79.061409, 13.3664102 ], [ 79.0646053, 13.3527948 ], [ 79.0701353, 13.3431936 ], [ 79.0931809, 13.3323603 ], [ 79.1080671, 13.3039688 ], [ 79.1101599, 13.3031089 ], [ 79.1201825, 13.2907025 ], [ 79.122456, 13.2904915 ], [ 79.1257865, 13.2840001 ], [ 79.1256981, 13.2697726 ], [ 79.1272992, 13.2679429 ], [ 79.1320187, 13.2516652 ], [ 79.1521171, 13.2371817 ], [ 79.1625025, 13.2355111 ], [ 79.1657313, 13.2331603 ], [ 79.1684756, 13.2283371 ], [ 79.168595, 13.2264868 ], [ 79.1711273, 13.223631 ], [ 79.1743783, 13.2111439 ], [ 79.1761431, 13.2104075 ], [ 79.1817604, 13.2016489 ], [ 79.1816631, 13.1910813 ], [ 79.1827866, 13.1891434 ], [ 79.1837751, 13.1824198 ], [ 79.1888905, 13.1691025 ], [ 79.1953219, 13.1615512 ], [ 79.200396, 13.1433314 ], [ 79.1988246, 13.1363777 ], [ 79.1953748, 13.1323017 ], [ 79.1866055, 13.1096498 ], [ 79.1983027, 13.0805299 ], [ 79.2230935, 13.0691811 ], [ 79.2285927, 13.0652509 ], [ 79.2343555, 13.0630175 ], [ 79.241251, 13.0510032 ], [ 79.2442588, 13.0490007 ], [ 79.2448714, 13.0474699 ] ] } },
{ "type": "Feature", "properties": { "name": null, "voltage": 220000.0, "cables": "6", "operator": null }, "geometry": { "type": "LineString", "coordinates": [ [ 78.8007161, 14.3821261 ], [ 78.8035664, 14.380705 ], [ 78.8016513, 14.377556 ], [ 78.7934706, 14.3741939 ], [ 78.7890181, 14.3748409 ], [ 78.7878379, 14.3764986 ], [ 78.7910083, 14.3974496 ], [ 78.7921536, 14.3977393 ], [ 78.7910646, 14.4071074 ], [ 78.7895197, 14.4130512 ], [ 78.7843752, 14.4189117 ], [ 78.7770903, 14.4220757 ], [ 78.7720236, 14.4226758 ], [ 78.7630248, 14.4338819 ], [ 78.7543452, 14.4372561 ], [ 78.7399551, 14.4360404 ], [ 78.7258038, 14.4423546 ], [ 78.7111723, 14.4599464 ], [ 78.696101, 14.4685665 ], [ 78.6944005, 14.4703663 ], [ 78.6970988, 14.4850656 ], [ 78.6893874, 14.4942689 ], [ 78.6805522, 14.5179067 ], [ 78.6781852, 14.5192881 ], [ 78.6689114, 14.5536689 ], [ 78.6624634, 14.5584746 ], [ 78.6445811, 14.5653308 ], [ 78.6450934, 14.566377 ], [ 78.6441976, 14.5677009 ], [ 78.6334902, 14.5729941 ], [ 78.6317199, 14.5833775 ], [ 78.6308013, 14.6036899 ], [ 78.629774, 14.6061946 ], [ 78.6264239, 14.6299087 ], [ 78.6101617, 14.6492839 ], [ 78.5439424, 14.6678541 ], [ 78.5141109, 14.679782 ], [ 78.5127456, 14.6796134 ], [ 78.4830589, 14.688723 ], [ 78.4706591, 14.6958112 ], [ 78.4610547, 14.7051348 ] ] } },
{ "type": "Feature", "properties": { "name": null, "voltage": 400000.0, "cables": "6", "operator": null }, "geometry": { "type": "LineString", "coordinates": [ [ 78.8692376, 13.7264121 ], [ 78.8729337, 13.7305264 ], [ 78.8788694, 13.7339969 ], [ 78.8806477, 13.7399974 ], [ 78.8901401, 13.7431864 ], [ 78.9005095, 13.753376 ], [ 78.9000535, 13.758175 ], [ 78.8968617, 13.7661834 ], [ 78.896454, 13.7701197 ], [ 78.8866666, 13.7804697 ], [ 78.8806236, 13.7886857 ], [ 78.8745457, 13.8006758 ], [ 78.8754094, 13.8081279 ], [ 78.8768685, 13.8110035 ], [ 78.868551, 13.8532733 ], [ 78.8621646, 13.8735096 ], [ 78.862221, 13.8840216 ], [ 78.8642058, 13.8873493 ], [ 78.8637659, 13.8887293 ], [ 78.8478577, 13.9202304 ], [ 78.8380435, 13.9290871 ], [ 78.829777, 13.9583207 ], [ 78.8178143, 13.9708513 ], [ 78.8033706, 14.0140053 ], [ 78.8012088, 14.0259291 ], [ 78.7929502, 14.05514 ], [ 78.7932721, 14.0584496 ], [ 78.7791529, 14.0806399 ], [ 78.7758351, 14.1028801 ], [ 78.7681827, 14.10981 ], [ 78.7660504, 14.1094224 ], [ 78.7570945, 14.1114853 ], [ 78.742412, 14.1180456 ], [ 78.7107486, 14.1297428 ], [ 78.6926195, 14.1383886 ], [ 78.6822581, 14.1421912 ], [ 78.6798307, 14.1445996 ], [ 78.6787659, 14.1543371 ], [ 78.6659275, 14.1898662 ], [ 78.6497055, 14.1991025 ], [ 78.6370723, 14.210221 ], [ 78.619823, 14.2180655 ], [ 78.6110978, 14.2190665 ], [ 78.6002429, 14.2125039 ], [ 78.5900773, 14.2126729 ], [ 78.5851903, 14.2091003 ], [ 78.5786296, 14.2081669 ], [ 78.5732303, 14.2052833 ], [ 78.5604282, 14.2089599 ], [ 78.5455446, 14.2099506 ], [ 78.5329999, 14.214649 ], [ 78.530492, 14.2249165 ], [ 78.5310043, 14.2276542 ], [ 78.4986327, 14.2947174 ], [ 78.4943171, 14.3004485 ], [ 78.4924462, 14.3065225 ], [ 78.4930417, 14.3132227 ], [ 78.4900161, 14.3193484 ], [ 78.4864408, 14.323886 ], [ 78.4836539, 14.3304219 ], [ 78.4818782, 14.331586 ], [ 78.4749125, 14.3416533 ], [ 78.4702347, 14.345177 ], [ 78.4614049, 14.3467855 ], [ 78.4548817, 14.3451094 ], [ 78.4434904, 14.3529908 ], [ 78.440607, 14.3534741 ], [ 78.4381409, 14.3520165 ], [ 78.4356142, 14.352809 ], [ 78.430561, 14.3654192 ], [ 78.4270365, 14.3664663 ], [ 78.4192876, 14.3720085 ], [ 78.4110559, 14.3990808 ], [ 78.4043153, 14.449508 ], [ 78.4181448, 14.4936588 ], [ 78.4196725, 14.4948766 ], [ 78.4252366, 14.5037967 ], [ 78.4265884, 14.5345554 ], [ 78.4259179, 14.5365234 ], [ 78.4278573, 14.5594806 ], [ 78.445297, 14.5963678 ], [ 78.4456135, 14.605743 ], [ 78.4371805, 14.6425612 ], [ 78.4488965, 14.6627828 ], [ 78.4499538, 14.6712844 ], [ 78.4522766, 14.6733861 ], [ 78.4530759, 14.6754022 ], [ 78.4598672, 14.6808251 ], [ 78.4602923, 14.6830071 ], [ 78.4671615, 14.6896519 ], [ 78.4661825, 14.6948045 ], [ 78.4642164, 14.6958942 ] ] } },
{ "type": "Feature", "properties": { "name": null, "voltage": 220000.0, "cables": "6", "operator": null }, "geometry": { "type": "LineString", "coordinates": [ [ 78.4030064, 14.4493469 ], [ 78.3931828, 14.51611 ], [ 78.3917263, 14.5174395 ], [ 78.3901224, 14.5287758 ], [ 78.3936709, 14.5580409 ], [ 78.3887625, 14.5690896 ], [ 78.3844602, 14.5759947 ], [ 78.3843476, 14.5785283 ], [ 78.386547, 14.5871516 ], [ 78.3867227, 14.5934669 ], [ 78.3937179, 14.6069718 ], [ 78.3851402, 14.629357 ], [ 78.3850008, 14.6323285 ], [ 78.3867201, 14.6335535 ], [ 78.3867603, 14.638666 ], [ 78.3770453, 14.6558321 ], [ 78.3748057, 14.6888451 ], [ 78.3773109, 14.6969503 ], [ 78.3855265, 14.7096809 ], [ 78.3859181, 14.7113931 ], [ 78.3816051, 14.7216403 ], [ 78.3818411, 14.7238868 ], [ 78.3833753, 14.7262838 ], [ 78.3947881, 14.732206 ], [ 78.4195771, 14.7657261 ], [ 78.4171041, 14.7731515 ], [ 78.3862748, 14.7893684 ], [ 78.3742049, 14.79963 ], [ 78.371866, 14.8006699 ], [ 78.3602667, 14.8209121 ], [ 78.3539676, 14.8271242 ], [ 78.3544128, 14.8359944 ], [ 78.3505236, 14.8472844 ], [ 78.3476832, 14.8506522 ], [ 78.3432253, 14.8516659 ], [ 78.3408972, 14.8530141 ], [ 78.3401649, 14.8552748 ], [ 78.3360531, 14.8911865 ], [ 78.3197426, 14.9210199 ], [ 78.3208825, 14.9241222 ], [ 78.3198821, 14.9306325 ], [ 78.3156048, 14.9316502 ] ] } },
{ "type": "Feature", "properties": { "name": null, "voltage": 220000.0, "cables": "6", "operator": null }, "geometry": { "type": "LineString", "coordinates": [ [ 78.4030064, 14.4493469 ], [ 78.4046989, 14.452978 ], [ 78.4060776, 14.4525469 ], [ 78.4163654, 14.4580868 ], [ 78.4242484, 14.4605983 ], [ 78.4302726, 14.4639383 ], [ 78.4316164, 14.4637461 ], [ 78.4906518, 14.4881013 ], [ 78.4985697, 14.4855849 ], [ 78.5049131, 14.4853174 ], [ 78.5074854, 14.4864627 ] ] } },
{ "type": "Feature", "properties": { "name": null, "voltage": 132000.0, "cables": "6", "operator": null }, "geometry": { "type": "LineString", "coordinates": [ [ 78.8015638, 14.382816 ], [ 78.8043536, 14.3807229 ], [ 78.8036884, 14.3777947 ], [ 78.7931567, 14.3705391 ], [ 78.7914616, 14.3701598 ], [ 78.787504, 14.3714537 ] ] } },
{ "type": "Feature", "properties": { "name": null, "voltage": 220000.0, "cables": "3", "operator": null }, "geometry": { "type": "LineString", "coordinates": [ [ 78.8114979, 14.3792457 ], [ 78.8327982, 14.4192852 ], [ 78.8487426, 14.458244 ], [ 78.8477001, 14.4747616 ], [ 78.8425001, 14.4808278 ], [ 78.8408902, 14.4814532 ], [ 78.8391266, 14.4805968 ], [ 78.838482, 14.4787724 ] ] } },
{ "type": "Feature", "properties": { "name": null, "voltage": 220000.0, "cables": "6", "operator": null }, "geometry": { "type": "LineString", "coordinates": [ [ 78.4030064, 14.4493469 ], [ 78.4072966, 14.4197714 ], [ 78.4087841, 14.3998913 ], [ 78.4173269, 14.3754771 ], [ 78.4173269, 14.3731569 ], [ 78.4321569, 14.3476562 ], [ 78.4427917, 14.3376682 ], [ 78.4483868, 14.3379905 ], [ 78.4660813, 14.3327008 ], [ 78.467012, 14.3345472 ], [ 78.4696808, 14.3356543 ], [ 78.4714699, 14.3354126 ], [ 78.48185, 14.3310883 ], [ 78.4845684, 14.3255399 ], [ 78.4840226, 14.3246654 ], [ 78.4873727, 14.3208114 ], [ 78.4904358, 14.31424 ], [ 78.4902494, 14.304603 ], [ 78.4871782, 14.2978167 ], [ 78.4885153, 14.2810803 ], [ 78.4876543, 14.2733472 ], [ 78.4886414, 14.2689566 ], [ 78.491501, 14.2680614 ] ] } },
{ "type": "Feature", "properties": { "name": null, "voltage": 400000.0, "cables": "6", "operator": null }, "geometry": { "type": "LineString", "coordinates": [ [ 77.0432855, 13.4791334 ], [ 77.0430207, 13.4783299 ], [ 77.0450217, 13.4763736 ], [ 77.0466793, 13.4723071 ], [ 77.0493427, 13.4704787 ], [ 77.0517325, 13.4700874 ], [ 77.0523173, 13.4716368 ], [ 77.0636201, 13.47713 ], [ 77.0678526, 13.4830979 ], [ 77.0685607, 13.48604 ], [ 77.0748907, 13.4928057 ], [ 77.0810866, 13.4966345 ], [ 77.0867729, 13.505695 ], [ 77.1218723, 13.5167945 ], [ 77.1326923, 13.516565 ], [ 77.1381748, 13.5188965 ], [ 77.1639454, 13.5187504 ], [ 77.1674162, 13.5200179 ], [ 77.1695995, 13.5222919 ], [ 77.1875006, 13.5568852 ], [ 77.1910626, 13.5618029 ], [ 77.2015393, 13.5618081 ], [ 77.2079068, 13.563237 ], [ 77.2150254, 13.5711738 ], [ 77.2216666, 13.5727851 ], [ 77.2382802, 13.5796266 ], [ 77.242502, 13.5803566 ], [ 77.2535795, 13.5925059 ], [ 77.2554892, 13.5928396 ], [ 77.2700697, 13.6133043 ], [ 77.2804928, 13.6220684 ], [ 77.2824025, 13.6254102 ], [ 77.2946924, 13.6330687 ], [ 77.3116064, 13.6385165 ], [ 77.3180169, 13.642077 ], [ 77.3300761, 13.6554326 ], [ 77.3305857, 13.6571111 ], [ 77.3440665, 13.6674946 ], [ 77.3448229, 13.6692043 ], [ 77.3728359, 13.6851436 ], [ 77.3994112, 13.7053397 ], [ 77.408343, 13.7266962 ], [ 77.4101669, 13.7269567 ], [ 77.4263138, 13.7417873 ], [ 77.4429649, 13.7494576 ], [ 77.4483079, 13.7538814 ], [ 77.4954879, 13.7503955 ], [ 77.5194025, 13.762187 ], [ 77.5406349, 13.7751814 ], [ 77.5418848, 13.7749834 ], [ 77.5602418, 13.7869508 ], [ 77.5792479, 13.804549 ], [ 77.5814581, 13.8047938 ], [ 77.5932115, 13.8116494 ], [ 77.5947082, 13.8111076 ], [ 77.615093, 13.8191507 ], [ 77.6197869, 13.8266309 ], [ 77.6564097, 13.8420125 ], [ 77.6648372, 13.8523201 ], [ 77.6887947, 13.8668407 ], [ 77.7106708, 13.8848599 ], [ 77.7158314, 13.8911716 ], [ 77.7520841, 13.909819 ], [ 77.7870119, 13.9364934 ], [ 77.7997363, 13.9424808 ], [ 77.8268588, 13.9712443 ], [ 77.851181, 13.978808 ], [ 77.8844082, 13.9804946 ], [ 77.9019445, 13.9784124 ], [ 77.9254514, 13.9848048 ], [ 77.9585767, 13.983165 ], [ 77.9756784, 13.986585 ], [ 77.9899049, 14.0027055 ], [ 78.0152333, 14.0217198 ], [ 78.0392934, 14.0510336 ], [ 78.0607738, 14.0689368 ], [ 78.0775595, 14.0736336 ], [ 78.0837822, 14.0719529 ], [ 78.125689, 14.0707041 ], [ 78.1422704, 14.0740811 ], [ 78.157618, 14.0784831 ], [ 78.1605631, 14.0798672 ], [ 78.1659865, 14.0842015 ], [ 78.1686795, 14.0841338 ], [ 78.1699777, 14.0855023 ], [ 78.1701922, 14.0891236 ], [ 78.178035, 14.1048675 ], [ 78.1849766, 14.1063242 ], [ 78.1890267, 14.104623 ], [ 78.2028508, 14.1069173 ], [ 78.2061177, 14.1047686 ], [ 78.2174662, 14.1019852 ], [ 78.2303649, 14.1060953 ], [ 78.2461148, 14.1253391 ], [ 78.249017, 14.1452368 ], [ 78.2603306, 14.174578 ], [ 78.2589787, 14.1818906 ], [ 78.2572514, 14.1844443 ], [ 78.2567579, 14.1875336 ], [ 78.2531154, 14.195085 ], [ 78.2531583, 14.2155849 ], [ 78.2768369, 14.2393432 ], [ 78.2957518, 14.2567716 ], [ 78.3087069, 14.2617316 ], [ 78.3204818, 14.2833068 ], [ 78.3368057, 14.3030242 ], [ 78.3423042, 14.3067824 ], [ 78.3819365, 14.3103898 ], [ 78.3917212, 14.315333 ], [ 78.3968174, 14.3248293 ], [ 78.4383058, 14.3428279 ], [ 78.4436327, 14.3432593 ], [ 78.4457838, 14.3446054 ], [ 78.4523445, 14.3454993 ], [ 78.4537393, 14.346679 ], [ 78.4600961, 14.3478536 ], [ 78.4702349, 14.3483473 ], [ 78.4752989, 14.3533832 ], [ 78.4814358, 14.3663181 ], [ 78.4850621, 14.3686982 ], [ 78.4869397, 14.3680798 ], [ 78.5112888, 14.3801876 ], [ 78.5308528, 14.3864647 ], [ 78.5333365, 14.3883353 ], [ 78.5478687, 14.3923259 ], [ 78.5671216, 14.4017202 ], [ 78.5864872, 14.407181 ], [ 78.5917765, 14.4079915 ], [ 78.6055201, 14.4160811 ], [ 78.6084115, 14.4188139 ], [ 78.6406678, 14.4223364 ], [ 78.6658645, 14.4210012 ], [ 78.7082595, 14.421235 ], [ 78.7363529, 14.4174111 ], [ 78.7393248, 14.4196296 ], [ 78.7397379, 14.4220195 ], [ 78.7437719, 14.42802 ], [ 78.7472963, 14.429189 ], [ 78.7611365, 14.4265134 ], [ 78.7670428, 14.427646 ], [ 78.7711412, 14.4293708 ], [ 78.7722087, 14.4305865 ], [ 78.7748641, 14.4309449 ], [ 78.7794775, 14.4279629 ], [ 78.7802821, 14.4245028 ], [ 78.7798154, 14.4226689 ], [ 78.7816662, 14.4208141 ], [ 78.7851262, 14.4195257 ], [ 78.7966651, 14.4112908 ], [ 78.7986606, 14.4082357 ], [ 78.7970191, 14.3941757 ], [ 78.7955815, 14.3914998 ], [ 78.7952918, 14.3880495 ], [ 78.7929314, 14.386049 ], [ 78.7919337, 14.3840744 ], [ 78.7922019, 14.3825571 ], [ 78.7935108, 14.3816789 ], [ 78.7957478, 14.381627 ] ] } },
{ "type": "Feature", "properties": { "name": null, "voltage": 132000.0, "cables": "3", "operator": null }, "geometry": { "type": "LineString", "coordinates": [ [ 78.787504, 14.3714537 ], [ 78.7868406, 14.3720168 ] ] } },
{ "type": "Feature", "properties": { "name": null, "voltage": 132000.0, "cables": "3", "operator": null }, "geometry": { "type": "LineString", "coordinates": [ [ 78.7864844, 14.3714425 ], [ 78.787504, 14.3714537 ] ] } },
{ "type": "Feature", "properties": { "name": null, "voltage": 132000.0, "cables": "3", "operator": null }, "geometry": { "type": "LineString", "coordinates": [ [ 78.7868406, 14.3720168 ], [ 78.7864844, 14.3714425 ] ] } },
{ "type": "Feature", "properties": { "name": null, "voltage": 132000.0, "cables": "6", "operator": null }, "geometry": { "type": "LineString", "coordinates": [ [ 78.7868406, 14.3720168 ], [ 78.7941123, 14.3837086 ] ] } },
{ "type": "Feature", "properties": { "name": null, "voltage": 400000.0, "cables": "6", "operator": null }, "geometry": { "type": "LineString", "coordinates": [ [ 78.5410559, 14.1409817 ], [ 78.5572243, 14.1391454 ], [ 78.5631573, 14.1374288 ], [ 78.5691386, 14.1421677 ], [ 78.5847706, 14.1718058 ], [ 78.5959929, 14.1772826 ], [ 78.6052197, 14.1847563 ], [ 78.6216992, 14.1833157 ], [ 78.6294454, 14.1912469 ], [ 78.6325139, 14.1959223 ], [ 78.6395466, 14.2021785 ], [ 78.6394608, 14.2070045 ], [ 78.6465579, 14.2144357 ], [ 78.6489183, 14.2142329 ], [ 78.6511177, 14.2155225 ], [ 78.6600709, 14.2154549 ], [ 78.6665511, 14.2226518 ], [ 78.6684394, 14.2316476 ], [ 78.6966938, 14.2535221 ], [ 78.7004918, 14.2538548 ], [ 78.7115425, 14.2662287 ], [ 78.714627, 14.2760338 ], [ 78.7297332, 14.2885885 ], [ 78.7387347, 14.2911461 ], [ 78.7528861, 14.3020521 ], [ 78.7618715, 14.3172302 ], [ 78.7612116, 14.3350632 ], [ 78.7620163, 14.3368043 ], [ 78.7761676, 14.345967 ], [ 78.7756902, 14.3592921 ], [ 78.7823474, 14.3677524 ], [ 78.7860703, 14.3818908 ], [ 78.7881625, 14.3831287 ], [ 78.7928349, 14.3830975 ], [ 78.7935752, 14.3821726 ], [ 78.7958443, 14.3820011 ] ] } },
{ "type": "Feature", "properties": { "name": null, "voltage": 132000.0, "cables": "6", "operator": null }, "geometry": { "type": "LineString", "coordinates": [ [ 78.7941123, 14.3837086 ], [ 78.7949979, 14.3858871 ], [ 78.7940508, 14.4005 ], [ 78.7959109, 14.4238399 ], [ 78.7928467, 14.4335014 ], [ 78.7946151, 14.4752925 ], [ 78.7969985, 14.4821095 ], [ 78.8138827, 14.4972377 ], [ 78.8300922, 14.5146909 ] ] } },
{ "type": "Feature", "properties": { "name": null, "voltage": 765000.0, "cables": "6", "operator": null }, "geometry": { "type": "LineString", "coordinates": [ [ 78.8018578, 14.3799616 ], [ 78.8035154, 14.379564 ], [ 78.8054681, 14.3803279 ], [ 78.8068843, 14.3845889 ], [ 78.815183, 14.3989924 ], [ 78.8159555, 14.4064276 ], [ 78.8101029, 14.4154628 ], [ 78.8011444, 14.4197075 ], [ 78.7946266, 14.436592 ], [ 78.7760711, 14.4398441 ], [ 78.7553859, 14.4423376 ], [ 78.7439328, 14.4510597 ], [ 78.7399149, 14.455257 ], [ 78.7396038, 14.4577348 ], [ 78.7081093, 14.5046884 ] ] } },
{ "type": "Feature", "properties": { "name": null, "voltage": 765000.0, "cables": "6", "operator": null }, "geometry": { "type": "LineString", "coordinates": [ [ 78.7987894, 14.3788365 ], [ 78.7982583, 14.3773504 ], [ 78.7942189, 14.3753757 ], [ 78.7907535, 14.3772464 ], [ 78.7898844, 14.3785975 ], [ 78.7902224, 14.3886211 ], [ 78.7909788, 14.3912971 ], [ 78.7893802, 14.3922844 ], [ 78.7884146, 14.4030607 ], [ 78.7852871, 14.4112024 ], [ 78.7717849, 14.4205128 ], [ 78.7535244, 14.4235365 ], [ 78.7476826, 14.4211103 ], [ 78.7336171, 14.4216194 ], [ 78.7272495, 14.4243937 ], [ 78.7105125, 14.4249237 ], [ 78.6969244, 14.4278486 ], [ 78.6542022, 14.4247678 ], [ 78.6319077, 14.4271992 ], [ 78.6259317, 14.4265342 ], [ 78.615278, 14.4240249 ], [ 78.6050481, 14.4231728 ], [ 78.6033797, 14.4212713 ], [ 78.5955048, 14.4175098 ], [ 78.5882842, 14.4171046 ], [ 78.5857791, 14.4188555 ], [ 78.582598, 14.4183931 ], [ 78.5761017, 14.4163305 ], [ 78.5641229, 14.4081162 ], [ 78.5501379, 14.4068121 ], [ 78.5467476, 14.4077993 ], [ 78.5447895, 14.413634 ], [ 78.5316467, 14.4169643 ], [ 78.5236055, 14.4214791 ], [ 78.5150599, 14.4220247 ], [ 78.4931785, 14.4063237 ], [ 78.4714526, 14.3982442 ], [ 78.4585297, 14.3958852 ], [ 78.4407306, 14.3944511 ], [ 78.4393465, 14.3927572 ], [ 78.4223306, 14.3894993 ], [ 78.4210535, 14.3905345 ], [ 78.4196184, 14.4003463 ], [ 78.4258932, 14.4388262 ], [ 78.4276053, 14.4396246 ], [ 78.4348189, 14.4911049 ], [ 78.4292174, 14.5377941 ], [ 78.4515049, 14.5960275 ], [ 78.4400934, 14.6421207 ], [ 78.4466, 14.6566141 ], [ 78.4570105, 14.6739173 ], [ 78.4804985, 14.6864917 ], [ 78.4889951, 14.706657 ], [ 78.4576449, 14.7663509 ], [ 78.4575399, 14.7698457 ], [ 78.4658209, 14.7794547 ], [ 78.4734777, 14.7958179 ], [ 78.4552744, 14.8269672 ], [ 78.4560983, 14.8294093 ], [ 78.4320922, 14.8772265 ], [ 78.4329663, 14.879571 ], [ 78.3961682, 14.9333964 ], [ 78.3938829, 14.9334327 ], [ 78.3663723, 14.9583258 ], [ 78.2778641, 15.1628199 ], [ 78.2613322, 15.2398796 ], [ 78.2405581, 15.3082676 ], [ 78.2422237, 15.3153306 ], [ 78.2395381, 15.3599699 ], [ 78.2186837, 15.4028801 ], [ 78.2200028, 15.4098395 ], [ 78.2175166, 15.4134001 ], [ 78.1848039, 15.4197966 ], [ 78.1824437, 15.4210725 ], [ 78.1816682, 15.4246118 ], [ 78.1719731, 15.4353823 ], [ 78.1723398, 15.4446037 ], [ 78.1769628, 15.4647173 ], [ 78.1699873, 15.4750185 ], [ 78.1732037, 15.4887081 ], [ 78.1775003, 15.5199717 ], [ 78.1741832, 15.5314531 ], [ 78.1757767, 15.533359 ], [ 78.1749981, 15.5428951 ], [ 78.1693472, 15.5539479 ], [ 78.1710286, 15.5642362 ], [ 78.1697454, 15.5658318 ], [ 78.1691348, 15.5727381 ], [ 78.1746335, 15.5841342 ], [ 78.1770438, 15.5855108 ], [ 78.1894144, 15.6171862 ], [ 78.1887001, 15.6307955 ], [ 78.1783801, 15.6689487 ] ] } },
{ "type": "Feature", "properties": { "name": null, "voltage": 400000.0, "cables": "6", "operator": null }, "geometry": { "type": "LineString", "coordinates": [ [ 78.4311953, 14.0500402 ], [ 78.4326169, 14.05093 ], [ 78.4337193, 14.0542293 ], [ 78.432523, 14.0688568 ], [ 78.4349638, 14.1070422 ], [ 78.4280008, 14.1292356 ], [ 78.4624994, 14.1605034 ], [ 78.4749234, 14.162532 ], [ 78.4780884, 14.1623447 ], [ 78.4820098, 14.1586517 ], [ 78.4899867, 14.1536895 ], [ 78.5080218, 14.1512967 ], [ 78.5124099, 14.1498195 ], [ 78.5213524, 14.144238 ], [ 78.535375, 14.1411013 ] ] } },
{ "type": "Feature", "properties": { "name": "HVDC Raigarh - Pugalur", "voltage": 800000.0, "cables": "2", "operator": "Power Grid Corporation of India Ltd" }, "geometry": { "type": "LineString", "coordinates": [ [ 78.4630331, 14.8271046 ], [ 78.4711361, 14.8115363 ], [ 78.4770048, 14.794888 ], [ 78.47274, 14.7881921 ], [ 78.4709322, 14.7871703 ], [ 78.4673649, 14.776838 ], [ 78.4619522, 14.7647831 ], [ 78.4941253, 14.7088388 ], [ 78.483603, 14.6857249 ], [ 78.4579879, 14.6732446 ], [ 78.4520441, 14.6622582 ], [ 78.4431928, 14.641981 ], [ 78.4441745, 14.6293321 ], [ 78.4535569, 14.5959754 ], [ 78.4415299, 14.5633925 ], [ 78.4343845, 14.5406137 ], [ 78.4343415, 14.5250458 ], [ 78.4387726, 14.4908163 ], [ 78.4483534, 14.4715986 ], [ 78.4562337, 14.4511532 ], [ 78.4615928, 14.4209284 ], [ 78.4719032, 14.4134625 ], [ 78.4795958, 14.4018397 ], [ 78.4799311, 14.3994756 ], [ 78.4813017, 14.3975635 ], [ 78.4839678, 14.3962489 ], [ 78.4904587, 14.3899981 ], [ 78.4915799, 14.3862023 ], [ 78.4785819, 14.3715771 ], [ 78.4788072, 14.3609005 ], [ 78.4821895, 14.3586841 ], [ 78.4891632, 14.3456422 ], [ 78.4879965, 14.343766 ], [ 78.4896594, 14.3330622 ], [ 78.4890532, 14.3303803 ], [ 78.4973091, 14.3208634 ], [ 78.4943855, 14.308321 ], [ 78.4894878, 14.3060546 ], [ 78.4807947, 14.2860698 ], [ 78.4812614, 14.2710657 ], [ 78.4845139, 14.264679 ], [ 78.4863826, 14.2577639 ], [ 78.497839, 14.1954152 ], [ 78.513633, 14.1744896 ], [ 78.5341787, 14.1499443 ], [ 78.5316253, 14.1410493 ], [ 78.5256869, 14.1279714 ], [ 78.5328682, 14.0750634 ], [ 78.5344331, 14.0738014 ], [ 78.5349605, 14.0704074 ], [ 78.5327491, 14.0435117 ], [ 78.5359222, 14.0384715 ], [ 78.5373545, 14.02799 ], [ 78.5603499, 14.0183961 ], [ 78.5736644, 14.0099943 ], [ 78.5738095, 14.0041257 ], [ 78.5960647, 13.9915649 ], [ 78.6110584, 13.9915692 ], [ 78.6196822, 13.9864236 ], [ 78.6450639, 13.9881232 ], [ 78.6567289, 13.9816008 ], [ 78.6598054, 13.9602209 ], [ 78.6662158, 13.9350825 ], [ 78.6777279, 13.9233779 ], [ 78.6909512, 13.9121101 ], [ 78.7198681, 13.8936738 ], [ 78.7198332, 13.8922078 ], [ 78.7372756, 13.8687677 ], [ 78.7388849, 13.8674995 ], [ 78.7445497, 13.8357568 ], [ 78.7479025, 13.8053929 ], [ 78.7514296, 13.7949399 ], [ 78.7541038, 13.7823426 ], [ 78.7660423, 13.772743 ], [ 78.7872559, 13.7491345 ], [ 78.7903941, 13.7478735 ], [ 78.7930486, 13.7393826 ], [ 78.8020912, 13.7360787 ] ] } },
{ "type": "Feature", "properties": { "name": "HVDC Raigarh - Pugalur", "voltage": 800000.0, "cables": "2", "operator": "Power Grid Corporation of India Ltd" }, "geometry": { "type": "LineString", "coordinates": [ [ 78.1391644, 15.9116707 ], [ 78.1350553, 15.9061248 ], [ 78.1431985, 15.887536 ], [ 78.1481123, 15.8792651 ], [ 78.1625909, 15.86861 ], [ 78.1798321, 15.8752714 ], [ 78.1919986, 15.8669691 ], [ 78.204444, 15.8338958 ], [ 78.2089287, 15.8290806 ], [ 78.2116914, 15.8189029 ], [ 78.2147545, 15.7963934 ], [ 78.2163691, 15.767609 ], [ 78.2187885, 15.753618 ], [ 78.210876, 15.681629 ], [ 78.2112622, 15.6795527 ], [ 78.194595, 15.6335188 ], [ 78.1898274, 15.6261518 ], [ 78.1880025, 15.6252731 ], [ 78.1840968, 15.6197459 ], [ 78.1792098, 15.5989195 ], [ 78.1752884, 15.5927088 ], [ 78.173663, 15.5921405 ], [ 78.1688994, 15.5753677 ], [ 78.1680304, 15.5733421 ], [ 78.1650156, 15.5704379 ], [ 78.1643128, 15.5599734 ], [ 78.1703156, 15.5553688 ], [ 78.1761843, 15.5432755 ], [ 78.1768656, 15.5314089 ], [ 78.1757122, 15.5297032 ], [ 78.1782979, 15.524607 ], [ 78.1816882, 15.5137834 ], [ 78.1746501, 15.4919072 ], [ 78.1801969, 15.4773312 ], [ 78.1768334, 15.4674823 ], [ 78.1780726, 15.4658201 ], [ 78.1753689, 15.4504487 ], [ 78.1750807, 15.4461742 ], [ 78.1757069, 15.4440164 ], [ 78.1740814, 15.436679 ], [ 78.1764418, 15.4323147 ], [ 78.1827718, 15.424827 ], [ 78.1876722, 15.4210132 ], [ 78.2183379, 15.4143137 ], [ 78.2208055, 15.4123227 ], [ 78.221173, 15.4091603 ], [ 78.2321835, 15.3957939 ], [ 78.2410616, 15.364398 ], [ 78.2523215, 15.3422266 ], [ 78.2593596, 15.3375603 ], [ 78.2619667, 15.3253767 ], [ 78.2635009, 15.323628 ], [ 78.2642358, 15.3206272 ], [ 78.2808012, 15.2499001 ], [ 78.2791275, 15.2482594 ], [ 78.3044958, 15.1490878 ], [ 78.346518, 15.0394386 ], [ 78.3466789, 15.0145829 ], [ 78.3559758, 14.9850591 ], [ 78.3576771, 14.9817896 ] ] } },
{ "type": "Feature", "properties": { "name": "HVDC Raigarh - Pugalur", "voltage": 800000.0, "cables": "2", "operator": "Power Grid Corporation of India Ltd" }, "geometry": { "type": "LineString", "coordinates": [ [ 78.3662778, 14.9659796 ], [ 78.3693033, 14.9599627 ], [ 78.3964097, 14.9499937 ], [ 78.4135598, 14.9220771 ], [ 78.4127229, 14.9205428 ], [ 78.438676, 14.8772713 ], [ 78.4382442, 14.8752079 ], [ 78.4630331, 14.8271046 ] ] } },
{ "type": "Feature", "properties": { "name": null, "voltage": 220000.0, "cables": "3", "operator": null }, "geometry": { "type": "LineString", "coordinates": [ [ 78.838131, 14.4788998 ], [ 78.8410574, 14.4884067 ], [ 78.8380734, 14.5150822 ], [ 78.8235946, 14.5231034 ], [ 78.7955625, 14.5460748 ], [ 78.7693586, 14.5722337 ], [ 78.767392, 14.5791114 ], [ 78.7716734, 14.5841441 ], [ 78.7655517, 14.666883 ], [ 78.7430958, 14.720003 ] ] } },
{ "type": "Feature", "properties": { "name": null, "voltage": 220000.0, "cables": "6", "operator": null }, "geometry": { "type": "LineString", "coordinates": [ [ 78.801182, 14.3842091 ], [ 78.8006939, 14.3820266 ] ] } },
{ "type": "Feature", "properties": { "name": null, "voltage": 765000.0, "cables": "6", "operator": null }, "geometry": { "type": "LineString", "coordinates": [ [ 78.798709, 14.3800156 ], [ 78.8006778, 14.3795739 ] ] } },
{ "type": "Feature", "properties": { "name": null, "voltage": 765000.0, "cables": "3", "operator": null }, "geometry": { "type": "LineString", "coordinates": [ [ 78.7988712, 14.3799793 ], [ 78.7987894, 14.3788365 ], [ 78.7991869, 14.3799084 ] ] } },
{ "type": "Feature", "properties": { "name": null, "voltage": 765000.0, "cables": "3", "operator": null }, "geometry": { "type": "LineString", "coordinates": [ [ 78.799485, 14.3798415 ], [ 78.7993956, 14.3776466 ], [ 78.7997956, 14.3797719 ] ] } },
{ "type": "Feature", "properties": { "name": null, "voltage": 765000.0, "cables": "3", "operator": null }, "geometry": { "type": "LineString", "coordinates": [ [ 78.8004222, 14.3796313 ], [ 78.8018578, 14.3799616 ], [ 78.8008038, 14.3803612 ], [ 78.8001415, 14.3796943 ] ] } },
{ "type": "Feature", "properties": { "name": null, "voltage": 765000.0, "cables": "3", "operator": null }, "geometry": { "type": "LineString", "coordinates": [ [ 78.7993436, 14.3798733 ], [ 78.7992616, 14.3805768 ] ] } },
{ "type": "Feature", "properties": { "name": null, "voltage": 765000.0, "cables": "3", "operator": null }, "geometry": { "type": "LineString", "coordinates": [ [ 78.7989156, 14.3799693 ], [ 78.798768, 14.3806626 ] ] } },
{ "type": "Feature", "properties": { "name": null, "voltage": 400000.0, "cables": "3", "operator": null }, "geometry": { "type": "LineString", "coordinates": [ [ 78.7992616, 14.3805768 ], [ 78.7994493, 14.3813563 ], [ 78.797084, 14.3818621 ] ] } },
{ "type": "Feature", "properties": { "name": null, "voltage": 400000.0, "cables": "3", "operator": null }, "geometry": { "type": "LineString", "coordinates": [ [ 78.798768, 14.3806626 ], [ 78.7989209, 14.381255 ], [ 78.7970397, 14.3816807 ] ] } },
{ "type": "Feature", "properties": { "name": null, "voltage": 400000.0, "cables": "6", "operator": null }, "geometry": { "type": "LineString", "coordinates": [ [ 78.796885, 14.3810467 ], [ 78.7971195, 14.3820074 ] ] } },
{ "type": "Feature", "properties": { "name": null, "voltage": 400000.0, "cables": "3", "operator": null }, "geometry": { "type": "LineString", "coordinates": [ [ 78.7969306, 14.3812336 ], [ 78.7957478, 14.381627 ], [ 78.7969858, 14.3814597 ] ] } },
{ "type": "Feature", "properties": { "name": null, "voltage": 400000.0, "cables": "3", "operator": null }, "geometry": { "type": "LineString", "coordinates": [ [ 78.7970397, 14.3816807 ], [ 78.7958443, 14.3820011 ], [ 78.797074, 14.3818211 ] ] } },
{ "type": "Feature", "properties": { "name": null, "voltage": 400000.0, "cables": null, "operator": null }, "geometry": { "type": "LineString", "coordinates": [ [ 78.7971195, 14.3820074 ], [ 78.7971372, 14.3820731 ] ] } },
{ "type": "Feature", "properties": { "name": null, "voltage": 400000.0, "cables": "3", "operator": null }, "geometry": { "type": "LineString", "coordinates": [ [ 78.7970541, 14.382089 ], [ 78.7972714, 14.3820474 ] ] } },
{ "type": "Feature", "properties": { "name": null, "voltage": 400000.0, "cables": "3", "operator": null }, "geometry": { "type": "LineString", "coordinates": [ [ 78.7970541, 14.382089 ], [ 78.7981323, 14.3820864 ], [ 78.7987777, 14.3847029 ] ] } },
{ "type": "Feature", "properties": { "name": null, "voltage": 400000.0, "cables": "3", "operator": null }, "geometry": { "type": "LineString", "coordinates": [ [ 78.7972714, 14.3820474 ], [ 78.7983094, 14.3818266 ], [ 78.7989665, 14.3846598 ], [ 78.7977059, 14.3849248 ] ] } },
{ "type": "Feature", "properties": { "name": null, "voltage": 132000.0, "cables": "6", "operator": null }, "geometry": { "type": "LineString", "coordinates": [ [ 78.8016112, 14.3830594 ], [ 78.8014502, 14.3822332 ] ] } },
{ "type": "Feature", "properties": { "name": null, "voltage": 132000.0, "cables": "3", "operator": null }, "geometry": { "type": "LineString", "coordinates": [ [ 78.8012035, 14.3828931 ], [ 78.8015638, 14.382816 ] ] } },
{ "type": "Feature", "properties": { "name": null, "voltage": 220000.0, "cables": "3", "operator": null }, "geometry": { "type": "LineString", "coordinates": [ [ 78.8009006, 14.3829508 ], [ 78.8012035, 14.3828931 ] ] } },
{ "type": "Feature", "properties": { "name": null, "voltage": 132000.0, "cables": "3", "operator": null }, "geometry": { "type": "LineString", "coordinates": [ [ 78.8011, 14.3824445 ], [ 78.801476, 14.3823652 ] ] } },
{ "type": "Feature", "properties": { "name": null, "voltage": 220000.0, "cables": "3", "operator": null }, "geometry": { "type": "LineString", "coordinates": [ [ 78.8008014, 14.3825074 ], [ 78.8011, 14.3824445 ] ] } },
{ "type": "Feature", "properties": { "name": null, "voltage": 400000.0, "cables": "3", "operator": null }, "geometry": { "type": "LineString", "coordinates": [ [ 78.7976844, 14.3828411 ], [ 78.7995995, 14.3824358 ] ] } },
{ "type": "Feature", "properties": { "name": null, "voltage": 400000.0, "cables": "3", "operator": null }, "geometry": { "type": "LineString", "coordinates": [ [ 78.7990631, 14.3820981 ], [ 78.7994708, 14.3838804 ], [ 78.7964345, 14.3846141 ] ] } },
{ "type": "Feature", "properties": { "name": null, "voltage": 400000.0, "cables": "3", "operator": null }, "geometry": { "type": "LineString", "coordinates": [ [ 78.7976844, 14.3828411 ], [ 78.7981458, 14.3848469 ] ] } },
{ "type": "Feature", "properties": { "name": null, "voltage": 400000.0, "cables": "3", "operator": null }, "geometry": { "type": "LineString", "coordinates": [ [ 78.7963359, 14.3839519 ], [ 78.7996693, 14.3830594 ] ] } },
{ "type": "Feature", "properties": { "name": null, "voltage": 400000.0, "cables": "3", "operator": null }, "geometry": { "type": "LineString", "coordinates": [ [ 78.7964345, 14.3846141 ], [ 78.7988633, 14.3842326 ] ] } },
{ "type": "Feature", "properties": { "name": null, "voltage": 400000.0, "cables": "3", "operator": null }, "geometry": { "type": "LineString", "coordinates": [ [ 78.7963359, 14.3839519 ], [ 78.7997283, 14.3833504 ] ] } },
{ "type": "Feature", "properties": { "name": null, "voltage": 400000.0, "cables": "3", "operator": null }, "geometry": { "type": "LineString", "coordinates": [ [ 78.7977435, 14.3830961 ], [ 78.7996746, 14.3826541 ] ] } },
{ "type": "Feature", "properties": { "name": null, "voltage": 220000.0, "cables": "3", "operator": null }, "geometry": { "type": "LineString", "coordinates": [ [ 78.7995995, 14.3824358 ], [ 78.8007283, 14.3821806 ] ] } },
{ "type": "Feature", "properties": { "name": null, "voltage": 220000.0, "cables": "3", "operator": null }, "geometry": { "type": "LineString", "coordinates": [ [ 78.7996746, 14.3826541 ], [ 78.8007797, 14.3824104 ] ] } },
{ "type": "Feature", "properties": { "name": null, "voltage": 220000.0, "cables": "3", "operator": null }, "geometry": { "type": "LineString", "coordinates": [ [ 78.7996693, 14.3830594 ], [ 78.8008659, 14.3827959 ] ] } },
{ "type": "Feature", "properties": { "name": null, "voltage": 220000.0, "cables": "3", "operator": null }, "geometry": { "type": "LineString", "coordinates": [ [ 78.7997283, 14.3833504 ], [ 78.800937, 14.3831138 ] ] } },
{ "type": "Feature", "properties": { "name": null, "voltage": 220000.0, "cables": "3", "operator": null }, "geometry": { "type": "LineString", "coordinates": [ [ 78.7430958, 14.720003 ], [ 78.7309186, 14.7431896 ], [ 78.7105826, 14.8103949 ], [ 78.6944197, 14.8780028 ], [ 78.6683529, 14.9317192 ], [ 78.6541451, 14.9632293 ], [ 78.6221274, 15.0879229 ], [ 78.6245947, 15.188429 ], [ 78.6191109, 15.2555042 ], [ 78.63048, 15.3867047 ], [ 78.6067687, 15.5075006 ], [ 78.6143815, 15.5464954 ], [ 78.6286205, 15.5897788 ], [ 78.6527401, 15.6772442 ], [ 78.6630887, 15.7758895 ], [ 78.7809905, 15.8842515 ], [ 78.7992713, 15.8901422 ], [ 78.8377876, 15.9290707 ], [ 78.8553838, 15.9802567 ], [ 78.8758948, 15.9991315 ], [ 78.8832552, 16.0215014 ], [ 78.8808416, 16.028996 ], [ 78.8853788, 16.0361967 ], [ 78.8832368, 16.0451273 ], [ 78.8868901, 16.0554992 ], [ 78.8909713, 16.0623994 ], [ 78.8958497, 16.0749122 ], [ 78.9058811, 16.0863195 ], [ 78.904548, 16.0887269 ] ] } },
{ "type": "Feature", "properties": { "name": null, "voltage": 400000.0, "cables": "3", "operator": null }, "geometry": { "type": "LineString", "coordinates": [ [ 78.7453127, 14.6082798 ], [ 78.7496957, 14.6123409 ], [ 78.744471, 14.6600593 ], [ 78.753754, 14.6775225 ], [ 78.7634253, 14.6874567 ], [ 78.7549793, 14.736125 ], [ 78.748076, 14.7471387 ], [ 78.75714, 14.7691229 ], [ 78.7620582, 14.7781776 ], [ 78.7720973, 14.7903582 ], [ 78.7743399, 14.8182124 ], [ 78.7836457, 14.8349414 ], [ 78.7882791, 14.8525625 ], [ 78.7981388, 14.8630952 ], [ 78.807624, 14.8644146 ], [ 78.814071, 14.8666689 ] ] } },
{ "type": "Feature", "properties": { "name": null, "voltage": 132000.0, "cables": "3", "operator": null }, "geometry": { "type": "LineString", "coordinates": [ [ 78.5782687, 14.5908105 ], [ 78.5735981, 14.5911194 ], [ 78.5582148, 14.6019012 ], [ 78.5433639, 14.6088134 ], [ 78.5424027, 14.6110328 ] ] } },
{ "type": "Feature", "properties": { "name": null, "voltage": 132000.0, "cables": "6", "operator": null }, "geometry": { "type": "LineString", "coordinates": [ [ 78.5794048, 14.5939861 ], [ 78.5784875, 14.5910461 ] ] } },
{ "type": "Feature", "properties": { "name": null, "voltage": 132000.0, "cables": "3", "operator": null }, "geometry": { "type": "LineString", "coordinates": [ [ 77.628851, 15.1367825 ], [ 77.6299925, 15.1369554 ], [ 77.639316, 15.1314937 ], [ 77.6434021, 15.1276981 ], [ 77.6472968, 15.1264961 ], [ 77.6495943, 15.1244469 ], [ 77.6550183, 15.1238571 ], [ 77.6648625, 15.1110292 ], [ 77.6965503, 15.0826714 ], [ 77.7668556, 15.0599713 ], [ 77.8174092, 15.0377161 ], [ 77.8634772, 14.9774606 ], [ 77.8643695, 14.9751645 ], [ 77.8662735, 14.9731827 ], [ 77.8687877, 14.9723305 ], [ 77.8795793, 14.9618089 ], [ 77.9010061, 14.9329402 ], [ 78.046174, 14.8412745 ], [ 78.0790846, 14.8194194 ], [ 78.1426855, 14.7792179 ], [ 78.1465299, 14.7680712 ], [ 78.154376, 14.7651717 ], [ 78.1727176, 14.7718372 ], [ 78.1882833, 14.7716801 ], [ 78.2127235, 14.7578937 ], [ 78.2167091, 14.7543231 ], [ 78.2179658, 14.7543342 ], [ 78.2338279, 14.7451916 ], [ 78.2417435, 14.7362851 ], [ 78.2441187, 14.7347203 ], [ 78.2441149, 14.7335893 ], [ 78.264563, 14.7105882 ], [ 78.3306317, 14.671795 ], [ 78.4268005, 14.6419979 ], [ 78.4655506, 14.640515 ], [ 78.5169938, 14.6206711 ], [ 78.5178808, 14.6210015 ] ] } },
{ "type": "Feature", "properties": { "name": null, "voltage": 132000.0, "cables": "6", "operator": null }, "geometry": { "type": "LineString", "coordinates": [ [ 78.528504, 14.6406441 ], [ 78.5280114, 14.6378782 ], [ 78.5285609, 14.6319191 ], [ 78.5393176, 14.6241656 ] ] } },
{ "type": "Feature", "properties": { "name": null, "voltage": 132000.0, "cables": "6", "operator": null }, "geometry": { "type": "LineString", "coordinates": [ [ 78.4065718, 14.6482859 ], [ 78.4095683, 14.6731371 ], [ 78.4051606, 14.6861869 ], [ 78.4037176, 14.6876969 ] ] } },
{ "type": "Feature", "properties": { "name": null, "voltage": 132000.0, "cables": "3", "operator": null }, "geometry": { "type": "LineString", "coordinates": [ [ 78.5402786, 14.6232967 ], [ 78.5387132, 14.6103092 ], [ 78.5322938, 14.5954867 ], [ 78.5293517, 14.5948392 ], [ 78.5234172, 14.5967216 ], [ 78.5187064, 14.6005596 ], [ 78.5187626, 14.6022712 ] ] } },
{ "type": "Feature", "properties": { "name": null, "voltage": 132000.0, "cables": "6", "operator": null }, "geometry": { "type": "LineString", "coordinates": [ [ 78.5388386, 14.6240248 ], [ 78.5335104, 14.623686 ], [ 78.530839, 14.625886 ], [ 78.5310501, 14.6274173 ], [ 78.5290013, 14.6290706 ], [ 78.5280538, 14.6330508 ], [ 78.5266283, 14.6348634 ], [ 78.5255988, 14.6359098 ], [ 78.52108, 14.6369925 ], [ 78.5202362, 14.6364512 ], [ 78.5185577, 14.6316479 ], [ 78.5187332, 14.6265234 ], [ 78.5178808, 14.6210015 ] ] } },
{ "type": "Feature", "properties": { "name": null, "voltage": 132000.0, "cables": "6", "operator": null }, "geometry": { "type": "LineString", "coordinates": [ [ 78.5178808, 14.6210015 ], [ 78.5175935, 14.6041447 ], [ 78.5183689, 14.6026567 ], [ 78.5182037, 14.6000708 ], [ 78.5216643, 14.5978077 ], [ 78.5264887, 14.6011784 ], [ 78.5304108, 14.6065796 ], [ 78.5305411, 14.6126124 ], [ 78.5390162, 14.6181147 ], [ 78.5399456, 14.6234655 ] ] } },
{ "type": "Feature", "properties": { "name": null, "voltage": 220000.0, "cables": "6", "operator": null }, "geometry": { "type": "LineString", "coordinates": [ [ 78.2282736, 14.4637856 ], [ 78.2247571, 14.4644201 ], [ 78.2248546, 14.4740507 ], [ 78.2315724, 14.4805756 ], [ 78.2517022, 14.4829985 ], [ 78.3056829, 14.4958536 ], [ 78.3562404, 14.5281492 ], [ 78.3771711, 14.5459947 ], [ 78.3839771, 14.5489611 ], [ 78.4003816, 14.5657225 ], [ 78.4053399, 14.5724909 ], [ 78.4000196, 14.5923507 ], [ 78.4238343, 14.6448867 ], [ 78.4332884, 14.6606937 ], [ 78.4540563, 14.6730582 ], [ 78.4696124, 14.689628 ], [ 78.469777, 14.6917876 ], [ 78.4604075, 14.7034815 ] ] } },
{ "type": "Feature", "properties": { "name": null, "voltage": 400000.0, "cables": "3", "operator": null }, "geometry": { "type": "LineString", "coordinates": [ [ 78.7453127, 14.6082798 ], [ 78.7463239, 14.609873 ], [ 78.743151, 14.6263948 ], [ 78.7386322, 14.6575432 ], [ 78.7545644, 14.6804026 ], [ 78.762016, 14.6896236 ], [ 78.7538006, 14.7365602 ], [ 78.7466242, 14.7479661 ], [ 78.7589956, 14.7759691 ], [ 78.7706649, 14.7909855 ], [ 78.7733912, 14.822301 ], [ 78.7833795, 14.848285 ], [ 78.7977595, 14.8637299 ], [ 78.814071, 14.8666689 ] ] } },
{ "type": "Feature", "properties": { "name": null, "voltage": 400000.0, "cables": "6", "operator": null }, "geometry": { "type": "LineString", "coordinates": [ [ 78.7368409, 14.5985202 ], [ 78.7453127, 14.6082798 ] ] } },
{ "type": "Feature", "properties": { "name": null, "voltage": 132000.0, "cables": "6", "operator": null }, "geometry": { "type": "LineString", "coordinates": [ [ 78.5414017, 14.6246257 ], [ 78.5459649, 14.622442 ], [ 78.5488886, 14.6220811 ], [ 78.5513982, 14.6242599 ], [ 78.554204, 14.6362736 ], [ 78.5434694, 14.6706449 ], [ 78.5336912, 14.6814466 ], [ 78.525601, 14.7379761 ], [ 78.5260817, 14.7434262 ], [ 78.5275472, 14.7478341 ] ] } },
{ "type": "Feature", "properties": { "name": null, "voltage": 220000.0, "cables": "6", "operator": null }, "geometry": { "type": "LineString", "coordinates": [ [ 78.460524, 14.7037791 ], [ 78.4726582, 14.6906909 ], [ 78.541894, 14.6631686 ], [ 78.5518566, 14.6426561 ], [ 78.5534686, 14.6363925 ], [ 78.551716, 14.6303366 ], [ 78.5485811, 14.6241107 ], [ 78.5467298, 14.6238453 ], [ 78.541088, 14.6256765 ] ] } },
{ "type": "Feature", "properties": { "name": null, "voltage": 132000.0, "cables": "6", "operator": null }, "geometry": { "type": "LineString", "coordinates": [ [ 78.5424027, 14.6110328 ], [ 78.5427614, 14.615802 ], [ 78.541848, 14.6165956 ], [ 78.5411768, 14.6232657 ] ] } },
{ "type": "Feature", "properties": { "name": null, "voltage": 220000.0, "cables": "6", "operator": null }, "geometry": { "type": "LineString", "coordinates": [ [ 77.682239, 14.7010131 ], [ 77.6845021, 14.701198 ], [ 77.7140289, 14.6921418 ], [ 77.7568968, 14.7003969 ], [ 77.7838707, 14.7221301 ], [ 77.8347077, 14.7329826 ], [ 77.8653312, 14.7576743 ], [ 77.8816523, 14.754127 ], [ 77.9176048, 14.7523862 ], [ 77.9592969, 14.721426 ], [ 77.9916148, 14.712297 ], [ 78.0456914, 14.7101756 ], [ 78.056536, 14.7169462 ], [ 78.0713361, 14.7122236 ], [ 78.0975143, 14.7137567 ], [ 78.1022529, 14.7193277 ], [ 78.1004346, 14.7139044 ], [ 78.1091862, 14.7144131 ], [ 78.1498995, 14.7095829 ], [ 78.1749978, 14.7011254 ], [ 78.1763181, 14.6994549 ], [ 78.1872626, 14.6947028 ], [ 78.2015557, 14.6944222 ], [ 78.2166447, 14.7027588 ], [ 78.2268332, 14.7021294 ], [ 78.2305936, 14.7034931 ], [ 78.2418472, 14.7111602 ], [ 78.2722608, 14.7054404 ], [ 78.2735784, 14.7063766 ], [ 78.3014626, 14.6955854 ], [ 78.3242619, 14.6779571 ], [ 78.360106, 14.6729241 ], [ 78.413237, 14.6726568 ], [ 78.4308451, 14.6816364 ], [ 78.4313991, 14.6830558 ], [ 78.434161, 14.6835413 ], [ 78.4615439, 14.6821269 ], [ 78.468529, 14.6900737 ], [ 78.4676581, 14.6938147 ], [ 78.4624572, 14.7009691 ], [ 78.4599833, 14.7023978 ] ] } },
{ "type": "Feature", "properties": { "name": null, "voltage": 132000.0, "cables": "6", "operator": null }, "geometry": { "type": "LineString", "coordinates": [ [ 78.1495861, 14.1479941 ], [ 78.1631241, 14.1644496 ], [ 78.1937946, 14.1912054 ], [ 78.2025731, 14.2114469 ], [ 78.2036544, 14.2292182 ], [ 78.2059263, 14.2373799 ], [ 78.1993896, 14.3137492 ], [ 78.1959155, 14.3308508 ], [ 78.1960082, 14.3336055 ], [ 78.1981133, 14.3377117 ], [ 78.2040712, 14.343036 ], [ 78.2140215, 14.3596969 ], [ 78.2279511, 14.4045124 ], [ 78.355271, 14.4809978 ], [ 78.3643679, 14.4878896 ], [ 78.3964163, 14.5206947 ], [ 78.4453924, 14.544712 ], [ 78.5397539, 14.5821905 ], [ 78.5427048, 14.5843038 ], [ 78.5442928, 14.5870404 ], [ 78.5421136, 14.6110091 ], [ 78.5423917, 14.6152229 ], [ 78.5415733, 14.6159154 ], [ 78.5410095, 14.6232869 ] ] } },
{ "type": "Feature", "properties": { "name": null, "voltage": 132000.0, "cables": "6", "operator": null }, "geometry": { "type": "LineString", "coordinates": [ [ 78.389476, 14.8673258 ], [ 78.426543, 14.8496931 ], [ 78.4591704, 14.8254075 ], [ 78.4745902, 14.795361 ] ] } },
{ "type": "Feature", "properties": { "name": null, "voltage": 132000.0, "cables": "6", "operator": null }, "geometry": { "type": "LineString", "coordinates": [ [ 78.4745902, 14.795361 ], [ 78.4815404, 14.7976887 ], [ 78.6025107, 14.8086942 ], [ 78.6303815, 14.8125035 ], [ 78.6437094, 14.8167379 ], [ 78.6710492, 14.8208556 ], [ 78.6735718, 14.8205522 ] ] } },
{ "type": "Feature", "properties": { "name": null, "voltage": 132000.0, "cables": "6", "operator": null }, "geometry": { "type": "LineString", "coordinates": [ [ 78.4745902, 14.795361 ], [ 78.4742643, 14.7938534 ], [ 78.4954852, 14.7727012 ], [ 78.4951717, 14.7706106 ], [ 78.519607, 14.7479429 ], [ 78.5276907, 14.7480329 ] ] } },
{ "type": "Feature", "properties": { "name": null, "voltage": 765000.0, "cables": "3", "operator": null }, "geometry": { "type": "LineString", "coordinates": [ [ 78.7081093, 14.5046884 ], [ 78.7074709, 14.5080408 ], [ 78.6928126, 14.5307112 ], [ 78.6924881, 14.5341281 ], [ 78.7015378, 14.5490282 ] ] } },
{ "type": "Feature", "properties": { "name": null, "voltage": 765000.0, "cables": "3", "operator": null }, "geometry": { "type": "LineString", "coordinates": [ [ 78.7081093, 14.5046884 ], [ 78.6915466, 14.5309034 ], [ 78.691501, 14.5342865 ], [ 78.7015378, 14.5490282 ] ] } },
{ "type": "Feature", "properties": { "name": null, "voltage": 220000.0, "cables": "6", "operator": null }, "geometry": { "type": "LineString", "coordinates": [ [ 78.7430958, 14.720003 ], [ 78.7529475, 14.7211029 ], [ 78.7530577, 14.7217088 ] ] } },
{ "type": "Feature", "properties": { "name": null, "voltage": 220000.0, "cables": null, "operator": null }, "geometry": { "type": "LineString", "coordinates": [ [ 78.4596721, 14.7016027 ], [ 78.4610776, 14.7051933 ] ] } },
{ "type": "Feature", "properties": { "name": null, "voltage": 220000.0, "cables": "3", "operator": null }, "geometry": { "type": "LineString", "coordinates": [ [ 78.459808, 14.7019499 ], [ 78.4616675, 14.7003057 ], [ 78.4611847, 14.6973844 ] ] } },
{ "type": "Feature", "properties": { "name": null, "voltage": 11000.0, "cables": "6", "operator": null }, "geometry": { "type": "LineString", "coordinates": [ [ 78.460202, 14.6962619 ], [ 78.4606429, 14.6974507 ] ] } },
{ "type": "Feature", "properties": { "name": null, "voltage": 11000.0, "cables": "3", "operator": null }, "geometry": { "type": "LineString", "coordinates": [ [ 78.4603138, 14.6965634 ], [ 78.4607073, 14.6964089 ] ] } },
{ "type": "Feature", "properties": { "name": null, "voltage": 400000.0, "cables": "3", "operator": null }, "geometry": { "type": "LineString", "coordinates": [ [ 78.462161, 14.6968992 ], [ 78.4634082, 14.6964452 ], [ 78.4632527, 14.6960379 ], [ 78.4619947, 14.6964971 ], [ 78.462161, 14.6968992 ] ] } },
{ "type": "Feature", "properties": { "name": null, "voltage": 400000.0, "cables": "3", "operator": null }, "geometry": { "type": "LineString", "coordinates": [ [ 78.4622683, 14.6956643 ], [ 78.4619277, 14.696261 ], [ 78.4626385, 14.6959912 ] ] } },
{ "type": "Feature", "properties": { "name": null, "voltage": 400000.0, "cables": "3", "operator": null }, "geometry": { "type": "LineString", "coordinates": [ [ 78.4626385, 14.6959912 ], [ 78.4628809, 14.6966372 ] ] } },
{ "type": "Feature", "properties": { "name": null, "voltage": 400000.0, "cables": "3", "operator": null }, "geometry": { "type": "LineString", "coordinates": [ [ 78.462529, 14.6963021 ], [ 78.4622683, 14.6956643 ] ] } },
{ "type": "Feature", "properties": { "name": null, "voltage": 400000.0, "cables": "3", "operator": null }, "geometry": { "type": "LineString", "coordinates": [ [ 78.4607073, 14.6964089 ], [ 78.4617614, 14.6958511 ] ] } },
{ "type": "Feature", "properties": { "name": null, "voltage": 400000.0, "cables": "3", "operator": null }, "geometry": { "type": "LineString", "coordinates": [ [ 78.4634082, 14.6964452 ], [ 78.4642164, 14.6958942 ], [ 78.4632527, 14.6960379 ] ] } },
{ "type": "Feature", "properties": { "name": null, "voltage": 11000.0, "cables": "3", "operator": null }, "geometry": { "type": "LineString", "coordinates": [ [ 78.4606429, 14.6974507 ], [ 78.4609, 14.6974336 ] ] } },
{ "type": "Feature", "properties": { "name": null, "voltage": 220000.0, "cables": "3", "operator": null }, "geometry": { "type": "LineString", "coordinates": [ [ 78.4609, 14.6974336 ], [ 78.4611847, 14.6973844 ] ] } },
{ "type": "Feature", "properties": { "name": null, "voltage": 400000.0, "cables": "3", "operator": null }, "geometry": { "type": "LineString", "coordinates": [ [ 78.4609782, 14.6970549 ], [ 78.4619947, 14.6964971 ] ] } },
{ "type": "Feature", "properties": { "name": null, "voltage": 400000.0, "cables": "3", "operator": null }, "geometry": { "type": "LineString", "coordinates": [ [ 78.4605472, 14.6971928 ], [ 78.4609782, 14.6970549 ] ] } },
{ "type": "Feature", "properties": { "name": null, "voltage": 220000.0, "cables": "3", "operator": null }, "geometry": { "type": "LineString", "coordinates": [ [ 78.4611847, 14.6973844 ], [ 78.4616483, 14.6970911 ] ] } },
{ "type": "Feature", "properties": { "name": null, "voltage": 400000.0, "cables": "3", "operator": null }, "geometry": { "type": "LineString", "coordinates": [ [ 78.4616483, 14.6970911 ], [ 78.462161, 14.6968992 ] ] } },
{ "type": "Feature", "properties": { "name": null, "voltage": 220000.0, "cables": "6", "operator": null }, "geometry": { "type": "LineString", "coordinates": [ [ 78.2283743, 14.4634879 ], [ 78.2242126, 14.4641148 ], [ 78.2196143, 14.4666979 ], [ 78.2101506, 14.4740001 ], [ 78.2052091, 14.4755618 ], [ 78.1987233, 14.4733698 ], [ 78.196224, 14.467585 ], [ 78.1875704, 14.4564393 ], [ 78.1898819, 14.4478603 ], [ 78.180911, 14.4202801 ], [ 78.1646925, 14.4057785 ], [ 78.1630962, 14.400324 ], [ 78.1658401, 14.3985341 ], [ 78.1698429, 14.393177 ], [ 78.1699854, 14.3862765 ], [ 78.1718925, 14.3846104 ], [ 78.1728438, 14.3825001 ], [ 78.1755723, 14.3806735 ], [ 78.1788973, 14.3683562 ], [ 78.1777758, 14.3668861 ], [ 78.1386452, 14.3426008 ], [ 78.1289965, 14.333849 ], [ 78.1261796, 14.3264765 ], [ 78.1186063, 14.315644 ], [ 78.0980113, 14.2939028 ], [ 78.0583411, 14.2607623 ], [ 78.0341331, 14.2343922 ], [ 78.0202187, 14.2160844 ], [ 78.0165171, 14.2133289 ], [ 78.0066328, 14.1986277 ], [ 77.993133, 14.180976 ], [ 77.9949537, 14.1409111 ], [ 77.9898943, 14.1347987 ], [ 77.9757497, 14.1076895 ], [ 77.9546295, 14.0860118 ], [ 77.9362152, 14.0250761 ], [ 77.9147698, 13.9944233 ], [ 77.9111161, 13.9936389 ], [ 77.8962524, 13.9823024 ], [ 77.8491945, 13.9851072 ], [ 77.8470217, 13.9840641 ], [ 77.8460432, 13.9809698 ], [ 77.8160132, 13.9723256 ], [ 77.7824995, 13.9529147 ], [ 77.7256483, 13.9405947 ], [ 77.7095862, 13.9391283 ], [ 77.6891198, 13.936044 ], [ 77.6734145, 13.9357908 ], [ 77.6452302, 13.9392361 ], [ 77.6373862, 13.9431393 ], [ 77.6254816, 13.9423167 ], [ 77.5831782, 13.90479 ], [ 77.5750691, 13.9019306 ], [ 77.5482092, 13.897322 ], [ 77.5423079, 13.8683328 ], [ 77.539969, 13.867299 ], [ 77.5391644, 13.8647028 ], [ 77.536623, 13.8645713 ] ] } },
{ "type": "Feature", "properties": { "name": null, "voltage": 132000.0, "cables": "3", "operator": null }, "geometry": { "type": "LineString", "coordinates": [ [ 78.1008849, 14.5125602 ], [ 78.1178115, 14.5144084 ], [ 78.1409599, 14.5022293 ], [ 78.1466518, 14.5017485 ], [ 78.1615803, 14.4916451 ], [ 78.1776215, 14.4794811 ], [ 78.1970213, 14.4674336 ], [ 78.2011534, 14.466664 ] ] } },
{ "type": "Feature", "properties": { "name": null, "voltage": 132000.0, "cables": "3", "operator": null }, "geometry": { "type": "LineString", "coordinates": [ [ 78.1928949, 14.5396434 ], [ 78.1886032, 14.5326231 ], [ 78.2000113, 14.4924214 ], [ 78.2005081, 14.4667881 ], [ 78.2089353, 14.4314924 ], [ 78.2101934, 14.4165466 ], [ 78.2115612, 14.4092133 ], [ 78.2253743, 14.4032168 ], [ 78.2286602, 14.4035892 ] ] } },
{ "type": "Feature", "properties": { "name": null, "voltage": 132000.0, "cables": "3", "operator": null }, "geometry": { "type": "LineString", "coordinates": [ [ 78.2311469, 14.4495591 ], [ 78.2294584, 14.4495165 ], [ 78.2298104, 14.4540409 ], [ 78.2283318, 14.4628803 ] ] } },
{ "type": "Feature", "properties": { "name": null, "voltage": 132000.0, "cables": "9", "operator": null }, "geometry": { "type": "LineString", "coordinates": [ [ 78.2011534, 14.466664 ], [ 78.2122987, 14.4696293 ], [ 78.2193564, 14.4665288 ], [ 78.2219409, 14.4637845 ], [ 78.2282833, 14.463077 ] ] } },
{ "type": "Feature", "properties": { "name": null, "voltage": 132000.0, "cables": "6", "operator": null }, "geometry": { "type": "LineString", "coordinates": [ [ 78.2005081, 14.4667881 ], [ 78.2011534, 14.466664 ] ] } },
{ "type": "Feature", "properties": { "name": null, "voltage": 132000.0, "cables": "6", "operator": null }, "geometry": { "type": "LineString", "coordinates": [ [ 78.2276547, 14.404072 ], [ 78.228443, 14.4039607 ] ] } },
{ "type": "Feature", "properties": { "name": null, "voltage": 132000.0, "cables": "3", "operator": null }, "geometry": { "type": "LineString", "coordinates": [ [ 78.2659416, 14.3190284 ], [ 78.2514603, 14.3247901 ], [ 78.2413913, 14.335341 ], [ 78.2418688, 14.3380488 ], [ 78.2440655, 14.3401433 ], [ 78.2464526, 14.3460032 ], [ 78.2480593, 14.3642288 ], [ 78.2426654, 14.3818996 ], [ 78.2296996, 14.4005561 ], [ 78.2281151, 14.4034107 ], [ 78.2286897, 14.4034905 ] ] } },
{ "type": "Feature", "properties": { "name": null, "voltage": 132000.0, "cables": "6", "operator": null }, "geometry": { "type": "LineString", "coordinates": [ [ 78.2794695, 14.7875643 ], [ 78.2815201, 14.7916476 ], [ 78.300187, 14.8104111 ], [ 78.3054958, 14.8227529 ], [ 78.3053552, 14.8293629 ], [ 78.2949904, 14.8404321 ], [ 78.2946787, 14.8419441 ], [ 78.2986277, 14.8460455 ], [ 78.3002789, 14.852326 ], [ 78.3014281, 14.8524241 ], [ 78.3048647, 14.849948 ], [ 78.3104022, 14.8520238 ], [ 78.3124401, 14.8533281 ], [ 78.316801, 14.8625192 ], [ 78.3559698, 14.8855787 ], [ 78.362012, 14.8859816 ], [ 78.3817898, 14.8731163 ], [ 78.3880887, 14.8676587 ] ] } },
{ "type": "Feature", "properties": { "name": null, "voltage": 220000.0, "cables": "6", "operator": null }, "geometry": { "type": "LineString", "coordinates": [ [ 78.0986705, 14.7076781 ], [ 78.0907485, 14.6860246 ], [ 78.0888133, 14.6779076 ], [ 78.0787224, 14.6734935 ], [ 78.0670671, 14.6743827 ], [ 78.0517464, 14.673845 ], [ 78.0492169, 14.6743827 ] ] } },
{ "type": "Feature", "properties": { "name": null, "voltage": 220000.0, "cables": "6", "operator": null }, "geometry": { "type": "LineString", "coordinates": [ [ 78.0989189, 14.7096952 ], [ 78.0982644, 14.7133393 ], [ 78.1280516, 14.7501575 ], [ 78.1633318, 14.7599497 ], [ 78.1647958, 14.7609013 ] ] } },
{ "type": "Feature", "properties": { "name": null, "voltage": 220000.0, "cables": "6", "operator": null }, "geometry": { "type": "LineString", "coordinates": [ [ 78.1022529, 14.7193277 ], [ 78.0994907, 14.7131356 ], [ 78.0992395, 14.7097906 ] ] } },
{ "type": "Feature", "properties": { "name": null, "voltage": 220000.0, "cables": "6", "operator": null }, "geometry": { "type": "LineString", "coordinates": [ [ 78.0972172, 14.71374 ], [ 78.097745, 14.7092809 ] ] } },
{ "type": "Feature", "properties": { "name": null, "voltage": 132000.0, "cables": "6", "operator": null }, "geometry": { "type": "LineString", "coordinates": [ [ 78.1828814, 14.7748615 ], [ 78.1858267, 14.7721481 ], [ 78.1882833, 14.7716801 ] ] } },
{ "type": "Feature", "properties": { "name": null, "voltage": 132000.0, "cables": "6", "operator": null }, "geometry": { "type": "LineString", "coordinates": [ [ 78.166335, 14.7623286 ], [ 78.1719029, 14.7678764 ], [ 78.1727176, 14.7718372 ] ] } },
{ "type": "Feature", "properties": { "name": null, "voltage": 132000.0, "cables": "3", "operator": null }, "geometry": { "type": "LineString", "coordinates": [ [ 78.3417111, 14.9277219 ], [ 78.345493, 14.925506 ], [ 78.3506177, 14.9166469 ], [ 78.3678773, 14.8942264 ], [ 78.37519, 14.8895873 ], [ 78.3880887, 14.8676587 ] ] } },
{ "type": "Feature", "properties": { "name": null, "voltage": 400000.0, "cables": "6", "operator": null }, "geometry": { "type": "LineString", "coordinates": [ [ 78.3126213, 14.9335948 ], [ 78.3104273, 14.9340924 ], [ 78.3061411, 14.9438936 ], [ 78.2984807, 14.9578613 ], [ 78.3036843, 14.9825163 ], [ 78.2914641, 14.9954452 ], [ 78.2872691, 15.0051452 ], [ 78.2453033, 15.083874 ], [ 78.2421758, 15.1596275 ], [ 78.2203051, 15.2009936 ], [ 78.2179501, 15.239831 ], [ 78.2123711, 15.2774297 ], [ 78.2108503, 15.3000257 ], [ 78.2109254, 15.3067781 ], [ 78.2130175, 15.3120556 ], [ 78.2128512, 15.3154135 ], [ 78.2039999, 15.3216686 ], [ 78.2033991, 15.3245711 ], [ 78.2032918, 15.365253 ], [ 78.2010468, 15.3948967 ], [ 78.1952855, 15.4027114 ], [ 78.1914982, 15.4027838 ], [ 78.1890949, 15.4062488 ], [ 78.1830278, 15.4102827 ], [ 78.1791525, 15.4106054 ], [ 78.1737891, 15.4125041 ], [ 78.1709506, 15.4122909 ], [ 78.1684463, 15.4143482 ], [ 78.1683074, 15.4175605 ], [ 78.1658494, 15.4203067 ], [ 78.1671916, 15.4267658 ], [ 78.1675001, 15.4335468 ], [ 78.1660963, 15.4361739 ], [ 78.1637566, 15.4370166 ], [ 78.1582132, 15.4367192 ], [ 78.1518985, 15.4351826 ], [ 78.1388886, 15.4349744 ], [ 78.130517, 15.4320895 ], [ 78.1269586, 15.4328925 ], [ 78.1235236, 15.4375767 ], [ 78.1160313, 15.4772217 ], [ 78.1075003, 15.486137 ], [ 78.1048881, 15.487029 ], [ 78.1030317, 15.489705 ], [ 78.1029597, 15.4962758 ], [ 78.1015254, 15.5058544 ], [ 78.0995868, 15.5074103 ], [ 78.0957404, 15.5293798 ], [ 78.0943571, 15.5423157 ], [ 78.1034023, 15.5518722 ], [ 78.1032069, 15.5579803 ], [ 78.1017465, 15.5671645 ], [ 78.099304, 15.5724599 ], [ 78.0962774, 15.5758585 ], [ 78.084741, 15.6547579 ], [ 78.0891449, 15.6634478 ], [ 78.0909121, 15.6645961 ], [ 78.0945185, 15.6705336 ], [ 78.0966474, 15.6722516 ], [ 78.0998819, 15.6818961 ], [ 78.1052607, 15.6908321 ], [ 78.109967, 15.7021666 ], [ 78.1149012, 15.7094789 ], [ 78.1173374, 15.710844 ], [ 78.1175083, 15.7129756 ], [ 78.1132722, 15.7165179 ], [ 78.1115487, 15.7162238 ], [ 78.1089634, 15.7134132 ] ] } },
{ "type": "Feature", "properties": { "name": null, "voltage": 220000.0, "cables": "6", "operator": null }, "geometry": { "type": "LineString", "coordinates": [ [ 78.1387353, 14.9071455 ], [ 78.1387836, 14.9089261 ], [ 78.1243855, 14.9226473 ], [ 78.1226259, 14.934258 ], [ 78.1244552, 14.9390835 ], [ 78.156352, 14.9636293 ], [ 78.2393932, 14.9494599 ], [ 78.26253, 14.9415662 ], [ 78.2670978, 14.9411365 ] ] } },
{ "type": "Feature", "properties": { "name": null, "voltage": 400000.0, "cables": "6", "operator": null }, "geometry": { "type": "LineString", "coordinates": [ [ 78.3124175, 14.9331335 ], [ 78.3103522, 14.9336259 ], [ 78.3048751, 14.9380367 ], [ 78.2779028, 14.9482991 ], [ 78.2452281, 14.9620126 ], [ 78.2241782, 14.9673661 ], [ 78.1684204, 14.9783784 ], [ 78.1648316, 14.9749685 ], [ 78.1622513, 14.9737922 ], [ 78.1310411, 14.9704185 ], [ 78.0933722, 14.9707657 ], [ 78.0532946, 14.9683145 ], [ 78.0513167, 14.9694285 ], [ 78.0511451, 14.9705012 ] ] } },
{ "type": "Feature", "properties": { "name": null, "voltage": null, "cables": null, "operator": null }, "geometry": { "type": "LineString", "coordinates": [ [ 78.137716, 14.9047065 ], [ 78.1571138, 14.8743939 ], [ 78.1681484, 14.8772506 ], [ 78.1803739, 14.8880395 ] ] } },
{ "type": "Feature", "properties": { "name": null, "voltage": 220000.0, "cables": "6", "operator": null }, "geometry": { "type": "LineString", "coordinates": [ [ 78.2782034, 14.9238284 ], [ 78.2730763, 14.9254619 ], [ 78.266315, 14.9242742 ], [ 78.266358, 14.9335452 ], [ 78.2678157, 14.9406474 ] ] } },
{ "type": "Feature", "properties": { "name": null, "voltage": null, "cables": null, "operator": null }, "geometry": { "type": "LineString", "coordinates": [ [ 78.3576771, 14.9817896 ], [ 78.3662778, 14.9659796 ] ] } },
{ "type": "Feature", "properties": { "name": null, "voltage": 220000.0, "cables": "6", "operator": null }, "geometry": { "type": "LineString", "coordinates": [ [ 78.2685453, 14.9410425 ], [ 78.2778481, 14.9402782 ], [ 78.2882926, 14.9358804 ], [ 78.3054775, 14.9268718 ], [ 78.317931, 14.9237229 ], [ 78.319543, 14.9282532 ], [ 78.3178291, 14.9306945 ], [ 78.3155427, 14.9313957 ] ] } },
{ "type": "Feature", "properties": { "name": null, "voltage": 220000.0, "cables": "6", "operator": null }, "geometry": { "type": "LineString", "coordinates": [ [ 78.2670978, 14.9411365 ], [ 78.2685453, 14.9410425 ] ] } },
{ "type": "Feature", "properties": { "name": null, "voltage": 220000.0, "cables": "3", "operator": null }, "geometry": { "type": "LineString", "coordinates": [ [ 78.2685453, 14.9410425 ], [ 78.2678157, 14.9406474 ] ] } },
{ "type": "Feature", "properties": { "name": null, "voltage": 220000.0, "cables": "3", "operator": null }, "geometry": { "type": "LineString", "coordinates": [ [ 78.2670978, 14.9411365 ], [ 78.2678157, 14.9406474 ] ] } },
{ "type": "Feature", "properties": { "name": null, "voltage": null, "cables": null, "operator": null }, "geometry": { "type": "LineString", "coordinates": [ [ 78.315257, 14.9302259 ], [ 78.3160241, 14.9333669 ] ] } },
{ "type": "Feature", "properties": { "name": null, "voltage": 400000.0, "cables": "3", "operator": null }, "geometry": { "type": "LineString", "coordinates": [ [ 78.3146711, 14.9332674 ], [ 78.3145023, 14.9325681 ], [ 78.313225, 14.9328561 ], [ 78.3133938, 14.9335552 ], [ 78.3146711, 14.9332674 ] ] } },
{ "type": "Feature", "properties": { "name": null, "voltage": 400000.0, "cables": "3", "operator": null }, "geometry": { "type": "LineString", "coordinates": [ [ 78.3133369, 14.9333196 ], [ 78.3126213, 14.9335948 ], [ 78.3133938, 14.9335552 ] ] } },
{ "type": "Feature", "properties": { "name": null, "voltage": 400000.0, "cables": "3", "operator": null }, "geometry": { "type": "LineString", "coordinates": [ [ 78.313225, 14.9328561 ], [ 78.3124175, 14.9331335 ], [ 78.3132838, 14.9330998 ] ] } },
{ "type": "Feature", "properties": { "name": null, "voltage": 400000.0, "cables": "3", "operator": null }, "geometry": { "type": "LineString", "coordinates": [ [ 78.3146159, 14.933039 ], [ 78.3133369, 14.9333196 ] ] } },
{ "type": "Feature", "properties": { "name": null, "voltage": 400000.0, "cables": "3", "operator": null }, "geometry": { "type": "LineString", "coordinates": [ [ 78.3132838, 14.9330998 ], [ 78.3145599, 14.9328069 ] ] } },
{ "type": "Feature", "properties": { "name": null, "voltage": 220000.0, "cables": "3", "operator": null }, "geometry": { "type": "LineString", "coordinates": [ [ 78.315214, 14.9331363 ], [ 78.3159244, 14.9329588 ] ] } },
{ "type": "Feature", "properties": { "name": null, "voltage": 220000.0, "cables": "3", "operator": null }, "geometry": { "type": "LineString", "coordinates": [ [ 78.3158652, 14.9327166 ], [ 78.3151658, 14.9328978 ] ] } },
{ "type": "Feature", "properties": { "name": null, "voltage": 400000.0, "cables": "3", "operator": null }, "geometry": { "type": "LineString", "coordinates": [ [ 78.3151658, 14.9328978 ], [ 78.3146159, 14.933039 ] ] } },
{ "type": "Feature", "properties": { "name": null, "voltage": 400000.0, "cables": "3", "operator": null }, "geometry": { "type": "LineString", "coordinates": [ [ 78.3146711, 14.9332674 ], [ 78.315214, 14.9331363 ] ] } },
{ "type": "Feature", "properties": { "name": null, "voltage": 220000.0, "cables": "3", "operator": null }, "geometry": { "type": "LineString", "coordinates": [ [ 78.1152895, 14.9054217 ], [ 78.1184715, 14.9096956 ], [ 78.1219046, 14.9268169 ], [ 78.1212385, 14.9336504 ], [ 78.1243953, 14.9437855 ], [ 78.1414459, 14.9550642 ], [ 78.1427344, 14.9768249 ], [ 78.1446343, 14.9848182 ], [ 78.1462591, 14.9878932 ], [ 78.1404853, 15.0174168 ], [ 78.14078, 15.0198879 ] ] } }
]
}
