{
"type": "FeatureCollection",
"crs": { "type": "name", "properties": { "name": "urn:ogc:def:crs:OGC:1.3:CRS84" } },
"features": [
{ "type": "Feature", "properties": { "name": null, "voltage": null, "substation": null, "operator": null }, "geometry": { "type": "Point", "coordinates": [ 78.871307887333941, 14.444858388835401 ] } },
{ "type": "Feature", "properties": { "name": null, "voltage": null, "substation": null, "operator": null }, "geometry": { "type": "Point", "coordinates": [ 79.05823763528953, 14.710052410610844 ] } },
{ "type": "Feature", "properties": { "name": "Ecoren Kandi", "voltage": "220000", "substation": "generation", "operator": null }, "geometry": { "type": "Point", "coordinates": [ 78.978843484928106, 14.820943630752204 ] } },
{ "type": "Feature", "properties": { "name": "Porumamila", "voltage": "220000", "substation": "transmission", "operator": null }, "geometry": { "type": "Point", "coordinates": [ 79.018464339989123, 14.836947579131566 ] } },
{ "type": "Feature", "properties": { "name": "Substation Power", "voltage": null, "substation": null, "operator": null }, "geometry": { "type": "Point", "coordinates": [ 78.9895958, 14.9957518 ] } },
{ "type": "Feature", "properties": { "name": "Substation", "voltage": null, "substation": null, "operator": null }, "geometry": { "type": "Point", "coordinates": [ 78.989642, 14.9956861 ] } },
{ "type": "Feature", "properties": { "name": null, "voltage": null, "substation": null, "operator": null }, "geometry": { "type": "Point", "coordinates": [ 78.989577655734635, 14.995810729024608 ] } },
{ "type": "Feature", "properties": { "name": null, "voltage": null, "substation": null, "operator": null }, "geometry": { "type": "Point", "coordinates": [ 78.893562628532393, 14.991462315217122 ] } },
{ "type": "Feature", "properties": { "name": null, "voltage": null, "substation": null, "operator": null }, "geometry": { "type": "Point", "coordinates": [ 78.893711513598987, 14.891217946482977 ] } },
{ "type": "Feature", "properties": { "name": "Chinnacampalli", "voltage": "765000;400000;220000;132000", "substation": "transmission", "operator": "Power Grid Corporation of India Limited" }, "geometry": { "type": "Point", "coordinates": [ 78.798988161650044, 14.383013485838037 ] } },
{ "type": "Feature", "properties": { "name": "Kadapa Sub station", "voltage": "220000", "substation": "transmission", "operator": null }, "geometry": { "type": "Point", "coordinates": [ 78.837371517947503, 14.477569417756328 ] } },
{ "type": "Feature", "properties": { "name": null, "voltage": null, "substation": null, "operator": null }, "geometry": { "type": "Point", "coordinates": [ 78.803548439415067, 14.439389844176644 ] } },
{ "type": "Feature", "properties": { "name": null, "voltage": null, "substation": null, "operator": null }, "geometry": { "type": "Point", "coordinates": [ 78.459832843632213, 14.37708534166361 ] } },
{ "type": "Feature", "properties": { "name": "Chakrayapeta Sub Station", "voltage": "220000", "substation": "transmission", "operator": null }, "geometry": { "type": "Point", "coordinates": [ 78.49212468374165, 14.267102611047244 ] } },
{ "type": "Feature", "properties": { "name": null, "voltage": null, "substation": null, "operator": null }, "geometry": { "type": "Point", "coordinates": [ 78.789818262812645, 14.483998569315455 ] } },
{ "type": "Feature", "properties": { "name": null, "voltage": null, "substation": null, "operator": null }, "geometry": { "type": "Point", "coordinates": [ 78.579238833403735, 14.590695607410794 ] } },
{ "type": "Feature", "properties": { "name": "Yerraguntla Sub Station", "voltage": "220000;132000", "substation": "transmission", "operator": null }, "geometry": { "type": "Point", "coordinates": [ 78.540523016487114, 14.624675450101877 ] } },
{ "type": "Feature", "properties": { "name": null, "voltage": null, "substation": null, "operator": null }, "geometry": { "type": "Point", "coordinates": [ 78.519946260825648, 14.60345399865535 ] } },
{ "type": "Feature", "properties": { "name": null, "voltage": null, "substation": "traction", "operator": null }, "geometry": { "type": "Point", "coordinates": [ 78.402613464944238, 14.688016839403298 ] } },
{ "type": "Feature", "properties": { "name": null, "voltage": null, "substation": null, "operator": null }, "geometry": { "type": "Point", "coordinates": [ 78.528249587040477, 14.747920241517271 ] } },
{ "type": "Feature", "properties": { "name": null, "voltage": null, "substation": null, "operator": null }, "geometry": { "type": "Point", "coordinates": [ 78.52886378292466, 14.641386067028325 ] } },
{ "type": "Feature", "properties": { "name": "Rayalaseema TPS", "voltage": "220000", "substation": "generation", "operator": null }, "geometry": { "type": "Point", "coordinates": [ 78.460363932174303, 14.703387560937387 ] } },
{ "type": "Feature", "properties": { "name": null, "voltage": null, "substation": null, "operator": null }, "geometry": { "type": "Point", "coordinates": [ 78.458855452677284, 14.663001335340347 ] } },
{ "type": "Feature", "properties": { "name": null, "voltage": null, "substation": null, "operator": null }, "geometry": { "type": "Point", "coordinates": [ 78.469699669686051, 14.712853546202988 ] } },
{ "type": "Feature", "properties": { "name": null, "voltage": null, "substation": null, "operator": null }, "geometry": { "type": "Point", "coordinates": [ 78.456444050000016, 14.7097281 ] } },
{ "type": "Feature", "properties": { "name": "Rayalaseema Stg 5", "voltage": "400000", "substation": "generation", "operator": null }, "geometry": { "type": "Point", "coordinates": [ 78.46248575, 14.6961141 ] } },
{ "type": "Feature", "properties": { "name": "Anumala Wind Sub Station", "voltage": "220000", "substation": "transmission", "operator": null }, "geometry": { "type": "Point", "coordinates": [ 78.507181502886041, 14.48779274257695 ] } },
{ "type": "Feature", "properties": { "name": null, "voltage": "132000", "substation": null, "operator": null }, "geometry": { "type": "Point", "coordinates": [ 78.673482739189538, 14.821287734844233 ] } },
{ "type": "Feature", "properties": { "name": "Mydukur Sub Station", "voltage": "220000", "substation": "transmission", "operator": null }, "geometry": { "type": "Point", "coordinates": [ 78.753155641313199, 14.722144356724245 ] } },
{ "type": "Feature", "properties": { "name": null, "voltage": null, "substation": null, "operator": null }, "geometry": { "type": "Point", "coordinates": [ 78.626991038743625, 14.708275556242324 ] } },
{ "type": "Feature", "properties": { "name": null, "voltage": null, "substation": null, "operator": null }, "geometry": { "type": "Point", "coordinates": [ 78.444516566738756, 14.793837572998324 ] } },
{ "type": "Feature", "properties": { "name": null, "voltage": null, "substation": null, "operator": null }, "geometry": { "type": "Point", "coordinates": [ 78.480097832586409, 14.958024130020666 ] } },
{ "type": "Feature", "properties": { "name": null, "voltage": null, "substation": null, "operator": null }, "geometry": { "type": "Point", "coordinates": [ 78.22875454471523, 14.403726420178858 ] } },
{ "type": "Feature", "properties": { "name": null, "voltage": null, "substation": null, "operator": null }, "geometry": { "type": "Point", "coordinates": [ 78.23114120000001, 14.44894375 ] } },
{ "type": "Feature", "properties": { "name": "Pulivendula Sub Station", "voltage": "220000;132000", "substation": "transmission", "operator": null }, "geometry": { "type": "Point", "coordinates": [ 78.229054002257783, 14.463561390702067 ] } },
{ "type": "Feature", "properties": { "name": null, "voltage": "132000", "substation": null, "operator": null }, "geometry": { "type": "Point", "coordinates": [ 78.267304764968159, 14.318561967471759 ] } },
{ "type": "Feature", "properties": { "name": null, "voltage": null, "substation": null, "operator": null }, "geometry": { "type": "Point", "coordinates": [ 78.278774980354768, 14.786605728931336 ] } },
{ "type": "Feature", "properties": { "name": null, "voltage": null, "substation": null, "operator": null }, "geometry": { "type": "Point", "coordinates": [ 78.182797915569267, 14.775510981305072 ] } },
{ "type": "Feature", "properties": { "name": null, "voltage": null, "substation": null, "operator": null }, "geometry": { "type": "Point", "coordinates": [ 78.1667032, 14.7633397 ] } },
{ "type": "Feature", "properties": { "name": "Thimmapuram Sub Station", "voltage": "220000", "substation": "transmission", "operator": null }, "geometry": { "type": "Point", "coordinates": [ 78.098481057336343, 14.70868309692559 ] } },
{ "type": "Feature", "properties": { "name": null, "voltage": null, "substation": null, "operator": null }, "geometry": { "type": "Point", "coordinates": [ 78.183939876256815, 14.776101306848252 ] } },
{ "type": "Feature", "properties": { "name": "Kondapuram Sub Station", "voltage": "220000", "substation": "transmission", "operator": null }, "geometry": { "type": "Point", "coordinates": [ 78.165676394961679, 14.761791652628993 ] } },
{ "type": "Feature", "properties": { "name": null, "voltage": null, "substation": null, "operator": null }, "geometry": { "type": "Point", "coordinates": [ 78.194104180206054, 14.539938474083183 ] } },
{ "type": "Feature", "properties": { "name": null, "voltage": null, "substation": null, "operator": null }, "geometry": { "type": "Point", "coordinates": [ 78.101013891265097, 14.511712169302236 ] } },
{ "type": "Feature", "properties": { "name": null, "voltage": null, "substation": null, "operator": null }, "geometry": { "type": "Point", "coordinates": [ 78.250947516762935, 14.6195753497813 ] } },
{ "type": "Feature", "properties": { "name": null, "voltage": null, "substation": null, "operator": null }, "geometry": { "type": "Point", "coordinates": [ 78.3410923, 14.9279394 ] } },
{ "type": "Feature", "properties": { "name": null, "voltage": null, "substation": null, "operator": null }, "geometry": { "type": "Point", "coordinates": [ 78.389315590183159, 14.86761034029637 ] } },
{ "type": "Feature", "properties": { "name": "Jamalamadugu", "voltage": "400000;220000", "substation": "transmission", "operator": "APTRANSCO" }, "geometry": { "type": "Point", "coordinates": [ 78.314610124584348, 14.93200024997522 ] } },
{ "type": "Feature", "properties": { "name": null, "voltage": null, "substation": null, "operator": null }, "geometry": { "type": "Point", "coordinates": [ 78.181388910003989, 14.888084035349044 ] } },
{ "type": "Feature", "properties": { "name": "Thirumalayapalle Sub Station", "voltage": "220000", "substation": "transmission", "operator": null }, "geometry": { "type": "Point", "coordinates": [ 78.137935066598473, 14.906428221344658 ] } },
{ "type": "Feature", "properties": { "name": "Mylavaram 4", "voltage": "220000", "substation": "transmission", "operator": null }, "geometry": { "type": "Point", "coordinates": [ 78.278009540814466, 14.922425956407951 ] } },
{ "type": "Feature", "properties": { "name": "SAEL_KURNOOL_3", "voltage": "220000", "substation": "transmission", "operator": "SAEL Industries" }, "geometry": { "type": "Point", "coordinates": [ 78.116306393255243, 14.905292276345017 ] } },
{ "type": "Feature", "properties": { "name": "SAEL SOLAR MHP2", "voltage": "220000", "substation": "transmission", "operator": "SAEL INDUSTRIES" }, "geometry": { "type": "Point", "coordinates": [ 78.342400222878211, 15.039337922632301 ] } },
{ "type": "Feature", "properties": { "name": null, "voltage": null, "substation": null, "operator": null }, "geometry": { "type": "Point", "coordinates": [ 78.115068020264957, 14.865915500591498 ] } },
{ "type": "Feature", "properties": { "name": null, "voltage": null, "substation": null, "operator": null }, "geometry": { "type": "Point", "coordinates": [ 78.231532411987004, 14.940104448089656 ] } },
{ "type": "Feature", "properties": { "name": "Mylavaram 3", "voltage": "220000", "substation": "transmission", "operator": null }, "geometry": { "type": "Point", "coordinates": [ 78.264764272912473, 14.924952774661399 ] } },
{ "type": "Feature", "properties": { "name": "Mylavaram 2", "voltage": "220000", "substation": "transmission", "operator": null }, "geometry": { "type": "Point", "coordinates": [ 78.250223276702627, 14.948250468866144 ] } }
]
}
