{
"type": "FeatureCollection",
"name": "1",
"crs": { "type": "name", "properties": { "name": "urn:ogc:def:crs:OGC:1.3:CRS84" } },
"features": [
{ "type": "Feature", "properties": { "Name": "1", "description": null, "timestamp": null, "begin": null, "end": null, "altitudeMode": null, "tessellate": -1, "extrude": 0, "visibility": -1, "drawOrder": null, "icon": null }, "geometry": { "type": "Polygon", "coordinates": [ [ [ 77.313931141200001, 14.8865087196, 0.0 ], [ 77.273398388, 14.912596622800001, 0.0 ], [ 77.286616500199997, 14.9333732634, 0.0 ], [ 77.318368511700001, 14.9597031403, 0.0 ], [ 77.318498105700002, 14.965453996900001, 0.0 ], [ 77.320792008500007, 14.9706162027, 0.0 ], [ 77.3255061407, 14.981479742399999, 0.0 ], [ 77.320666287700007, 14.984411018199999, 0.0 ], [ 77.311388335800004, 14.9786093147, 0.0 ], [ 77.308044040300004, 14.977654428799999, 0.0 ], [ 77.304878237500006, 14.98195763, 0.0 ], [ 77.298948542900007, 14.981119620399999, 0.0 ], [ 77.301600501699994, 14.961869632399999, 0.0 ], [ 77.281977084399998, 14.9515560002, 0.0 ], [ 77.279168473300004, 14.956318962, 0.0 ], [ 77.275602265200007, 14.965076057499999, 0.0 ], [ 77.264279086599998, 14.9551413075, 0.0 ], [ 77.251916112299995, 14.9611136792, 0.0 ], [ 77.249870535599996, 14.976044506399999, 0.0 ], [ 77.247759609100001, 14.975692031399999, 0.0 ], [ 77.247662503800001, 14.9772426023, 0.0 ], [ 77.249950244900006, 14.9774305617, 0.0 ], [ 77.249947969199994, 14.9927535904, 0.0 ], [ 77.250007454499993, 15.000021974499999, 0.0 ], [ 77.239804611599993, 15.0000119157, 0.0 ], [ 77.221683678900007, 14.9999132235, 0.0 ], [ 77.211923165800002, 14.995420187600001, 0.0 ], [ 77.229818472700003, 14.961324203, 0.0 ], [ 77.244425085900005, 14.930779790900001, 0.0 ], [ 77.250385532, 14.931316792700001, 0.0 ], [ 77.261887821900004, 14.916683083100001, 0.0 ], [ 77.261090264299995, 14.9031712975, 0.0 ], [ 77.250424640099993, 14.8929983393, 0.0 ], [ 77.247992277799995, 14.887537013199999, 0.0 ], [ 77.261831298499999, 14.886558631, 0.0 ], [ 77.313931141200001, 14.8865087196, 0.0 ] ] ] } },
{ "type": "Feature", "properties": { "Name": "1", "description": null, "timestamp": null, "begin": null, "end": null, "altitudeMode": null, "tessellate": -1, "extrude": 0, "visibility": -1, "drawOrder": null, "icon": null }, "geometry": { "type": "Polygon", "coordinates": [ [ [ 77.364711601899998, 14.8759161861, 0.0 ], [ 77.355032609700004, 14.889587968700001, 0.0 ], [ 77.342518335487981, 14.9013160295681, 0.0 ], [ 77.309472364257587, 14.93416184423797, 0.0 ], [ 77.307013242045699, 14.928781254647641, 0.0 ], [ 77.325427931236248, 14.891364589892421, 0.0 ], [ 77.315177733007445, 14.884794262175721, 0.0 ], [ 77.314731275599996, 14.843595579300001, 0.0 ], [ 77.300350807699999, 14.8382744682, 0.0 ], [ 77.297575444800003, 14.792842699, 0.0 ], [ 77.297345908099999, 14.7828780878, 0.0 ], [ 77.295745836600005, 14.7553817504, 0.0 ], [ 77.321840538299995, 14.7558745524, 0.0 ], [ 77.322175098399995, 14.7668450058, 0.0 ], [ 77.334247984499996, 14.7653044648, 0.0 ], [ 77.335790354599993, 14.776658422200001, 0.0 ], [ 77.336410295299999, 14.7772346607, 0.0 ], [ 77.354359139899998, 14.787457100099999, 0.0 ], [ 77.363177623200002, 14.782584378099999, 0.0 ], [ 77.377556507500003, 14.7988448278, 0.0 ], [ 77.357922303500004, 14.8163943772, 0.0 ], [ 77.362719014099994, 14.827159609400001, 0.0 ], [ 77.3735614892, 14.8126631202, 0.0 ], [ 77.384247575299995, 14.8055404279, 0.0 ], [ 77.369943662099999, 14.788311708, 0.0 ], [ 77.364096464400006, 14.782572529599999, 0.0 ], [ 77.357482629, 14.7670094703, 0.0 ], [ 77.361891573400001, 14.7591157305, 0.0 ], [ 77.368202925099993, 14.753277792800001, 0.0 ], [ 77.399091344200002, 14.752086757400001, 0.0 ], [ 77.424554724399997, 14.7659242089, 0.0 ], [ 77.421096084400006, 14.7818070186, 0.0 ], [ 77.399316931100003, 14.7694298032, 0.0 ], [ 77.399648751900003, 14.7976819736, 0.0 ], [ 77.406474606299994, 14.8015117373, 0.0 ], [ 77.408183582, 14.814166228, 0.0 ], [ 77.410863186599997, 14.815810902799999, 0.0 ], [ 77.418161007099997, 14.826094316800001, 0.0 ], [ 77.410926456300004, 14.836345937100001, 0.0 ], [ 77.397927345100001, 14.824902911300001, 0.0 ], [ 77.3658058165, 14.8462240232, 0.0 ], [ 77.364711601899998, 14.8759161861, 0.0 ] ] ] } },
{ "type": "Feature", "properties": { "Name": "1", "description": null, "timestamp": null, "begin": null, "end": null, "altitudeMode": null, "tessellate": -1, "extrude": 0, "visibility": -1, "drawOrder": null, "icon": null }, "geometry": { "type": "Polygon", "coordinates": [ [ [ 77.083859926, 14.6728564795, 0.0 ], [ 77.14961824, 14.6743704509, 0.0 ], [ 77.139647322, 14.702898788300001, 0.0 ], [ 77.130426097300003, 14.7103064991, 0.0 ], [ 77.107953381100003, 14.706632472100001, 0.0 ], [ 77.088967703700007, 14.7053350842, 0.0 ], [ 77.051493022800003, 14.7103768962, 0.0 ], [ 77.047518362800005, 14.649283304200001, 0.0 ], [ 77.042981951800002, 14.643901591500001, 0.0 ], [ 77.042763725761873, 14.626276162777749, 0.0 ], [ 77.065481331602612, 14.63060196127363, 0.0 ], [ 77.089292819326417, 14.629840536576239, 0.0 ], [ 77.083859926, 14.6728564795, 0.0 ] ] ] } },
{ "type": "Feature", "properties": { "Name": "1", "description": null, "timestamp": null, "begin": null, "end": null, "altitudeMode": null, "tessellate": -1, "extrude": 0, "visibility": -1, "drawOrder": null, "icon": null }, "geometry": { "type": "Polygon", "coordinates": [ [ [ 77.058932582300002, 14.7325087378, 0.0 ], [ 77.051870776200005, 14.7112808385, 0.0 ], [ 77.074202619700003, 14.7087275392, 0.0 ], [ 77.074122140399993, 14.708942046700001, 0.0 ], [ 77.068232678300006, 14.732958801600001, 0.0 ], [ 77.069504843399997, 14.736764405200001, 0.0 ], [ 77.103467629600004, 14.744784083200001, 0.0 ], [ 77.087796864799998, 14.763287993800001, 0.0 ], [ 77.084626941799996, 14.7740233642, 0.0 ], [ 77.105700537399997, 14.778479399, 0.0 ], [ 77.102406973499996, 14.798707976899999, 0.0 ], [ 77.091766892, 14.799910036, 0.0 ], [ 77.058932582300002, 14.7325087378, 0.0 ] ] ] } }
]
}
