{
"type": "FeatureCollection",
"name": "1___14_",
"crs": { "type": "name", "properties": { "name": "urn:ogc:def:crs:OGC:1.3:CRS84" } },
"features": [
{ "type": "Feature", "properties": { "Name": "1", "description": null, "timestamp": null, "begin": null, "end": null, "altitudeMode": null, "tessellate": 1, "extrude": 0, "visibility": -1, "drawOrder": null, "icon": null }, "geometry": { "type": "Polygon", "coordinates": [ [ [ 78.10002547969377, 14.92947408228987, 0.0 ], [ 78.101954858110432, 14.932132409593279, 0.0 ], [ 78.10654851020999, 14.933526264176781, 0.0 ], [ 78.11455465728659, 14.930777845344871, 0.0 ], [ 78.123524909979409, 14.93302127251264, 0.0 ], [ 78.124178299434774, 14.942027196676831, 0.0 ], [ 78.124173059723063, 14.961512997605549, 0.0 ], [ 78.119347105269455, 14.97724027492143, 0.0 ], [ 78.113893933639815, 14.978160096958851, 0.0 ], [ 78.085077840949424, 14.96756296974557, 0.0 ], [ 78.091557191664862, 14.95104020380616, 0.0 ], [ 78.097769298838116, 14.947528136319599, 0.0 ], [ 78.097799441594319, 14.94472805043212, 0.0 ], [ 78.089699682807705, 14.941585526559001, 0.0 ], [ 78.094078304610534, 14.931710553552451, 0.0 ], [ 78.10002547969377, 14.92947408228987, 0.0 ] ] ] } },
{ "type": "Feature", "properties": { "Name": "1", "description": null, "timestamp": null, "begin": null, "end": null, "altitudeMode": null, "tessellate": 1, "extrude": 0, "visibility": -1, "drawOrder": null, "icon": null }, "geometry": { "type": "Polygon", "coordinates": [ [ [ 77.799527377169042, 15.168052814109609, 0.0 ], [ 77.860883434252443, 15.163672701598021, 0.0 ], [ 77.862564545514601, 15.25286719672957, 0.0 ], [ 77.887228232515866, 15.282448671143531, 0.0 ], [ 77.840474482881078, 15.29577918666503, 0.0 ], [ 77.809865203341545, 15.30173393534765, 0.0 ], [ 77.789299650139498, 15.30654422217904, 0.0 ], [ 77.777301889015448, 15.250042664339301, 0.0 ], [ 77.799527377169042, 15.168052814109609, 0.0 ] ] ] } },
{ "type": "Feature", "properties": { "Name": "1", "description": null, "timestamp": null, "begin": null, "end": null, "altitudeMode": null, "tessellate": 1, "extrude": 0, "visibility": -1, "drawOrder": null, "icon": null }, "geometry": { "type": "Polygon", "coordinates": [ [ [ 77.60293303929015, 15.29115532518197, 0.0 ], [ 77.612801595963049, 15.20805160406209, 0.0 ], [ 77.785184310277913, 15.20737425789692, 0.0 ], [ 77.77137918921413, 15.24266340905759, 0.0 ], [ 77.789993044444188, 15.32430596700183, 0.0 ], [ 77.860500590574176, 15.449706668883049, 0.0 ], [ 77.642331111169, 15.46735555724004, 0.0 ], [ 77.60293303929015, 15.29115532518197, 0.0 ] ] ] } },
{ "type": "Feature", "properties": { "Name": "1", "description": null, "timestamp": null, "begin": null, "end": null, "altitudeMode": null, "tessellate": 1, "extrude": 0, "visibility": -1, "drawOrder": null, "icon": null }, "geometry": { "type": "Polygon", "coordinates": [ [ [ 77.106025018130666, 15.90186666871873, 0.0 ], [ 77.07638785858164, 15.87373519732998, 0.0 ], [ 77.070747871337005, 15.77878498259642, 0.0 ], [ 77.077189826387183, 15.73464203823524, 0.0 ], [ 77.133900794574672, 15.615966926731151, 0.0 ], [ 77.225973837422288, 15.61357161923725, 0.0 ], [ 77.224314471706705, 15.70711856979991, 0.0 ], [ 77.281262161917383, 15.71046582486092, 0.0 ], [ 77.272634752585077, 15.859737267943871, 0.0 ], [ 77.259497288977158, 15.860102006179, 0.0 ], [ 77.255405760297776, 15.941501267629601, 0.0 ], [ 77.145621242730016, 15.918806163293601, 0.0 ], [ 77.106025018130666, 15.90186666871873, 0.0 ] ] ] } }
]
}
