{
"type": "FeatureCollection",
"name": "1___103_",
"crs": { "type": "name", "properties": { "name": "urn:ogc:def:crs:OGC:1.3:CRS84" } },
"features": [
{ "type": "Feature", "properties": { "Name": "1", "description": null, "timestamp": null, "begin": null, "end": null, "altitudeMode": null, "tessellate": -1, "extrude": 0, "visibility": -1, "drawOrder": null, "icon": null }, "geometry": { "type": "Polygon", "coordinates": [ [ [ 78.393402320199996, 14.207378158799999, 0.0 ], [ 78.393375367100006, 14.207410879699999, 0.0 ], [ 78.392806513799997, 14.2042632188, 0.0 ], [ 78.394759091200001, 14.203486097100001, 0.0 ], [ 78.395596473599994, 14.1997150451, 0.0 ], [ 78.401386225, 14.198484565, 0.0 ], [ 78.404097925399995, 14.2013105849, 0.0 ], [ 78.407050133799999, 14.215490323899999, 0.0 ], [ 78.407055802800002, 14.219354022799999, 0.0 ], [ 78.409144485900001, 14.226188844299999, 0.0 ], [ 78.404701096599993, 14.226774859200001, 0.0 ], [ 78.401761441100007, 14.228753426800001, 0.0 ], [ 78.400610940299998, 14.2314807814, 0.0 ], [ 78.4004278747, 14.235250368399999, 0.0 ], [ 78.394123984100005, 14.2373351962, 0.0 ], [ 78.397176830700005, 14.241662720800001, 0.0 ], [ 78.3870643427, 14.245161708099999, 0.0 ], [ 78.379534527499999, 14.2459275972, 0.0 ], [ 78.371992721200002, 14.245614636599999, 0.0 ], [ 78.367790000799999, 14.2460972735, 0.0 ], [ 78.3617434242, 14.2465714811, 0.0 ], [ 78.355746059500007, 14.2463365848, 0.0 ], [ 78.356394216499993, 14.241812358100001, 0.0 ], [ 78.354749996199999, 14.2395170133, 0.0 ], [ 78.350378780100002, 14.2392846222, 0.0 ], [ 78.348271375, 14.238930202100001, 0.0 ], [ 78.3496090119, 14.234163775500001, 0.0 ], [ 78.354057508300002, 14.230518719299999, 0.0 ], [ 78.359141538200006, 14.2295762139, 0.0 ], [ 78.369999904, 14.2243388655, 0.0 ], [ 78.396269817199993, 14.2176285194, 0.0 ], [ 78.394805837700005, 14.2153259673, 0.0 ], [ 78.388940800399993, 14.212794215700001, 0.0 ], [ 78.393402320199996, 14.207378158799999, 0.0 ] ] ] } },
{ "type": "Feature", "properties": { "Name": "1", "description": null, "timestamp": null, "begin": null, "end": null, "altitudeMode": null, "tessellate": -1, "extrude": 0, "visibility": -1, "drawOrder": null, "icon": null }, "geometry": { "type": "Polygon", "coordinates": [ [ [ 78.385729526399999, 14.2092100153, 0.0 ], [ 78.386174214099995, 14.211762345, 0.0 ], [ 78.386166469599999, 14.213300005100001, 0.0 ], [ 78.388228248700003, 14.214447081399999, 0.0 ], [ 78.392936567800007, 14.216016616699999, 0.0 ], [ 78.395117540699999, 14.2168275793, 0.0 ], [ 78.390029848099999, 14.2181777471, 0.0 ], [ 78.388067145899996, 14.2184374372, 0.0 ], [ 78.375621739799996, 14.220571959200001, 0.0 ], [ 78.365651638800003, 14.2250685754, 0.0 ], [ 78.358577352400005, 14.228231708199999, 0.0 ], [ 78.351943015499998, 14.229575024, 0.0 ], [ 78.352328482100006, 14.224208944600001, 0.0 ], [ 78.355078650899998, 14.2243831095, 0.0 ], [ 78.360518637599995, 14.2225009418, 0.0 ], [ 78.359490819200005, 14.2154189677, 0.0 ], [ 78.356717472499994, 14.2076104469, 0.0 ], [ 78.357146977200003, 14.2017826726, 0.0 ], [ 78.356482212299994, 14.1993647864, 0.0 ], [ 78.364067267, 14.1972769198, 0.0 ], [ 78.367757648400001, 14.197349668599999, 0.0 ], [ 78.367666333599999, 14.197011788, 0.0 ], [ 78.367389765799999, 14.192940574, 0.0 ], [ 78.366028453, 14.18859225, 0.0 ], [ 78.366548696600006, 14.185638196899999, 0.0 ], [ 78.367068919900007, 14.182684139699999, 0.0 ], [ 78.374596409299997, 14.1821110134, 0.0 ], [ 78.380260204300001, 14.185221327500001, 0.0 ], [ 78.380424764099999, 14.186430763500001, 0.0 ], [ 78.381323308199995, 14.1874350526, 0.0 ], [ 78.381709334700005, 14.191444132499999, 0.0 ], [ 78.381768450600006, 14.1941550772, 0.0 ], [ 78.384829986499994, 14.1982242201, 0.0 ], [ 78.385615677700002, 14.2019148814, 0.0 ], [ 78.3859097797, 14.202761710400001, 0.0 ], [ 78.385115841800001, 14.204736666500001, 0.0 ], [ 78.385729526399999, 14.2092100153, 0.0 ] ] ] } }
]
}
