{
"type": "FeatureCollection",
"name": "1___22_",
"crs": { "type": "name", "properties": { "name": "urn:ogc:def:crs:OGC:1.3:CRS84" } },
"features": [
{ "type": "Feature", "properties": { "Name": "1", "description": null, "timestamp": null, "begin": null, "end": null, "altitudeMode": null, "tessellate": 1, "extrude": 0, "visibility": -1, "drawOrder": null, "icon": null }, "geometry": { "type": "Polygon", "coordinates": [ [ [ 77.069347105583191, 15.33096396207883, 0.0 ], [ 77.111663164440657, 15.332617829277771, 0.0 ], [ 77.120795651051964, 15.29561645572765, 0.0 ], [ 77.151573238016354, 15.29306316906824, 0.0 ], [ 77.153021475596177, 15.25884862968047, 0.0 ], [ 77.145367828993045, 15.256825698159229, 0.0 ], [ 77.137573766471505, 15.241675438628009, 0.0 ], [ 77.126283082306841, 15.239939998272639, 0.0 ], [ 77.126847898302984, 15.228059962246389, 0.0 ], [ 77.149770639609685, 15.22048883142012, 0.0 ], [ 77.153615923659444, 15.213955631230091, 0.0 ], [ 77.171038655281578, 15.17455685578348, 0.0 ], [ 77.253099288473251, 15.171195904736329, 0.0 ], [ 77.252043257126715, 15.21740305347479, 0.0 ], [ 77.249053840954176, 15.26986586343808, 0.0 ], [ 77.362070865525993, 15.279742408032879, 0.0 ], [ 77.250468017586797, 15.32996649136283, 0.0 ], [ 77.251232799875652, 15.331129716381399, 0.0 ], [ 77.235204913913918, 15.39186995079565, 0.0 ], [ 77.223032451469294, 15.40639425536188, 0.0 ], [ 77.102516877090011, 15.404920706895661, 0.0 ], [ 77.069347105583191, 15.33096396207883, 0.0 ] ] ] } },
{ "type": "Feature", "properties": { "Name": "1", "description": null, "timestamp": null, "begin": null, "end": null, "altitudeMode": null, "tessellate": 1, "extrude": 0, "visibility": -1, "drawOrder": null, "icon": null }, "geometry": { "type": "Polygon", "coordinates": [ [ [ 77.335110541600997, 15.332650878576651, 0.0 ], [ 77.386260262447635, 15.333383981568989, 0.0 ], [ 77.384934809123394, 15.36530312431616, 0.0 ], [ 77.40071358223048, 15.361777651679001, 0.0 ], [ 77.397467508849402, 15.37998219321647, 0.0 ], [ 77.385092369357977, 15.38228295442207, 0.0 ], [ 77.373323407403475, 15.381281453110139, 0.0 ], [ 77.360373623407995, 15.39264420744213, 0.0 ], [ 77.360204193335704, 15.41104493572619, 0.0 ], [ 77.332018547423004, 15.413139926653139, 0.0 ], [ 77.335110541600997, 15.332650878576651, 0.0 ] ] ] } },
{ "type": "Feature", "properties": { "Name": "1", "description": null, "timestamp": null, "begin": null, "end": null, "altitudeMode": null, "tessellate": 1, "extrude": 0, "visibility": -1, "drawOrder": null, "icon": null }, "geometry": { "type": "Polygon", "coordinates": [ [ [ 77.407349866538809, 15.466649233132619, 0.0 ], [ 77.408148272735573, 15.51636212006359, 0.0 ], [ 77.358495322879364, 15.516740477610931, 0.0 ], [ 77.357705814313917, 15.46712092432524, 0.0 ], [ 77.201652272596078, 15.46748881519132, 0.0 ], [ 77.201359952753393, 15.406428274722231, 0.0 ], [ 77.223252486040707, 15.4061145590046, 0.0 ], [ 77.227343478591706, 15.419307119518249, 0.0 ], [ 77.249972916751787, 15.41716009459784, 0.0 ], [ 77.249838568466743, 15.404734272724021, 0.0 ], [ 77.332338920994559, 15.40510861117091, 0.0 ], [ 77.332827888583537, 15.412586694508949, 0.0 ], [ 77.362238723186181, 15.410077601058081, 0.0 ], [ 77.362460150768271, 15.43462578455248, 0.0 ], [ 77.394315747368282, 15.433032703591509, 0.0 ], [ 77.394378049617487, 15.466763995702239, 0.0 ], [ 77.407349866538809, 15.466649233132619, 0.0 ] ] ] } }
]
}
