{
"type": "FeatureCollection",
"name": "1___12_",
"crs": { "type": "name", "properties": { "name": "urn:ogc:def:crs:OGC:1.3:CRS84" } },
"features": [
{ "type": "Feature", "properties": { "Name": "1", "description": null, "timestamp": null, "begin": null, "end": null, "altitudeMode": null, "tessellate": 1, "extrude": 0, "visibility": -1, "drawOrder": null, "icon": null }, "geometry": { "type": "Polygon", "coordinates": [ [ [ 77.451533999142242, 15.43314785420081, 0.0 ], [ 77.497471578616427, 15.411648154668621, 0.0 ], [ 77.498796611712052, 15.479890528775639, 0.0 ], [ 77.439468265111572, 15.47862337852361, 0.0 ], [ 77.451533999142242, 15.43314785420081, 0.0 ] ] ] } },
{ "type": "Feature", "properties": { "Name": "1", "description": null, "timestamp": null, "begin": null, "end": null, "altitudeMode": null, "tessellate": 1, "extrude": 0, "visibility": -1, "drawOrder": null, "icon": null }, "geometry": { "type": "Polygon", "coordinates": [ [ [ 77.390466787259584, 15.00912467329046, 0.0 ], [ 77.376520168994503, 15.011550916537409, 0.0 ], [ 77.366181728504245, 14.99498852853919, 0.0 ], [ 77.360940530603187, 14.995033590530991, 0.0 ], [ 77.37939268513378, 15.02513448174283, 0.0 ], [ 77.361230732287694, 15.0320071776309, 0.0 ], [ 77.355217040458498, 15.018727143009279, 0.0 ], [ 77.341599582309428, 15.02891320758901, 0.0 ], [ 77.324657146425523, 15.03248378947124, 0.0 ], [ 77.325005795589618, 15.01019421392937, 0.0 ], [ 77.325045717402716, 14.99015765251294, 0.0 ], [ 77.34567519081898, 14.993766512844291, 0.0 ], [ 77.352006155601302, 14.980653003236441, 0.0 ], [ 77.362521395982654, 14.96889173067375, 0.0 ], [ 77.359752822211391, 14.967568350433201, 0.0 ], [ 77.346595837805722, 14.98271453510829, 0.0 ], [ 77.340976050456234, 14.97767084981815, 0.0 ], [ 77.347616138948666, 14.96919931067676, 0.0 ], [ 77.3421983437579, 14.96118582639005, 0.0 ], [ 77.367050967409639, 14.92925122333803, 0.0 ], [ 77.387788002585125, 14.94671306704122, 0.0 ], [ 77.402506922208929, 14.92323373918795, 0.0 ], [ 77.405056025845482, 14.92796140768446, 0.0 ], [ 77.408693150398761, 14.939587091576939, 0.0 ], [ 77.41138199123607, 14.94890683227537, 0.0 ], [ 77.414485237642069, 14.95823114864538, 0.0 ], [ 77.41088711506157, 14.964971465268221, 0.0 ], [ 77.392637602575377, 14.965949719565989, 0.0 ], [ 77.39608188395222, 15.00082754570839, 0.0 ], [ 77.390578659540125, 15.001513935805299, 0.0 ], [ 77.390466787259584, 15.00912467329046, 0.0 ] ] ] } },
{ "type": "Feature", "properties": { "Name": "1", "description": null, "timestamp": null, "begin": null, "end": null, "altitudeMode": null, "tessellate": 1, "extrude": 0, "visibility": -1, "drawOrder": null, "icon": null }, "geometry": { "type": "Polygon", "coordinates": [ [ [ 77.317930997950256, 15.03620208462265, 0.0 ], [ 77.343661499190119, 15.083891429711411, 0.0 ], [ 77.228646312597405, 15.07261962616708, 0.0 ], [ 77.230382083744672, 15.05959719347408, 0.0 ], [ 77.246829792849354, 15.04362795986215, 0.0 ], [ 77.269215771638031, 15.045892097292169, 0.0 ], [ 77.298033987640608, 15.033248404272459, 0.0 ], [ 77.293234000744434, 14.98983307949984, 0.0 ], [ 77.292784011731356, 14.98043596106741, 0.0 ], [ 77.319175661371247, 14.98378562148193, 0.0 ], [ 77.315546349137946, 15.028296354893371, 0.0 ], [ 77.317930997950256, 15.03620208462265, 0.0 ] ] ] } }
]
}
