{
"type": "FeatureCollection",
"name": "1___63_",
"crs": { "type": "name", "properties": { "name": "urn:ogc:def:crs:OGC:1.3:CRS84" } },
"features": [
{ "type": "Feature", "properties": { "Name": "1", "description": null, "timestamp": null, "begin": null, "end": null, "altitudeMode": null, "tessellate": 1, "extrude": 0, "visibility": -1, "drawOrder": null, "icon": null }, "geometry": { "type": "Polygon", "coordinates": [ [ [ 76.789517807621337, 15.04259223682971, 0.0 ], [ 76.789993639477757, 15.017252687318321, 0.0 ], [ 76.801321679498358, 15.0121367226657, 0.0 ], [ 76.825241725359049, 14.97590881478409, 0.0 ], [ 76.872015466343598, 14.970984056144729, 0.0 ], [ 76.876371563124465, 14.89698445103395, 0.0 ], [ 76.977026994085648, 14.89550163747827, 0.0 ], [ 76.98106812528664, 15.009073778715409, 0.0 ], [ 76.899267828095361, 15.018131992389909, 0.0 ], [ 76.876331903500173, 14.996681995251411, 0.0 ], [ 76.860724806351641, 15.010314646645091, 0.0 ], [ 76.841215980887924, 15.045130488258369, 0.0 ], [ 76.808346655108721, 15.055375305662739, 0.0 ], [ 76.789517807621337, 15.04259223682971, 0.0 ] ] ] } }
]
}
