{
"type": "FeatureCollection",
"name": "1___79_",
"crs": { "type": "name", "properties": { "name": "urn:ogc:def:crs:OGC:1.3:CRS84" } },
"features": [
{ "type": "Feature", "properties": { "Name": "1", "description": null, "timestamp": null, "begin": null, "end": null, "altitudeMode": null, "tessellate": 1, "extrude": 0, "visibility": -1, "drawOrder": null, "icon": null }, "geometry": { "type": "Polygon", "coordinates": [ [ [ 77.9655591989453, 15.158501663844239, 0.0 ], [ 77.968412757260907, 15.159520248324659, 0.0 ], [ 77.968344252402773, 15.157885511642579, 0.0 ], [ 77.967385936766917, 15.156393957565619, 0.0 ], [ 77.967101542423279, 15.15440433210431, 0.0 ], [ 77.967019098752829, 15.15368470850942, 0.0 ], [ 77.967652938504074, 15.14961325711225, 0.0 ], [ 77.968155564603805, 15.14929258168749, 0.0 ], [ 77.968259719283409, 15.149620270365711, 0.0 ], [ 77.969761284665282, 15.15071007619887, 0.0 ], [ 77.970404018846764, 15.150898741395119, 0.0 ], [ 77.971627426916854, 15.15091739733837, 0.0 ], [ 77.972640301051001, 15.150849400357471, 0.0 ], [ 77.973556466343595, 15.151064555224851, 0.0 ], [ 77.974418728046473, 15.151266194805009, 0.0 ], [ 77.975677017917292, 15.151303478999189, 0.0 ], [ 77.976715009086163, 15.150894831125861, 0.0 ], [ 77.976710040241869, 15.15089479869288, 0.0 ], [ 77.977162772845787, 15.15116226577768, 0.0 ], [ 77.977754786633369, 15.150901914283221, 0.0 ], [ 77.978547035037309, 15.15143764350629, 0.0 ], [ 77.978789149554899, 15.151408017548089, 0.0 ], [ 77.979436684257465, 15.151516169262541, 0.0 ], [ 77.979811686419836, 15.151373195309249, 0.0 ], [ 77.979979796848056, 15.151421987209311, 0.0 ], [ 77.980537474669845, 15.15202580462425, 0.0 ], [ 77.981874418274231, 15.1524412207401, 0.0 ], [ 77.982672598531536, 15.152754627886139, 0.0 ], [ 77.983211981354856, 15.15338613710688, 0.0 ], [ 77.983480158276549, 15.15354131110397, 0.0 ], [ 77.983550725861448, 15.15351276433719, 0.0 ], [ 77.986199637171879, 15.15217331691974, 0.0 ], [ 77.986654942429382, 15.153263101873961, 0.0 ], [ 77.986316239417818, 15.15360231154915, 0.0 ], [ 77.985282067221689, 15.15461068903244, 0.0 ], [ 77.985660720980349, 15.155631099972821, 0.0 ], [ 77.985890546474366, 15.156605884546209, 0.0 ], [ 77.984813667016482, 15.157798112706301, 0.0 ], [ 77.988320081346473, 15.157995278774759, 0.0 ], [ 77.987905869033824, 15.158858981326739, 0.0 ], [ 77.987424079802693, 15.16010309857532, 0.0 ], [ 77.988915450497913, 15.160846908592699, 0.0 ], [ 77.992155220882452, 15.161100625709031, 0.0 ], [ 77.993048524129037, 15.160912753882069, 0.0 ], [ 77.993109114922959, 15.15933832671489, 0.0 ], [ 77.992884211870191, 15.158626727953189, 0.0 ], [ 77.992655563534115, 15.157573002914299, 0.0 ], [ 77.992476887001715, 15.15629702247054, 0.0 ], [ 77.992872434710407, 15.154406027331159, 0.0 ], [ 77.993612128391433, 15.15410636517627, 0.0 ], [ 77.994144357438969, 15.15548864477546, 0.0 ], [ 77.995083174392988, 15.155209261327339, 0.0 ], [ 77.996193306868022, 15.15577106903066, 0.0 ], [ 77.997800994176274, 15.155753378609729, 0.0 ], [ 77.999432707044136, 15.15661545194529, 0.0 ], [ 78.000107671120986, 15.157853403810149, 0.0 ], [ 78.002407613534928, 15.156700887679721, 0.0 ], [ 78.002429039555821, 15.156676121617551, 0.0 ], [ 78.004118575033019, 15.156486681266159, 0.0 ], [ 78.005599417295329, 15.156515703498901, 0.0 ], [ 78.005870459073776, 15.156740557788289, 0.0 ], [ 78.004220413694682, 15.15805025985277, 0.0 ], [ 78.004073529657916, 15.158671685131189, 0.0 ], [ 78.004449180313117, 15.15991976204049, 0.0 ], [ 78.004099719230439, 15.160722633437381, 0.0 ], [ 78.002234765074803, 15.16322420105999, 0.0 ], [ 78.002901149814718, 15.166504518885279, 0.0 ], [ 78.003128745901009, 15.170561174539531, 0.0 ], [ 78.008998831616353, 15.17353412118589, 0.0 ], [ 78.00539163326026, 15.175239796570271, 0.0 ], [ 78.001899098723385, 15.174809956259059, 0.0 ], [ 77.993991833641857, 15.171068836838019, 0.0 ], [ 77.990332201206343, 15.169903790207981, 0.0 ], [ 77.990019253127628, 15.16592067785643, 0.0 ], [ 77.9888942815235, 15.164691981558731, 0.0 ], [ 77.986008896244471, 15.16324883465794, 0.0 ], [ 77.981945513140744, 15.16145092023754, 0.0 ], [ 77.980429187698007, 15.161321541214001, 0.0 ], [ 77.978465749658341, 15.161016419751549, 0.0 ], [ 77.976982373625816, 15.16238508235033, 0.0 ], [ 77.975706553585397, 15.16379957863405, 0.0 ], [ 77.97432896445207, 15.16478843805784, 0.0 ], [ 77.972272790437799, 15.16604660126314, 0.0 ], [ 77.968919580052415, 15.16524344060975, 0.0 ], [ 77.967604481075156, 15.165530582625131, 0.0 ], [ 77.965365902052426, 15.16661742639886, 0.0 ], [ 77.959365945107066, 15.1697406461992, 0.0 ], [ 77.961548524429958, 15.165337405160271, 0.0 ], [ 77.962110376292458, 15.162680838476589, 0.0 ], [ 77.962518823860066, 15.15810690187257, 0.0 ], [ 77.9655591989453, 15.158501663844239, 0.0 ] ] ] } }
]
}
