{
"type": "FeatureCollection",
"name": "1___65_",
"crs": { "type": "name", "properties": { "name": "urn:ogc:def:crs:OGC:1.3:CRS84" } },
"features": [
{ "type": "Feature", "properties": { "Name": "1", "description": null, "timestamp": null, "begin": null, "end": null, "altitudeMode": null, "tessellate": 1, "extrude": 0, "visibility": -1, "drawOrder": null, "icon": null }, "geometry": { "type": "Polygon", "coordinates": [ [ [ 78.040889929503294, 14.29365582253569, 0.0 ], [ 78.079919763445034, 14.304266159340701, 0.0 ], [ 78.105503672847405, 14.317534971234981, 0.0 ], [ 78.099379384346548, 14.34475328073087, 0.0 ], [ 78.068955555371275, 14.380792233223721, 0.0 ], [ 78.057399951437461, 14.37193771484997, 0.0 ], [ 78.060697180083082, 14.36849243893297, 0.0 ], [ 78.069984428521977, 14.371759985467699, 0.0 ], [ 78.067649896116166, 14.355331475871941, 0.0 ], [ 78.072503122366584, 14.34261907038433, 0.0 ], [ 78.070187642359699, 14.3294083176973, 0.0 ], [ 78.068914503262903, 14.321429424851001, 0.0 ], [ 78.059515638753169, 14.320140880486001, 0.0 ], [ 78.050577367838443, 14.314093325781361, 0.0 ], [ 78.054338719289859, 14.329002576859381, 0.0 ], [ 78.052205264540888, 14.33342728852198, 0.0 ], [ 78.042416572068461, 14.327512899498039, 0.0 ], [ 78.044297135943438, 14.33620083227536, 0.0 ], [ 78.043387373044268, 14.347950278782591, 0.0 ], [ 78.040222755657027, 14.35354697244369, 0.0 ], [ 78.007400394109922, 14.33910400473405, 0.0 ], [ 78.040889929503294, 14.29365582253569, 0.0 ] ] ] } },
{ "type": "Feature", "properties": { "Name": "1", "description": null, "timestamp": null, "begin": null, "end": null, "altitudeMode": null, "tessellate": 1, "extrude": 0, "visibility": -1, "drawOrder": null, "icon": null }, "geometry": { "type": "Polygon", "coordinates": [ [ [ 77.964877777699556, 14.380546752566429, 0.0 ], [ 78.010427394131071, 14.378763785780979, 0.0 ], [ 78.039408568821074, 14.425109980359959, 0.0 ], [ 77.96381203178278, 14.441220059289931, 0.0 ], [ 77.943141660413815, 14.407736702728229, 0.0 ], [ 77.964877777699556, 14.380546752566429, 0.0 ] ] ] } }
]
}
