{
"type": "FeatureCollection",
"name": "1___19_",
"crs": { "type": "name", "properties": { "name": "urn:ogc:def:crs:OGC:1.3:CRS84" } },
"features": [
{ "type": "Feature", "properties": { "Name": "1", "description": null, "timestamp": null, "begin": null, "end": null, "altitudeMode": null, "tessellate": 1, "extrude": 0, "visibility": -1, "drawOrder": null, "icon": null }, "geometry": { "type": "Polygon", "coordinates": [ [ [ 77.254285053370566, 14.387048945871859, 0.0 ], [ 77.268676706911933, 14.382674915867611, 0.0 ], [ 77.336278129612509, 14.38585324662472, 0.0 ], [ 77.36376383293765, 14.39304637238391, 0.0 ], [ 77.370340064603369, 14.408646981233691, 0.0 ], [ 77.375637127387932, 14.45534485385063, 0.0 ], [ 77.372184579806145, 14.484936141063381, 0.0 ], [ 77.36621483731237, 14.500219332782621, 0.0 ], [ 77.251007049861727, 14.499972089521711, 0.0 ], [ 77.24947013911364, 14.4828684903297, 0.0 ], [ 77.249520064266136, 14.430481970959629, 0.0 ], [ 77.253741998419429, 14.38921528208378, 0.0 ], [ 77.254285053370566, 14.387048945871859, 0.0 ] ] ] } },
{ "type": "Feature", "properties": { "Name": "1", "description": null, "timestamp": null, "begin": null, "end": null, "altitudeMode": null, "tessellate": 1, "extrude": 0, "visibility": -1, "drawOrder": null, "icon": null }, "geometry": { "type": "Polygon", "coordinates": [ [ [ 78.439270731676558, 14.49057563127, 0.0 ], [ 78.446534212649667, 14.5308866586262, 0.0 ], [ 78.413429346866849, 14.591522780770649, 0.0 ], [ 78.366145625402552, 14.703199271904341, 0.0 ], [ 78.324915713006831, 14.728024225493639, 0.0 ], [ 78.273986154173016, 14.74968733215629, 0.0 ], [ 78.27636333744546, 14.669427086671391, 0.0 ], [ 78.239115530128359, 14.6282389434636, 0.0 ], [ 78.307112524693082, 14.572018614406529, 0.0 ], [ 78.351308854328479, 14.48722350453906, 0.0 ], [ 78.408814409401316, 14.473528966049351, 0.0 ], [ 78.439270731676558, 14.49057563127, 0.0 ] ] ] } }
]
}
