{
"type": "FeatureCollection",
"name": "1___21_",
"crs": { "type": "name", "properties": { "name": "urn:ogc:def:crs:OGC:1.3:CRS84" } },
"features": [
{ "type": "Feature", "properties": { "Name": "1", "description": null, "timestamp": null, "begin": null, "end": null, "altitudeMode": null, "tessellate": 1, "extrude": 0, "visibility": -1, "drawOrder": null, "icon": null }, "geometry": { "type": "Polygon", "coordinates": [ [ [ 78.043765385005742, 15.37972009184038, 0.0 ], [ 78.107908751249738, 15.400440846269399, 0.0 ], [ 78.126377121369387, 15.405971521028651, 0.0 ], [ 78.184817698295348, 15.408441611828991, 0.0 ], [ 78.200577887272033, 15.41771992042071, 0.0 ], [ 78.212138626763078, 15.435904520027179, 0.0 ], [ 78.215648400666055, 15.460616170272321, 0.0 ], [ 78.219395167212127, 15.499774489478989, 0.0 ], [ 78.171134325864458, 15.49978844866498, 0.0 ], [ 78.114885550465146, 15.491400424821229, 0.0 ], [ 78.140183337312109, 15.46093804974308, 0.0 ], [ 78.105141935833231, 15.428869664559921, 0.0 ], [ 78.030352114424957, 15.406515716123801, 0.0 ], [ 78.043765385005742, 15.37972009184038, 0.0 ] ] ] } }
]
}
