{
"type": "FeatureCollection",
"name": "1___47_",
"crs": { "type": "name", "properties": { "name": "urn:ogc:def:crs:OGC:1.3:CRS84" } },
"features": [
{ "type": "Feature", "properties": { "Name": "1", "description": null, "timestamp": null, "begin": null, "end": null, "altitudeMode": null, "tessellate": 1, "extrude": 0, "visibility": -1, "drawOrder": null, "icon": null }, "geometry": { "type": "Polygon", "coordinates": [ [ [ 77.397696336359047, 15.14057992177541, 0.0 ], [ 77.388409441633669, 15.227265242518961, 0.0 ], [ 77.434778703593082, 15.27568258889233, 0.0 ], [ 77.463352812642583, 15.27857957932164, 0.0 ], [ 77.506390475551953, 15.28156653695369, 0.0 ], [ 77.506102395908869, 15.274153269585179, 0.0 ], [ 77.599752969522328, 15.28478807134897, 0.0 ], [ 77.613650550278592, 15.3593709174945, 0.0 ], [ 77.400762864486566, 15.36146225631453, 0.0 ], [ 77.385287435864598, 15.364847863997531, 0.0 ], [ 77.38635224428748, 15.333194151193741, 0.0 ], [ 77.315192840429958, 15.33354272185462, 0.0 ], [ 77.302168271422545, 15.344500849035651, 0.0 ], [ 77.286643934328254, 15.345804595427669, 0.0 ], [ 77.284921411949185, 15.362230977866989, 0.0 ], [ 77.262086520454289, 15.362716579172281, 0.0 ], [ 77.263265745228438, 15.34086958421496, 0.0 ], [ 77.255153439578464, 15.337420032559001, 0.0 ], [ 77.25735683831067, 15.33307699664714, 0.0 ], [ 77.250844937185661, 15.33368419433541, 0.0 ], [ 77.251486026649033, 15.33108894042593, 0.0 ], [ 77.250956274963784, 15.33013432642786, 0.0 ], [ 77.364048379734186, 15.279466560455161, 0.0 ], [ 77.250616248609944, 15.268381067804979, 0.0 ], [ 77.256297504799079, 15.16814776301347, 0.0 ], [ 77.255861741983992, 15.14196618742384, 0.0 ], [ 77.397696336359047, 15.14057992177541, 0.0 ] ] ] } }
]
}
