{
"type": "FeatureCollection",
"name": "1___88_",
"crs": { "type": "name", "properties": { "name": "urn:ogc:def:crs:OGC:1.3:CRS84" } },
"features": [
{ "type": "Feature", "properties": { "Name": "1", "description": null, "timestamp": null, "begin": null, "end": null, "altitudeMode": null, "tessellate": 1, "extrude": 0, "visibility": -1, "drawOrder": null, "icon": null }, "geometry": { "type": "Polygon", "coordinates": [ [ [ 77.944925519200254, 15.05681089301835, 0.0 ], [ 77.944882532818767, 15.058009494057121, 0.0 ], [ 77.944871150476175, 15.058922688551769, 0.0 ], [ 77.94388701467895, 15.05880223658121, 0.0 ], [ 77.943812916650586, 15.05900756991295, 0.0 ], [ 77.943223303341043, 15.060452221961601, 0.0 ], [ 77.943437725455027, 15.06219812010387, 0.0 ], [ 77.942738854617872, 15.062443966293561, 0.0 ], [ 77.942267649448326, 15.06094432883078, 0.0 ], [ 77.942224331869468, 15.06052533327963, 0.0 ], [ 77.941622046186296, 15.06047832057812, 0.0 ], [ 77.940543156091593, 15.06057264722152, 0.0 ], [ 77.940038703657592, 15.06049569262329, 0.0 ], [ 77.939769479801285, 15.06071740118758, 0.0 ], [ 77.939359193794175, 15.061039413925499, 0.0 ], [ 77.93806415131364, 15.0614581529384, 0.0 ], [ 77.935968496779211, 15.061746166001001, 0.0 ], [ 77.935590264380536, 15.060317757268701, 0.0 ], [ 77.935485917325906, 15.059505924752481, 0.0 ], [ 77.934585746954596, 15.05755140849957, 0.0 ], [ 77.934370593448904, 15.05717504730622, 0.0 ], [ 77.934203360222824, 15.0571970428818, 0.0 ], [ 77.934104324664617, 15.05621154965222, 0.0 ], [ 77.934012140757986, 15.05574644252756, 0.0 ], [ 77.935364369947834, 15.055662527370959, 0.0 ], [ 77.935592751860014, 15.05576778811926, 0.0 ], [ 77.936199421956019, 15.05571840026732, 0.0 ], [ 77.936237256259517, 15.055718473634791, 0.0 ], [ 77.936754049462493, 15.05575425770564, 0.0 ], [ 77.93696739386408, 15.055860533357491, 0.0 ], [ 77.939702517272096, 15.05547385116763, 0.0 ], [ 77.939725910600799, 15.05515988140368, 0.0 ], [ 77.940451745712281, 15.054960824790379, 0.0 ], [ 77.940966919296613, 15.05416840799893, 0.0 ], [ 77.941747649213738, 15.053812447922169, 0.0 ], [ 77.941643494338166, 15.05352717582093, 0.0 ], [ 77.941299510277972, 15.052629116945379, 0.0 ], [ 77.941116295482644, 15.05239933148389, 0.0 ], [ 77.94105986298581, 15.05224665524833, 0.0 ], [ 77.940800798988747, 15.05225816634351, 0.0 ], [ 77.94059775825832, 15.051284799445179, 0.0 ], [ 77.942262969743609, 15.05088222737864, 0.0 ], [ 77.942041095147701, 15.049885414611669, 0.0 ], [ 77.942752584648886, 15.049747584020171, 0.0 ], [ 77.943902839226553, 15.049601303209471, 0.0 ], [ 77.945277007378024, 15.049317460664, 0.0 ], [ 77.946419356682668, 15.048924434234101, 0.0 ], [ 77.946994253654893, 15.048718832886779, 0.0 ], [ 77.946988379613927, 15.04860796772371, 0.0 ], [ 77.947216738084094, 15.048481058567321, 0.0 ], [ 77.947179222219461, 15.04838361649723, 0.0 ], [ 77.947640137805251, 15.04804228733917, 0.0 ], [ 77.947803989759478, 15.04810513298963, 0.0 ], [ 77.949369427636555, 15.046888772079109, 0.0 ], [ 77.949283510139452, 15.0470536325679, 0.0 ], [ 77.949356510332024, 15.04726594063068, 0.0 ], [ 77.949357541464906, 15.04777203299613, 0.0 ], [ 77.948752092858598, 15.04808643334864, 0.0 ], [ 77.948721990131148, 15.04842176766496, 0.0 ], [ 77.948911218324639, 15.048753529322591, 0.0 ], [ 77.948963995867871, 15.04926880871535, 0.0 ], [ 77.948955689062103, 15.04979699855013, 0.0 ], [ 77.948830934126264, 15.05021853582805, 0.0 ], [ 77.949253891147748, 15.05142280574143, 0.0 ], [ 77.948907089743514, 15.051599165615871, 0.0 ], [ 77.948919262175707, 15.052003968944479, 0.0 ], [ 77.948018395160602, 15.0522746520793, 0.0 ], [ 77.948037356204793, 15.052309536779291, 0.0 ], [ 77.948249830287622, 15.0525579518087, 0.0 ], [ 77.94819265188049, 15.053784472511991, 0.0 ], [ 77.948196262033008, 15.0538450910728, 0.0 ], [ 77.948047723538863, 15.054788142052519, 0.0 ], [ 77.94726786766077, 15.05556242359385, 0.0 ], [ 77.946773551020812, 15.055764529879539, 0.0 ], [ 77.94595303359435, 15.056646496340081, 0.0 ], [ 77.944925519200254, 15.05681089301835, 0.0 ] ] ] } },
{ "type": "Feature", "properties": { "Name": "1", "description": null, "timestamp": null, "begin": null, "end": null, "altitudeMode": null, "tessellate": 1, "extrude": 0, "visibility": -1, "drawOrder": null, "icon": null }, "geometry": { "type": "Polygon", "coordinates": [ [ [ 77.937540717450304, 15.048352283489169, 0.0 ], [ 77.939224209467753, 15.04753317238562, 0.0 ], [ 77.940218263695442, 15.0472582637885, 0.0 ], [ 77.940296654369561, 15.04829487165342, 0.0 ], [ 77.940049383907976, 15.04959721986609, 0.0 ], [ 77.939882132735917, 15.049891686622599, 0.0 ], [ 77.93951787103687, 15.05028097461261, 0.0 ], [ 77.939683757301495, 15.05063138315705, 0.0 ], [ 77.937974919987752, 15.05050684806835, 0.0 ], [ 77.936593892529672, 15.050912626270231, 0.0 ], [ 77.936426959921548, 15.05051539125083, 0.0 ], [ 77.93649206198009, 15.049341315935971, 0.0 ], [ 77.936785630766607, 15.048914197345059, 0.0 ], [ 77.937550866832396, 15.04877075371575, 0.0 ], [ 77.937540717450304, 15.048352283489169, 0.0 ] ] ] } }
]
}
