{
"type": "FeatureCollection",
"name": "1___75_",
"crs": { "type": "name", "properties": { "name": "urn:ogc:def:crs:OGC:1.3:CRS84" } },
"features": [
{ "type": "Feature", "properties": { "Name": "1", "description": null, "timestamp": null, "begin": null, "end": null, "altitudeMode": null, "tessellate": 1, "extrude": 0, "visibility": -1, "drawOrder": null, "icon": null }, "geometry": { "type": "Polygon", "coordinates": [ [ [ 78.386621161474693, 14.970035657734369, 0.0 ], [ 78.387881634606515, 14.97683460203592, 0.0 ], [ 78.38775692874232, 14.977761273449151, 0.0 ], [ 78.388149339009644, 14.978940120836469, 0.0 ], [ 78.388055695429202, 14.97983806795323, 0.0 ], [ 78.38778450154922, 14.98255732929492, 0.0 ], [ 78.38604468158816, 14.98633283646574, 0.0 ], [ 78.386918250356203, 14.98713857892724, 0.0 ], [ 78.382723456020884, 14.989598345902669, 0.0 ], [ 78.383038122994819, 14.9903731939099, 0.0 ], [ 78.384841023537717, 14.99320598870167, 0.0 ], [ 78.384608805942861, 14.995849817711971, 0.0 ], [ 78.384219651143738, 14.997410041125439, 0.0 ], [ 78.384751076259008, 14.9985528471019, 0.0 ], [ 78.385104900193554, 14.999439488289269, 0.0 ], [ 78.384995259185004, 14.999900249741129, 0.0 ], [ 78.384939847467209, 15.00045081150178, 0.0 ], [ 78.385216501851872, 15.00108687413227, 0.0 ], [ 78.385161356832029, 15.00144777321856, 0.0 ], [ 78.384799202556636, 15.00195103498246, 0.0 ], [ 78.384657706961434, 15.002684508491379, 0.0 ], [ 78.384092482672713, 15.003393593644679, 0.0 ], [ 78.383943864496672, 15.00440211362567, 0.0 ], [ 78.383223613510296, 15.005358890101521, 0.0 ], [ 78.382872948488028, 15.006372961057069, 0.0 ], [ 78.382796689936512, 15.008550673373071, 0.0 ], [ 78.383176997843833, 15.00912093909005, 0.0 ], [ 78.382934931921753, 15.009957018080669, 0.0 ], [ 78.381589198223836, 15.01071756577068, 0.0 ], [ 78.382355504169709, 15.01204001863435, 0.0 ], [ 78.380981915537248, 15.013049262554951, 0.0 ], [ 78.380052012116053, 15.014039595627921, 0.0 ], [ 78.378396031165806, 15.01483290921156, 0.0 ], [ 78.377082690997824, 15.015532019611021, 0.0 ], [ 78.375823548549135, 15.01674691374715, 0.0 ], [ 78.372414996808473, 15.017965339006921, 0.0 ], [ 78.370147797765242, 15.017453919959101, 0.0 ], [ 78.36971586194089, 15.01868209894646, 0.0 ], [ 78.36935897932571, 15.019199589935701, 0.0 ], [ 78.366601450304799, 15.019331040934739, 0.0 ], [ 78.361941840848715, 15.01986498224896, 0.0 ], [ 78.362292355405017, 15.020614543047939, 0.0 ], [ 78.364111766453647, 15.02069555086657, 0.0 ], [ 78.370164834550224, 15.020621733444131, 0.0 ], [ 78.371723521449809, 15.02311183846663, 0.0 ], [ 78.369729234899893, 15.0252918497215, 0.0 ], [ 78.365819444725204, 15.02843093332344, 0.0 ], [ 78.362770110945704, 15.02956747437343, 0.0 ], [ 78.358781832520549, 15.030736432907499, 0.0 ], [ 78.353560028117755, 15.031383017876401, 0.0 ], [ 78.350585349132217, 15.026560567519841, 0.0 ], [ 78.35009132741439, 15.025099121808569, 0.0 ], [ 78.350144401151951, 15.024580692760869, 0.0 ], [ 78.351032400117518, 15.02442104678514, 0.0 ], [ 78.351212792673053, 15.02468025354715, 0.0 ], [ 78.352577811764306, 15.02429520425175, 0.0 ], [ 78.352524092747288, 15.023875751594931, 0.0 ], [ 78.355029344564173, 15.02288680955982, 0.0 ], [ 78.354935296374236, 15.02225392984664, 0.0 ], [ 78.350100412836568, 15.02354138486835, 0.0 ], [ 78.349650642397293, 15.02164333697301, 0.0 ], [ 78.34896651090402, 15.01513414521339, 0.0 ], [ 78.346124156006212, 15.01174622438943, 0.0 ], [ 78.343979566503521, 15.00863797023832, 0.0 ], [ 78.342234050406645, 15.003528950476619, 0.0 ], [ 78.343553219486836, 15.002997078419421, 0.0 ], [ 78.344530149031229, 15.0019416163979, 0.0 ], [ 78.344123537233514, 15.00160724551343, 0.0 ], [ 78.346054123102107, 15.00046848923559, 0.0 ], [ 78.345745743152236, 14.99973125546763, 0.0 ], [ 78.344756886711963, 14.99944122748753, 0.0 ], [ 78.345726154667446, 14.999045553249379, 0.0 ], [ 78.346179752363085, 14.99850682330216, 0.0 ], [ 78.347891021904601, 14.997513244748641, 0.0 ], [ 78.350799394953043, 14.99475785908071, 0.0 ], [ 78.353413455181823, 14.991045520453961, 0.0 ], [ 78.354446965054365, 14.990482935954351, 0.0 ], [ 78.356222802100106, 14.988809395207751, 0.0 ], [ 78.357553898567417, 14.98711785576794, 0.0 ], [ 78.359814159036304, 14.98637339412814, 0.0 ], [ 78.359703243556865, 14.98613545292487, 0.0 ], [ 78.360540042675041, 14.98671508352273, 0.0 ], [ 78.361453222955049, 14.986416300761491, 0.0 ], [ 78.362214193635381, 14.986094480190459, 0.0 ], [ 78.362841643835637, 14.98540887098055, 0.0 ], [ 78.365367265752766, 14.98313856228933, 0.0 ], [ 78.369441907747458, 14.981534232841501, 0.0 ], [ 78.373341431280537, 14.97885105423234, 0.0 ], [ 78.376332644984629, 14.97701468765686, 0.0 ], [ 78.376553362735919, 14.97806891711765, 0.0 ], [ 78.376320801844955, 14.97865870938174, 0.0 ], [ 78.376661399725776, 14.979601668338841, 0.0 ], [ 78.377751093421779, 14.979173711238049, 0.0 ], [ 78.37798113795678, 14.97837596926694, 0.0 ], [ 78.378006446643781, 14.97778783927383, 0.0 ], [ 78.378586097484146, 14.977404997522051, 0.0 ], [ 78.379610559363172, 14.97734727306162, 0.0 ], [ 78.380129125305047, 14.97665940296082, 0.0 ], [ 78.3798774381724, 14.975831369822719, 0.0 ], [ 78.379966219403741, 14.975234452409021, 0.0 ], [ 78.382217520141211, 14.973072158411361, 0.0 ], [ 78.386621161474693, 14.970035657734369, 0.0 ] ] ] } },
{ "type": "Feature", "properties": { "Name": "1", "description": null, "timestamp": null, "begin": null, "end": null, "altitudeMode": null, "tessellate": 1, "extrude": 0, "visibility": -1, "drawOrder": null, "icon": null }, "geometry": { "type": "Polygon", "coordinates": [ [ [ 78.35701335615623, 14.98654129733039, 0.0 ], [ 78.34356761312452, 14.996977835689339, 0.0 ], [ 78.34112201580804, 14.97890434748342, 0.0 ], [ 78.361267479667859, 14.970202093191791, 0.0 ], [ 78.365941491401756, 14.98210848939951, 0.0 ], [ 78.35701335615623, 14.98654129733039, 0.0 ] ] ] } }
]
}
