{
"type": "FeatureCollection",
"name": "1___41_",
"crs": { "type": "name", "properties": { "name": "urn:ogc:def:crs:OGC:1.3:CRS84" } },
"features": [
{ "type": "Feature", "properties": { "Name": "1", "description": null, "timestamp": null, "begin": null, "end": null, "altitudeMode": null, "tessellate": -1, "extrude": 0, "visibility": -1, "drawOrder": null, "icon": null }, "geometry": { "type": "Point", "coordinates": [ 77.277112333370198, 15.102186969521689, 0.0 ] } },
{ "type": "Feature", "properties": { "Name": "1", "description": null, "timestamp": null, "begin": null, "end": null, "altitudeMode": null, "tessellate": 1, "extrude": 0, "visibility": -1, "drawOrder": null, "icon": null }, "geometry": { "type": "Polygon", "coordinates": [ [ [ 77.194846918259927, 14.997912211694381, 0.0 ], [ 77.190479681064375, 15.07039564429421, 0.0 ], [ 77.402054675412799, 15.08948090446043, 0.0 ], [ 77.397417405789639, 15.1401877506879, 0.0 ], [ 77.255243144883352, 15.1414178905488, 0.0 ], [ 77.255629192919685, 15.167804138980591, 0.0 ], [ 77.189535264549491, 15.170320560947619, 0.0 ], [ 77.154443234339254, 15.171235647661719, 0.0 ], [ 77.110175976459871, 15.00030263291295, 0.0 ], [ 77.194846918259927, 14.997912211694381, 0.0 ] ] ] } }
]
}
