{
"type": "FeatureCollection",
"name": "1___38_",
"crs": { "type": "name", "properties": { "name": "urn:ogc:def:crs:OGC:1.3:CRS84" } },
"features": [
{ "type": "Feature", "properties": { "Name": "1", "description": null, "timestamp": null, "begin": null, "end": null, "altitudeMode": null, "tessellate": 1, "extrude": 0, "visibility": -1, "drawOrder": null, "icon": null }, "geometry": { "type": "Polygon", "coordinates": [ [ [ 76.961803897430627, 14.49503857161845, 0.0 ], [ 76.952651603061341, 14.46285063883705, 0.0 ], [ 76.940836984519905, 14.42234205166347, 0.0 ], [ 76.91962512343909, 14.40123230280685, 0.0 ], [ 76.918929098481883, 14.38245884018386, 0.0 ], [ 76.91644066944049, 14.3340359947856, 0.0 ], [ 76.956301783571064, 14.31245722119723, 0.0 ], [ 76.954585376425456, 14.292475173659909, 0.0 ], [ 76.95175889058298, 14.25821386380019, 0.0 ], [ 77.02036939042577, 14.25568813193375, 0.0 ], [ 77.016534493557799, 14.298931194246251, 0.0 ], [ 77.014985532333995, 14.3164091000084, 0.0 ], [ 77.011080895424172, 14.36090351337867, 0.0 ], [ 77.007418009216011, 14.404085014612461, 0.0 ], [ 77.003010839508264, 14.451882927641179, 0.0 ], [ 77.021296934710051, 14.453859257455971, 0.0 ], [ 77.037219248170501, 14.496418810341479, 0.0 ], [ 77.047210343018122, 14.522864554882959, 0.0 ], [ 77.056419825566678, 14.54743193799542, 0.0 ], [ 77.062321381571053, 14.56366129869097, 0.0 ], [ 77.043683300882819, 14.563643031471679, 0.0 ], [ 77.021730133511454, 14.56341935257873, 0.0 ], [ 76.991023471972468, 14.56309893926486, 0.0 ], [ 76.97523440644683, 14.563024502916081, 0.0 ], [ 76.960487541443726, 14.56284130139238, 0.0 ], [ 76.915179194181349, 14.56227001087535, 0.0 ], [ 76.918791630054557, 14.51513404276465, 0.0 ], [ 76.961803897430627, 14.49503857161845, 0.0 ] ] ] } },
{ "type": "Feature", "properties": { "Name": "1", "description": null, "timestamp": null, "begin": null, "end": null, "altitudeMode": null, "tessellate": -1, "extrude": 0, "visibility": -1, "drawOrder": null, "icon": null }, "geometry": { "type": "Point", "coordinates": [ 76.943029216993196, 14.3835460153218, 0.0 ] } }
]
}
