{
"type": "FeatureCollection",
"name": "1___34_",
"crs": { "type": "name", "properties": { "name": "urn:ogc:def:crs:OGC:1.3:CRS84" } },
"features": [
{ "type": "Feature", "properties": { "Name": "1", "description": null, "timestamp": null, "begin": null, "end": null, "altitudeMode": null, "tessellate": 1, "extrude": 0, "visibility": -1, "drawOrder": null, "icon": null }, "geometry": { "type": "Polygon", "coordinates": [ [ [ 77.392758728732261, 14.96607932292339, 0.0 ], [ 77.420391455954473, 14.964545123589691, 0.0 ], [ 77.428890572845816, 14.99307861794076, 0.0 ], [ 77.447001823610023, 14.98923161279086, 0.0 ], [ 77.452776266200004, 15.022321743510981, 0.0 ], [ 77.45802115113203, 15.054182032779879, 0.0 ], [ 77.422312009622829, 15.06676839917373, 0.0 ], [ 77.416444360513424, 15.06676570326076, 0.0 ], [ 77.406605675157522, 15.04777143211532, 0.0 ], [ 77.414263133290291, 15.04517065090814, 0.0 ], [ 77.413497482545793, 15.040823446583079, 0.0 ], [ 77.409841064067621, 15.021529586623821, 0.0 ], [ 77.399761590578009, 15.0233237380227, 0.0 ], [ 77.398987338809945, 15.019437783658169, 0.0 ], [ 77.395054635008918, 15.01999815990759, 0.0 ], [ 77.391007083424455, 15.00161810464518, 0.0 ], [ 77.396733789327229, 15.001283025519569, 0.0 ], [ 77.392758728732261, 14.96607932292339, 0.0 ] ] ] } },
{ "type": "Feature", "properties": { "Name": "1", "description": null, "timestamp": null, "begin": null, "end": null, "altitudeMode": null, "tessellate": -1, "extrude": 0, "visibility": -1, "drawOrder": null, "icon": null }, "geometry": { "type": "Point", "coordinates": [ 77.411069736933058, 15.010547202884361, 0.0 ] } }
]
}
