{
"type": "FeatureCollection",
"name": "1___101_",
"crs": { "type": "name", "properties": { "name": "urn:ogc:def:crs:OGC:1.3:CRS84" } },
"features": [
{ "type": "Feature", "properties": { "Name": "1", "description": null, "timestamp": null, "begin": null, "end": null, "altitudeMode": null, "tessellate": -1, "extrude": 0, "visibility": -1, "drawOrder": null, "icon": null }, "geometry": { "type": "Point", "coordinates": [ 78.334290754091541, 15.00540194930637, 0.0 ] } },
{ "type": "Feature", "properties": { "Name": "1", "description": null, "timestamp": null, "begin": null, "end": null, "altitudeMode": null, "tessellate": -1, "extrude": 1, "visibility": -1, "drawOrder": null, "icon": null }, "geometry": { "type": "Polygon", "coordinates": [ [ [ 78.277033420099997, 15.0276714777, 0.0 ], [ 78.258380544600001, 15.026260453400001, 0.0 ], [ 78.257345720399996, 15.0249008767, 0.0 ], [ 78.255694158200001, 15.0233728301, 0.0 ], [ 78.263190515, 15.0215261118, 0.0 ], [ 78.2728095147, 15.0119566309, 0.0 ], [ 78.286969237600005, 15.0125465954, 0.0 ], [ 78.287110692, 15.0125474953, 0.0 ], [ 78.304703642600003, 15.010101751900001, 0.0 ], [ 78.320483734800007, 15.0033415327, 0.0 ], [ 78.321059951300001, 15.0029056402, 0.0 ], [ 78.326643595799993, 14.9975081356, 0.0 ], [ 78.327067139, 14.9972258295, 0.0 ], [ 78.352823126900006, 14.9788809161, 0.0 ], [ 78.362761169099997, 14.974242315, 0.0 ], [ 78.363023557899993, 14.973978857, 0.0 ], [ 78.363957646499998, 14.973583627, 0.0 ], [ 78.369867478100005, 14.977723209300001, 0.0 ], [ 78.372176703199997, 14.9791167589, 0.0 ], [ 78.3755206692, 14.9869270679, 0.0 ], [ 78.375534712199993, 14.987200634700001, 0.0 ], [ 78.370947704800002, 14.9997973927, 0.0 ], [ 78.370834419, 15.000498947, 0.0 ], [ 78.367678357700001, 15.0107400844, 0.0 ], [ 78.340589814500007, 15.014713263399999, 0.0 ], [ 78.327269206300002, 15.018779349400001, 0.0 ], [ 78.317532182299999, 15.0234071369, 0.0 ], [ 78.315584183799999, 15.0242653439, 0.0 ], [ 78.314702552499995, 15.0246326806, 0.0 ], [ 78.314501326300004, 15.0243590811, 0.0 ], [ 78.313702810699994, 15.0242411546, 0.0 ], [ 78.312683215899995, 15.0255418118, 0.0 ], [ 78.307866022400006, 15.0279809682, 0.0 ], [ 78.288121490500004, 15.027159193699999, 0.0 ], [ 78.283795283700002, 15.029825409900001, 0.0 ], [ 78.277033420099997, 15.0276714777, 0.0 ] ] ] } }
]
}
