{
"type": "FeatureCollection",
"name": "1___93_",
"crs": { "type": "name", "properties": { "name": "urn:ogc:def:crs:OGC:1.3:CRS84" } },
"features": [
{ "type": "Feature", "properties": { "Name": "1", "description": null, "timestamp": null, "begin": null, "end": null, "altitudeMode": null, "tessellate": -1, "extrude": 0, "visibility": -1, "drawOrder": null, "icon": null }, "geometry": { "type": "Polygon", "coordinates": [ [ [ 78.098221153099999, 15.6461665034, 0.0 ], [ 78.1024912038, 15.6459008673, 0.0 ], [ 78.102632700599997, 15.6398992401, 0.0 ], [ 78.101951135299998, 15.6385694012, 0.0 ], [ 78.117006007599997, 15.634233980099999, 0.0 ], [ 78.129756789400005, 15.6303151562, 0.0 ], [ 78.133279561, 15.630911170499999, 0.0 ], [ 78.136181537, 15.636785382199999, 0.0 ], [ 78.137496730400002, 15.642663434599999, 0.0 ], [ 78.135798581900005, 15.644138851199999, 0.0 ], [ 78.143641815500004, 15.6690468874, 0.0 ], [ 78.113834841, 15.6786416759, 0.0 ], [ 78.112626454099995, 15.675587506099999, 0.0 ], [ 78.109249902800002, 15.6762092082, 0.0 ], [ 78.100931203900004, 15.662412743100001, 0.0 ], [ 78.097222782100005, 15.663958301499999, 0.0 ], [ 78.094314006499999, 15.6588930951, 0.0 ], [ 78.098379093700004, 15.6579509261, 0.0 ], [ 78.095648590400003, 15.649027402, 0.0 ], [ 78.098087882800002, 15.6474238875, 0.0 ], [ 78.098221153099999, 15.6461665034, 0.0 ] ] ] } },
{ "type": "Feature", "properties": { "Name": "1", "description": null, "timestamp": null, "begin": null, "end": null, "altitudeMode": null, "tessellate": -1, "extrude": 0, "visibility": -1, "drawOrder": null, "icon": null }, "geometry": { "type": "Point", "coordinates": [ 78.118265717160668, 15.652432921305429, 0.0 ] } }
]
}
