{
"type": "FeatureCollection",
"name": "1___81_",
"crs": { "type": "name", "properties": { "name": "urn:ogc:def:crs:OGC:1.3:CRS84" } },
"features": [
{ "type": "Feature", "properties": { "Name": "1", "description": null, "timestamp": null, "begin": null, "end": null, "altitudeMode": null, "tessellate": 1, "extrude": 0, "visibility": -1, "drawOrder": null, "icon": null }, "geometry": { "type": "Polygon", "coordinates": [ [ [ 77.376956128452989, 14.273807405789331, 0.0 ], [ 77.376804208588368, 14.270254089338451, 0.0 ], [ 77.376789077108327, 14.270012752832679, 0.0 ], [ 77.377169311100715, 14.26994530622237, 0.0 ], [ 77.378725726948815, 14.269925499910711, 0.0 ], [ 77.379587612015371, 14.26992493072836, 0.0 ], [ 77.38091571423918, 14.270880775373289, 0.0 ], [ 77.381356819079087, 14.271487667745211, 0.0 ], [ 77.382994682040888, 14.271490459597, 0.0 ], [ 77.382291934160662, 14.267731024152679, 0.0 ], [ 77.383930685716749, 14.267977218081031, 0.0 ], [ 77.383993705889125, 14.264728312147261, 0.0 ], [ 77.389350226800431, 14.265426871970339, 0.0 ], [ 77.390531003211663, 14.26255142307545, 0.0 ], [ 77.391329468964415, 14.257649966525561, 0.0 ], [ 77.389627472860866, 14.257627064919401, 0.0 ], [ 77.389396963143497, 14.25627897576007, 0.0 ], [ 77.389442081288294, 14.254400382634181, 0.0 ], [ 77.394063809130387, 14.25428494716448, 0.0 ], [ 77.394038270012643, 14.25618843428591, 0.0 ], [ 77.396910386702572, 14.25610670468755, 0.0 ], [ 77.399160038743076, 14.25576526770967, 0.0 ], [ 77.401422859556988, 14.26020444323116, 0.0 ], [ 77.401628190778098, 14.260092468384711, 0.0 ], [ 77.401833692672412, 14.25951057596667, 0.0 ], [ 77.402008688562518, 14.259354945950079, 0.0 ], [ 77.40151560439584, 14.25830230935969, 0.0 ], [ 77.401033185530864, 14.25538806010494, 0.0 ], [ 77.401722695475996, 14.24880782420159, 0.0 ], [ 77.402829154822527, 14.24855411040252, 0.0 ], [ 77.409143228030018, 14.247082930290469, 0.0 ], [ 77.409095186445455, 14.24904902426273, 0.0 ], [ 77.409278017193515, 14.250183555138619, 0.0 ], [ 77.409217407769631, 14.25137579613477, 0.0 ], [ 77.408809111633332, 14.252280737709681, 0.0 ], [ 77.408843534602511, 14.253184171035461, 0.0 ], [ 77.408397403795888, 14.25409798473838, 0.0 ], [ 77.407876632922324, 14.2555341075839, 0.0 ], [ 77.408921177738989, 14.256013506777331, 0.0 ], [ 77.408583064428356, 14.26000340850557, 0.0 ], [ 77.407043155522828, 14.259745070192279, 0.0 ], [ 77.405731413712815, 14.26380757512907, 0.0 ], [ 77.405164868861164, 14.266859729461601, 0.0 ], [ 77.399609121256617, 14.2661286649976, 0.0 ], [ 77.396127901258168, 14.26622749574808, 0.0 ], [ 77.395399942172617, 14.266329047559941, 0.0 ], [ 77.395292559568304, 14.26673264953291, 0.0 ], [ 77.391336307800941, 14.26892209120054, 0.0 ], [ 77.388984988799891, 14.26952488904279, 0.0 ], [ 77.388253584216457, 14.26974731063124, 0.0 ], [ 77.387109548115347, 14.27232286163261, 0.0 ], [ 77.385284386046067, 14.27267712049751, 0.0 ], [ 77.383790091610152, 14.27278794227122, 0.0 ], [ 77.383280901277416, 14.27302670927592, 0.0 ], [ 77.381526920312524, 14.273258052767771, 0.0 ], [ 77.38029762938605, 14.273559387758599, 0.0 ], [ 77.378974888782579, 14.2736324614282, 0.0 ], [ 77.378561191933485, 14.27373895569874, 0.0 ], [ 77.376956128452989, 14.273807405789331, 0.0 ] ] ] } },
{ "type": "Feature", "properties": { "Name": "1", "description": null, "timestamp": null, "begin": null, "end": null, "altitudeMode": null, "tessellate": 1, "extrude": 0, "visibility": -1, "drawOrder": null, "icon": null }, "geometry": { "type": "Polygon", "coordinates": [ [ [ 77.376716338637493, 14.304534620691109, 0.0 ], [ 77.376189598531766, 14.30376884155384, 0.0 ], [ 77.375467093948942, 14.301252806703321, 0.0 ], [ 77.375601176999623, 14.2999474684364, 0.0 ], [ 77.375752906248778, 14.29122140478148, 0.0 ], [ 77.377972580140607, 14.290600527423191, 0.0 ], [ 77.376272118500182, 14.28653464174001, 0.0 ], [ 77.377735216694063, 14.286744706477281, 0.0 ], [ 77.377602501174536, 14.28729071065715, 0.0 ], [ 77.377656430264338, 14.28845982329123, 0.0 ], [ 77.377927559613269, 14.28914581760205, 0.0 ], [ 77.378712813974388, 14.289143257695329, 0.0 ], [ 77.382656569364883, 14.29020309138952, 0.0 ], [ 77.382822091253658, 14.28838096697554, 0.0 ], [ 77.381108577960262, 14.287967224808609, 0.0 ], [ 77.378976053694288, 14.287461351412841, 0.0 ], [ 77.379633753314764, 14.28537423862304, 0.0 ], [ 77.379624585579847, 14.28428093793185, 0.0 ], [ 77.379768240325461, 14.284054460108131, 0.0 ], [ 77.37885638949254, 14.283670335375129, 0.0 ], [ 77.37889298014511, 14.28335206214107, 0.0 ], [ 77.37908420409849, 14.28247807227778, 0.0 ], [ 77.379452092125746, 14.28239613408436, 0.0 ], [ 77.379336032507098, 14.281961057704059, 0.0 ], [ 77.379360373974237, 14.281623843826051, 0.0 ], [ 77.380809715139335, 14.281306356325221, 0.0 ], [ 77.381383669581822, 14.280959181237931, 0.0 ], [ 77.382108448432419, 14.280946163301969, 0.0 ], [ 77.382403824398494, 14.28076382756727, 0.0 ], [ 77.382414863282165, 14.28109382171964, 0.0 ], [ 77.382781290330897, 14.281087038669989, 0.0 ], [ 77.385283074405663, 14.279541845752391, 0.0 ], [ 77.385524273343748, 14.278938487353139, 0.0 ], [ 77.385611680996718, 14.27846105940926, 0.0 ], [ 77.385630934207725, 14.277486481885949, 0.0 ], [ 77.385542622317388, 14.276988388292139, 0.0 ], [ 77.385031552817836, 14.27698772406201, 0.0 ], [ 77.384887896271565, 14.27643610107148, 0.0 ], [ 77.381198947545101, 14.27570479583982, 0.0 ], [ 77.381196208196911, 14.275505455201831, 0.0 ], [ 77.379222435265802, 14.27514233017058, 0.0 ], [ 77.378564380035229, 14.273896827661931, 0.0 ], [ 77.379399975186999, 14.273654379420529, 0.0 ], [ 77.379819914640919, 14.273718636360201, 0.0 ], [ 77.383175390424398, 14.27312054695115, 0.0 ], [ 77.384158155292582, 14.27281985415499, 0.0 ], [ 77.385537880727767, 14.27272410499676, 0.0 ], [ 77.387107756982104, 14.27234420807236, 0.0 ], [ 77.387354969793876, 14.27272595466401, 0.0 ], [ 77.387863420638524, 14.272548544292061, 0.0 ], [ 77.388032083981784, 14.274445134180411, 0.0 ], [ 77.389246200097347, 14.274667061902759, 0.0 ], [ 77.389242192272931, 14.27571019993368, 0.0 ], [ 77.38951850957973, 14.27633226415087, 0.0 ], [ 77.389785600760021, 14.277082014686959, 0.0 ], [ 77.390039684909269, 14.277790131996641, 0.0 ], [ 77.390005074486581, 14.27878500732268, 0.0 ], [ 77.389872940089248, 14.279130027892251, 0.0 ], [ 77.389543934204369, 14.279441791089811, 0.0 ], [ 77.389463307075445, 14.280009964415409, 0.0 ], [ 77.389104891618047, 14.28032817542401, 0.0 ], [ 77.388962860198362, 14.28108517500864, 0.0 ], [ 77.389123809247806, 14.281464569708181, 0.0 ], [ 77.388765422282432, 14.281651815058281, 0.0 ], [ 77.388493585565712, 14.28219117759148, 0.0 ], [ 77.388376402834112, 14.28225063903596, 0.0 ], [ 77.386823532670434, 14.281888454383751, 0.0 ], [ 77.386595286277853, 14.282919447081881, 0.0 ], [ 77.386403050190665, 14.28411220974194, 0.0 ], [ 77.386480587302728, 14.2842027680915, 0.0 ], [ 77.386415263716529, 14.28477726557391, 0.0 ], [ 77.386296842297938, 14.28514806215121, 0.0 ], [ 77.385805755926754, 14.28574057243075, 0.0 ], [ 77.385830583127188, 14.28591708639267, 0.0 ], [ 77.386121775803673, 14.28602543286109, 0.0 ], [ 77.386021666107865, 14.287276859782461, 0.0 ], [ 77.385571337676723, 14.288578906733459, 0.0 ], [ 77.385215854476328, 14.288352592997599, 0.0 ], [ 77.385014978025268, 14.29007315667905, 0.0 ], [ 77.384915296905248, 14.29137539569308, 0.0 ], [ 77.384680187134677, 14.29290009110494, 0.0 ], [ 77.384527724151283, 14.2941492515858, 0.0 ], [ 77.383969952027073, 14.295850311331289, 0.0 ], [ 77.383060432102326, 14.29653655709043, 0.0 ], [ 77.382163248464252, 14.299073109672801, 0.0 ], [ 77.379670699145535, 14.299255929823619, 0.0 ], [ 77.379128801452708, 14.3006811932212, 0.0 ], [ 77.377751371554595, 14.30138390502132, 0.0 ], [ 77.377731790441388, 14.30319743181272, 0.0 ], [ 77.376716338637493, 14.304534620691109, 0.0 ] ] ] } }
]
}
