{
"type": "FeatureCollection",
"name": "1___17_",
"crs": { "type": "name", "properties": { "name": "urn:ogc:def:crs:OGC:1.3:CRS84" } },
"features": [
{ "type": "Feature", "properties": { "Name": "1", "description": null, "timestamp": null, "begin": null, "end": null, "altitudeMode": null, "tessellate": 1, "extrude": 0, "visibility": -1, "drawOrder": null, "icon": null }, "geometry": { "type": "Polygon", "coordinates": [ [ [ 77.500846465264729, 15.400981759735741, 0.0 ], [ 77.504436300380078, 15.39273821547822, 0.0 ], [ 77.505266908937486, 15.39240519924596, 0.0 ], [ 77.507056112885095, 15.39179339976033, 0.0 ], [ 77.508349330619367, 15.39128022292593, 0.0 ], [ 77.508880481474847, 15.39063847056905, 0.0 ], [ 77.510645074420111, 15.388552354996509, 0.0 ], [ 77.512696832337539, 15.386113316107259, 0.0 ], [ 77.51347371191153, 15.38518161821694, 0.0 ], [ 77.513870149952268, 15.384684624247869, 0.0 ], [ 77.514015867402108, 15.384243275284421, 0.0 ], [ 77.514312051855356, 15.383200198258971, 0.0 ], [ 77.514661334403073, 15.381796836675839, 0.0 ], [ 77.515289800877198, 15.37943818677881, 0.0 ], [ 77.515802251628259, 15.37745100040773, 0.0 ], [ 77.516171191758744, 15.376007282024339, 0.0 ], [ 77.516522406032919, 15.37473815564327, 0.0 ], [ 77.516817149117117, 15.373853808858231, 0.0 ], [ 77.516949127039666, 15.373640775857661, 0.0 ], [ 77.517404953906237, 15.37323530987571, 0.0 ], [ 77.517806271815402, 15.37293969399601, 0.0 ], [ 77.517988761038325, 15.37254937097412, 0.0 ], [ 77.518277202872923, 15.37142392964847, 0.0 ], [ 77.518494447199345, 15.37038030307634, 0.0 ], [ 77.51860272917591, 15.36959797859048, 0.0 ], [ 77.518679360384297, 15.36878800662604, 0.0 ], [ 77.518821701283358, 15.36798149438863, 0.0 ], [ 77.519104950790521, 15.366836515680321, 0.0 ], [ 77.519308905346918, 15.36594489644045, 0.0 ], [ 77.519360653412647, 15.36557925355504, 0.0 ], [ 77.51944431612776, 15.364800561043911, 0.0 ], [ 77.519548052101484, 15.3634814593913, 0.0 ], [ 77.519657996499433, 15.363036192490689, 0.0 ], [ 77.520055906658214, 15.36256127828196, 0.0 ], [ 77.520626412582146, 15.36203910230871, 0.0 ], [ 77.521221593816634, 15.36142457183325, 0.0 ], [ 77.521749179499878, 15.360827524177949, 0.0 ], [ 77.522111759902359, 15.360027786771161, 0.0 ], [ 77.522424977041467, 15.359079070399311, 0.0 ], [ 77.522706097846182, 15.35844230950919, 0.0 ], [ 77.522851556944346, 15.357899301304791, 0.0 ], [ 77.523018196218288, 15.35732199420128, 0.0 ], [ 77.523104945017948, 15.35689223248332, 0.0 ], [ 77.523266090779146, 15.356411154035881, 0.0 ], [ 77.523537146060804, 15.355938121832921, 0.0 ], [ 77.524042757536108, 15.355135329069091, 0.0 ], [ 77.524396770155136, 15.354601752535871, 0.0 ], [ 77.524748044978267, 15.35409677769203, 0.0 ], [ 77.525188649837816, 15.3534778155553, 0.0 ], [ 77.525483212457075, 15.353054770071131, 0.0 ], [ 77.525797491338153, 15.35259222919996, 0.0 ], [ 77.525983915218006, 15.352162033870339, 0.0 ], [ 77.52618145840006, 15.351599137968581, 0.0 ], [ 77.526311627260554, 15.350975307127539, 0.0 ], [ 77.52643806216858, 15.350489885095911, 0.0 ], [ 77.526590438894658, 15.350152335014609, 0.0 ], [ 77.526896772158807, 15.349677674270399, 0.0 ], [ 77.527176737528848, 15.34929138085228, 0.0 ], [ 77.52787070605595, 15.348390008414169, 0.0 ], [ 77.528414924265348, 15.34771726652809, 0.0 ], [ 77.528965379943614, 15.34707472246088, 0.0 ], [ 77.529519200310673, 15.346395488793441, 0.0 ], [ 77.530029180736349, 15.345716774628251, 0.0 ], [ 77.530629174697921, 15.34485910899626, 0.0 ], [ 77.531750680274925, 15.342957719984859, 0.0 ], [ 77.532341842646701, 15.342027334811471, 0.0 ], [ 77.533509258625685, 15.34043601782653, 0.0 ], [ 77.534191604998952, 15.339493322513571, 0.0 ], [ 77.534395059463236, 15.33913378903245, 0.0 ], [ 77.534628033629787, 15.338214320003409, 0.0 ], [ 77.534939019002977, 15.336784471799101, 0.0 ], [ 77.535550963822544, 15.3342776946747, 0.0 ], [ 77.536166347643302, 15.33157940028828, 0.0 ], [ 77.536745884487672, 15.329402705599559, 0.0 ], [ 77.537282296125781, 15.327826936052, 0.0 ], [ 77.537619072981002, 15.326853254835701, 0.0 ], [ 77.538037368519355, 15.32592384090016, 0.0 ], [ 77.539372995381925, 15.32311366313802, 0.0 ], [ 77.540635915973709, 15.320479304665239, 0.0 ], [ 77.541498179365078, 15.31875034168822, 0.0 ], [ 77.542259515170898, 15.31813281534666, 0.0 ], [ 77.542660357766636, 15.31761338169103, 0.0 ], [ 77.543052550846397, 15.316854608844389, 0.0 ], [ 77.543648351117994, 15.315098938694391, 0.0 ], [ 77.547002747282278, 15.31531005752832, 0.0 ], [ 77.552274479446538, 15.315674276867661, 0.0 ], [ 77.559762557836748, 15.316885513564999, 0.0 ], [ 77.563294696056076, 15.31758678732856, 0.0 ], [ 77.569773198761951, 15.31942543567545, 0.0 ], [ 77.577894717415788, 15.322376587209011, 0.0 ], [ 77.586239930010265, 15.326350304462331, 0.0 ], [ 77.590984644852682, 15.32896557721925, 0.0 ], [ 77.596585820437937, 15.33262997705522, 0.0 ], [ 77.601243306648513, 15.336362974029671, 0.0 ], [ 77.604455653652181, 15.339069855853481, 0.0 ], [ 77.608344233337903, 15.342715611188661, 0.0 ], [ 77.611147695861334, 15.345785010851539, 0.0 ], [ 77.613616040316742, 15.34854274348408, 0.0 ], [ 77.615604540699394, 15.3511289185574, 0.0 ], [ 77.618476171705424, 15.354902509432041, 0.0 ], [ 77.621526348063554, 15.35978535849002, 0.0 ], [ 77.623827389713128, 15.36384110785456, 0.0 ], [ 77.626706395582346, 15.369704627353141, 0.0 ], [ 77.629462570026774, 15.37681287859872, 0.0 ], [ 77.631115186593505, 15.382656304539861, 0.0 ], [ 77.632234689093309, 15.38771499762386, 0.0 ], [ 77.633202225302426, 15.393532208536559, 0.0 ], [ 77.633807736018028, 15.400573651157661, 0.0 ], [ 77.633921667434265, 15.406565529267869, 0.0 ], [ 77.633542970085429, 15.41184150954976, 0.0 ], [ 77.632938371709287, 15.41668596785696, 0.0 ], [ 77.632295932059947, 15.420773115043669, 0.0 ], [ 77.630848309867247, 15.42700201152944, 0.0 ], [ 77.629206140391645, 15.43218049804392, 0.0 ], [ 77.627383858455957, 15.437291735935331, 0.0 ], [ 77.625284260564996, 15.44182003064534, 0.0 ], [ 77.622627886765912, 15.446866720444129, 0.0 ], [ 77.620796517385912, 15.450031522216721, 0.0 ], [ 77.618945896408533, 15.452851918743169, 0.0 ], [ 77.616530108411709, 15.456284323554399, 0.0 ], [ 77.614641917388141, 15.45867109988815, 0.0 ], [ 77.610074413933219, 15.46406064096821, 0.0 ], [ 77.607474971088848, 15.46660281745784, 0.0 ], [ 77.60537984988224, 15.46873965552099, 0.0 ], [ 77.603612706479268, 15.47023158129613, 0.0 ], [ 77.601402557270731, 15.472089816077281, 0.0 ], [ 77.598887055951437, 15.47419313939055, 0.0 ], [ 77.597639192587238, 15.475033849252529, 0.0 ], [ 77.595816489760168, 15.476336577584901, 0.0 ], [ 77.593747991771849, 15.477770734611241, 0.0 ], [ 77.592768821902823, 15.478456706222079, 0.0 ], [ 77.590616888675015, 15.479750961271179, 0.0 ], [ 77.588313544452248, 15.481079953988649, 0.0 ], [ 77.585876406846253, 15.482484142870399, 0.0 ], [ 77.582860136769028, 15.48392689693865, 0.0 ], [ 77.580314536310112, 15.48513433082868, 0.0 ], [ 77.578018612874743, 15.48619334329674, 0.0 ], [ 77.576035460536147, 15.486918002644099, 0.0 ], [ 77.572964073939218, 15.48805211870339, 0.0 ], [ 77.571092745565579, 15.488732414049711, 0.0 ], [ 77.569204661844495, 15.489299587981449, 0.0 ], [ 77.567288247709271, 15.48981288063028, 0.0 ], [ 77.565380776553923, 15.490345068903849, 0.0 ], [ 77.563689837251985, 15.49081580389025, 0.0 ], [ 77.562289925309273, 15.491149396205371, 0.0 ], [ 77.560413329992855, 15.491492230619199, 0.0 ], [ 77.557966546832731, 15.491949199794741, 0.0 ], [ 77.554878973846243, 15.492519637554929, 0.0 ], [ 77.552832216273643, 15.49272215559982, 0.0 ], [ 77.549949979719742, 15.49299788192466, 0.0 ], [ 77.546885297347018, 15.4933121594464, 0.0 ], [ 77.544270302734972, 15.493341422448751, 0.0 ], [ 77.541850180443276, 15.49340034652035, 0.0 ], [ 77.538774347985793, 15.49344119499388, 0.0 ], [ 77.535545589283302, 15.493207985279509, 0.0 ], [ 77.533119955055085, 15.493036214517909, 0.0 ], [ 77.530728981879363, 15.49287994385273, 0.0 ], [ 77.529304268961639, 15.492641778451331, 0.0 ], [ 77.527047014670813, 15.49230355495647, 0.0 ], [ 77.52498219493765, 15.491983523535749, 0.0 ], [ 77.522783200234429, 15.49163435580758, 0.0 ], [ 77.522265924117235, 15.491506109009761, 0.0 ], [ 77.51999813278033, 15.49095354030438, 0.0 ], [ 77.518016280156459, 15.49049151012172, 0.0 ], [ 77.515906490375301, 15.48996371745811, 0.0 ], [ 77.514575979450896, 15.48962766801168, 0.0 ], [ 77.512687266537398, 15.4889885827681, 0.0 ], [ 77.511000851104242, 15.488414336446869, 0.0 ], [ 77.509253322570189, 15.48783628553503, 0.0 ], [ 77.507331418561023, 15.48719425347389, 0.0 ], [ 77.504983648099341, 15.48617672698804, 0.0 ], [ 77.499982435080128, 15.4840425772038, 0.0 ], [ 77.497699377939568, 15.402595702465019, 0.0 ], [ 77.500846465264729, 15.400981759735741, 0.0 ] ] ] } }
]
}
