{
"type": "FeatureCollection",
"name": "1___37_",
"crs": { "type": "name", "properties": { "name": "urn:ogc:def:crs:OGC:1.3:CRS84" } },
"features": [
{ "type": "Feature", "properties": { "Name": "1", "description": null, "timestamp": null, "begin": null, "end": null, "altitudeMode": null, "tessellate": 1, "extrude": 0, "visibility": -1, "drawOrder": null, "icon": null }, "geometry": { "type": "Polygon", "coordinates": [ [ [ 77.100146782726029, 14.302788752361909, 0.0 ], [ 77.115686791603522, 14.325037713055281, 0.0 ], [ 77.113749040690919, 14.338066437341739, 0.0 ], [ 77.093134348659831, 14.339393534067471, 0.0 ], [ 77.074036049807617, 14.41562940395224, 0.0 ], [ 77.118166181671825, 14.426236722791289, 0.0 ], [ 77.157719251514436, 14.37711362581998, 0.0 ], [ 77.168667191759369, 14.37593555640456, 0.0 ], [ 77.173001494770375, 14.351977132820659, 0.0 ], [ 77.186209641830615, 14.351813249485289, 0.0 ], [ 77.196532451635235, 14.39205686895764, 0.0 ], [ 77.158425250241777, 14.42326092040663, 0.0 ], [ 77.165269360817405, 14.451995878631079, 0.0 ], [ 77.173519668703847, 14.4513618349733, 0.0 ], [ 77.199502677474101, 14.45087584021536, 0.0 ], [ 77.200197909331123, 14.46911927473689, 0.0 ], [ 77.21073448597798, 14.47190451509578, 0.0 ], [ 77.214860433292799, 14.49445619244162, 0.0 ], [ 77.194172390434886, 14.49468388422509, 0.0 ], [ 77.19024008648536, 14.486891238644789, 0.0 ], [ 77.176956883468307, 14.481929891315881, 0.0 ], [ 77.111363851144134, 14.457184329273829, 0.0 ], [ 77.085622321215922, 14.447473054963719, 0.0 ], [ 77.084835084622995, 14.47011190290794, 0.0 ], [ 77.084293020712195, 14.489359211225141, 0.0 ], [ 77.062579518302798, 14.45733987910481, 0.0 ], [ 77.005553674802883, 14.451224039985391, 0.0 ], [ 77.017471530272843, 14.30413806260745, 0.0 ], [ 77.101306990828803, 14.276380096634551, 0.0 ], [ 77.100146782726029, 14.302788752361909, 0.0 ] ] ] } },
{ "type": "Feature", "properties": { "Name": "1", "description": null, "timestamp": null, "begin": null, "end": null, "altitudeMode": null, "tessellate": 1, "extrude": 0, "visibility": -1, "drawOrder": null, "icon": null }, "geometry": { "type": "Polygon", "coordinates": [ [ [ 77.017413167373235, 14.30420335211644, 0.0 ], [ 77.101389403893819, 14.27623673918818, 0.0 ], [ 77.100201752969198, 14.303099684065989, 0.0 ], [ 77.115820420203278, 14.325226676503521, 0.0 ], [ 77.113622032583649, 14.33817168293781, 0.0 ], [ 77.092961464291818, 14.33937354938854, 0.0 ], [ 77.074071175475126, 14.41556250048427, 0.0 ], [ 77.118115195386096, 14.42608365761091, 0.0 ], [ 77.157766013495731, 14.377077585725189, 0.0 ], [ 77.168700444402049, 14.37588185329764, 0.0 ], [ 77.172932596637054, 14.352055442763881, 0.0 ], [ 77.186185281065463, 14.35183824382908, 0.0 ], [ 77.196489885393405, 14.39206849078464, 0.0 ], [ 77.15831026652981, 14.42332962294461, 0.0 ], [ 77.171521969922352, 14.47726480004283, 0.0 ], [ 77.082679406243443, 14.441967437286429, 0.0 ], [ 77.081721443040749, 14.487846348446579, 0.0 ], [ 77.062584381845809, 14.457341931569751, 0.0 ], [ 77.005625938872328, 14.451147368425181, 0.0 ], [ 77.009905391320387, 14.396642131074071, 0.0 ], [ 77.017413167373235, 14.30420335211644, 0.0 ] ] ] } },
{ "type": "Feature", "properties": { "Name": "1", "description": null, "timestamp": null, "begin": null, "end": null, "altitudeMode": null, "tessellate": -1, "extrude": 0, "visibility": -1, "drawOrder": null, "icon": null }, "geometry": { "type": "Point", "coordinates": [ 77.031357025844898, 14.43127666006542, 0.0 ] } }
]
}
