{
"type": "FeatureCollection",
"name": "1___100_",
"crs": { "type": "name", "properties": { "name": "urn:ogc:def:crs:OGC:1.3:CRS84" } },
"features": [
{ "type": "Feature", "properties": { "Name": "1", "description": null, "timestamp": null, "begin": null, "end": null, "altitudeMode": null, "tessellate": -1, "extrude": 0, "visibility": -1, "drawOrder": null, "icon": null }, "geometry": { "type": "Point", "coordinates": [ 78.248809258345418, 14.951657651464229, 0.0 ] } },
{ "type": "Feature", "properties": { "Name": "1", "description": null, "timestamp": null, "begin": null, "end": null, "altitudeMode": null, "tessellate": 1, "extrude": 0, "visibility": -1, "drawOrder": null, "icon": null }, "geometry": { "type": "Polygon", "coordinates": [ [ [ 78.222444003471963, 14.95209168565672, 0.0 ], [ 78.233630218386764, 14.94983913795453, 0.0 ], [ 78.238656188168108, 14.94201837671311, 0.0 ], [ 78.255329305710518, 14.938066691486449, 0.0 ], [ 78.262408841093617, 14.94085971577012, 0.0 ], [ 78.266312408086222, 14.93759587125933, 0.0 ], [ 78.270752727795511, 14.939344579325679, 0.0 ], [ 78.276738358912723, 14.940931948416759, 0.0 ], [ 78.280584519613186, 14.957658064839871, 0.0 ], [ 78.224106043004127, 14.96772625692239, 0.0 ], [ 78.222444003471963, 14.95209168565672, 0.0 ] ] ] } }
]
}
