{
"type": "FeatureCollection",
"name": "1___35_",
"crs": { "type": "name", "properties": { "name": "urn:ogc:def:crs:OGC:1.3:CRS84" } },
"features": [
{ "type": "Feature", "properties": { "Name": "1", "description": null, "timestamp": null, "begin": null, "end": null, "altitudeMode": null, "tessellate": 1, "extrude": 0, "visibility": -1, "drawOrder": null, "icon": null }, "geometry": { "type": "Polygon", "coordinates": [ [ [ 77.380783222503609, 14.90213517256144, 0.0 ], [ 77.371029174733565, 14.921982387288191, 0.0 ], [ 77.374793966844834, 14.92782867832149, 0.0 ], [ 77.386547579073621, 14.91122089186552, 0.0 ], [ 77.401754290238628, 14.92276792223965, 0.0 ], [ 77.3877650282665, 14.946311504736171, 0.0 ], [ 77.366745261128116, 14.928588661503071, 0.0 ], [ 77.355528208703817, 14.94304005080674, 0.0 ], [ 77.341658031166773, 14.96141851537655, 0.0 ], [ 77.347447565575607, 14.96862107759304, 0.0 ], [ 77.340328457425215, 14.977243832314841, 0.0 ], [ 77.319401244218042, 14.960036031251811, 0.0 ], [ 77.287917634291517, 14.93397771699728, 0.0 ], [ 77.279554395887757, 14.92167867126566, 0.0 ], [ 77.291068799656827, 14.913169379000159, 0.0 ], [ 77.295800927978419, 14.91810427555537, 0.0 ], [ 77.290644936887048, 14.922514881344229, 0.0 ], [ 77.295196166470831, 14.928519327555261, 0.0 ], [ 77.30053290234946, 14.924298157738781, 0.0 ], [ 77.309169330990386, 14.93536066532789, 0.0 ], [ 77.358473163684522, 14.88755574617733, 0.0 ], [ 77.380783222503609, 14.90213517256144, 0.0 ] ] ] } },
{ "type": "Feature", "properties": { "Name": "1", "description": null, "timestamp": null, "begin": null, "end": null, "altitudeMode": null, "tessellate": -1, "extrude": 0, "visibility": -1, "drawOrder": null, "icon": null }, "geometry": { "type": "Point", "coordinates": [ 77.341843496435558, 14.931394972303259, 0.0 ] } }
]
}
