{
"type": "FeatureCollection",
"name": "1___110_",
"crs": { "type": "name", "properties": { "name": "urn:ogc:def:crs:OGC:1.3:CRS84" } },
"features": [
{ "type": "Feature", "properties": { "Name": "1", "description": "<html xmlns:fo=\"http://www.w3.org/1999/XSL/Format\" xmlns:msxsl=\"urn:schemas-microsoft-com:xslt\">\n\n<head>\n\n<META http-equiv=\"Content-Type\" content=\"text/html\">\n\n<meta http-equiv=\"content-type\" content=\"text/html; charset=UTF-8\">\n\n</head>\n\n<body style=\"margin:0px 0px 0px 0px;overflow:auto;background:#FFFFFF;\">\n\n<table style=\"font-family:Arial,Verdana,Times;font-size:12px;text-align:left;width:100%;border-collapse:collapse;padding:3px 3px 3px 3px\">\n\n<tr style=\"text-align:center;font-weight:bold;background:#9CBCE2\">\n\n<td>Grey</td>\n\n</tr>\n\n<tr>\n\n<td>\n\n<table style=\"font-family:Arial,Verdana,Times;font-size:12px;text-align:left;width:100%;border-spacing:0px; padding:3px 3px 3px 3px\">\n\n<tr>\n\n<td>FID</td>\n\n<td>0</td>\n\n</tr>\n\n<tr bgcolor=\"#D4E4F3\">\n\n<td>OID_</td>\n\n<td>0</td>\n\n</tr>\n\n<tr>\n\n<td>Name</td>\n\n<td>Grey</td>\n\n</tr>\n\n<tr bgcolor=\"#D4E4F3\">\n\n<td>FolderPath</td>\n\n<td></td>\n\n</tr>\n\n<tr>\n\n<td>SymbolID</td>\n\n<td>0</td>\n\n</tr>\n\n<tr bgcolor=\"#D4E4F3\">\n\n<td>AltMode</td>\n\n<td>0</td>\n\n</tr>\n\n<tr>\n\n<td>Base</td>\n\n<td>0</td>\n\n</tr>\n\n<tr bgcolor=\"#D4E4F3\">\n\n<td>Clamped</td>\n\n<td>0</td>\n\n</tr>\n\n<tr>\n\n<td>Extruded</td>\n\n<td>0</td>\n\n</tr>\n\n<tr bgcolor=\"#D4E4F3\">\n\n<td>Snippet</td>\n\n<td></td>\n\n</tr>\n\n<tr>\n\n<td>PopupInfo</td>\n\n<td></td>\n\n</tr>\n\n<tr bgcolor=\"#D4E4F3\">\n\n<td>Shape_Leng</td>\n\n<td>0</td>\n\n</tr>\n\n</table>\n\n</td>\n\n</tr>\n\n</table>\n\n</body>\n\n</html>", "timestamp": null, "begin": null, "end": null, "altitudeMode": null, "tessellate": -1, "extrude": 0, "visibility": -1, "drawOrder": null, "icon": null, "snippet": "" }, "geometry": { "type": "MultiPolygon", "coordinates": [ [ [ [ 78.118544934973727, 14.97430379995143, 0.0 ], [ 78.118403652000154, 14.97437656100016, 0.0 ], [ 78.118170408000253, 14.97502901300015, 0.0 ], [ 78.117932052000242, 14.97506924200019, 0.0 ], [ 78.117350321739821, 14.97520018609845, 0.0 ], [ 78.106674168344, 14.967441479467309, 0.0 ], [ 78.109217183000283, 14.96764471700004, 0.0 ], [ 78.109419223957218, 14.967639427878741, 0.0 ], [ 78.118538156789157, 14.97427704636897, 0.0 ], [ 78.118544934973727, 14.97430379995143, 0.0 ] ] ] ] } },
{ "type": "Feature", "properties": { "Name": "1", "description": "<html xmlns:fo=\"http://www.w3.org/1999/XSL/Format\" xmlns:msxsl=\"urn:schemas-microsoft-com:xslt\">\n\n<head>\n\n<META http-equiv=\"Content-Type\" content=\"text/html\">\n\n<meta http-equiv=\"content-type\" content=\"text/html; charset=UTF-8\">\n\n</head>\n\n<body style=\"margin:0px 0px 0px 0px;overflow:auto;background:#FFFFFF;\">\n\n<table style=\"font-family:Arial,Verdana,Times;font-size:12px;text-align:left;width:100%;border-collapse:collapse;padding:3px 3px 3px 3px\">\n\n<tr style=\"text-align:center;font-weight:bold;background:#9CBCE2\">\n\n<td>Orange</td>\n\n</tr>\n\n<tr>\n\n<td>\n\n<table style=\"font-family:Arial,Verdana,Times;font-size:12px;text-align:left;width:100%;border-spacing:0px; padding:3px 3px 3px 3px\">\n\n<tr>\n\n<td>FID</td>\n\n<td>1</td>\n\n</tr>\n\n<tr bgcolor=\"#D4E4F3\">\n\n<td>OID_</td>\n\n<td>0</td>\n\n</tr>\n\n<tr>\n\n<td>Name</td>\n\n<td>Orange</td>\n\n</tr>\n\n<tr bgcolor=\"#D4E4F3\">\n\n<td>FolderPath</td>\n\n<td></td>\n\n</tr>\n\n<tr>\n\n<td>SymbolID</td>\n\n<td>0</td>\n\n</tr>\n\n<tr bgcolor=\"#D4E4F3\">\n\n<td>AltMode</td>\n\n<td>0</td>\n\n</tr>\n\n<tr>\n\n<td>Base</td>\n\n<td>0</td>\n\n</tr>\n\n<tr bgcolor=\"#D4E4F3\">\n\n<td>Clamped</td>\n\n<td>0</td>\n\n</tr>\n\n<tr>\n\n<td>Extruded</td>\n\n<td>0</td>\n\n</tr>\n\n<tr bgcolor=\"#D4E4F3\">\n\n<td>Snippet</td>\n\n<td></td>\n\n</tr>\n\n<tr>\n\n<td>PopupInfo</td>\n\n<td></td>\n\n</tr>\n\n<tr bgcolor=\"#D4E4F3\">\n\n<td>Shape_Leng</td>\n\n<td>0</td>\n\n</tr>\n\n</table>\n\n</td>\n\n</tr>\n\n</table>\n\n</body>\n\n</html>", "timestamp": null, "begin": null, "end": null, "altitudeMode": null, "tessellate": -1, "extrude": 0, "visibility": -1, "drawOrder": null, "icon": null, "snippet": "" }, "geometry": { "type": "MultiPolygon", "coordinates": [ [ [ [ 78.117350321739821, 14.97520018609845, 0.0 ], [ 78.117256246000238, 14.97522136200018, 0.0 ], [ 78.117709762000118, 14.976470023000219, 0.0 ], [ 78.116880123000158, 14.97688150500011, 0.0 ], [ 78.115617766000241, 14.97716447600021, 0.0 ], [ 78.114908542000194, 14.97730575900022, 0.0 ], [ 78.114427068000111, 14.97742377100025, 0.0 ], [ 78.113775851000128, 14.977432487000041, 0.0 ], [ 78.112562112000205, 14.97752487300005, 0.0 ], [ 78.111164732000191, 14.977587284000149, 0.0 ], [ 78.111076807000131, 14.97757067300012, 0.0 ], [ 78.110224598000229, 14.977398980000199, 0.0 ], [ 78.110090496000112, 14.97666490000023, 0.0 ], [ 78.109085170000242, 14.9762265400002, 0.0 ], [ 78.108642543000144, 14.976514157000111, 0.0 ], [ 78.107969470000171, 14.97643225600018, 0.0 ], [ 78.106453948000137, 14.976366319000141, 0.0 ], [ 78.104978329000176, 14.975347687000241, 0.0 ], [ 78.103274967000118, 14.97510289300021, 0.0 ], [ 78.102220015000228, 14.974969151000151, 0.0 ], [ 78.102157226000088, 14.974900870000109, 0.0 ], [ 78.101888449000171, 14.97493283400013, 0.0 ], [ 78.100918201000184, 14.974101470000219, 0.0 ], [ 78.100383465000164, 14.973482804000181, 0.0 ], [ 78.099800197000206, 14.97359691300016, 0.0 ], [ 78.098559641508302, 14.973934281421521, 0.0 ], [ 78.097403631000134, 14.97429069500015, 0.0 ], [ 78.09607348700024, 14.974620603000121, 0.0 ], [ 78.095455093000226, 14.97472492400016, 0.0 ], [ 78.094890191000218, 14.974623394000099, 0.0 ], [ 78.094496287000311, 14.974162184000139, 0.0 ], [ 78.095169184000099, 14.973112392000131, 0.0 ], [ 78.094904704000271, 14.972867293000149, 0.0 ], [ 78.09419932700024, 14.973543971000201, 0.0 ], [ 78.093953356000213, 14.97388355500021, 0.0 ], [ 78.093410231000121, 14.974399451000121, 0.0 ], [ 78.093438231000164, 14.975768423000201, 0.0 ], [ 78.093237659000238, 14.97650262900021, 0.0 ], [ 78.091368435000163, 14.9779839750002, 0.0 ], [ 78.090817584000149, 14.978489374000221, 0.0 ], [ 78.090092356000184, 14.97924329900013, 0.0 ], [ 78.088942115000123, 14.979911876000131, 0.0 ], [ 78.08853544800013, 14.978032057000121, 0.0 ], [ 78.088653316000091, 14.977257888000111, 0.0 ], [ 78.088038165499256, 14.9754925504875, 0.0 ], [ 78.087365941000087, 14.97356342400013, 0.0 ], [ 78.087180101000172, 14.97277470200004, 0.0 ], [ 78.092182809000178, 14.97036662000011, 0.0 ], [ 78.094588033000264, 14.96936745300013, 0.0 ], [ 78.096761842000092, 14.9691750730002, 0.0 ], [ 78.097743962000152, 14.968119820000201, 0.0 ], [ 78.101068676000295, 14.967969222000191, 0.0 ], [ 78.104483772000208, 14.96780505600009, 0.0 ], [ 78.105596153000135, 14.96791569900012, 0.0 ], [ 78.105706106000298, 14.96736411200021, 0.0 ], [ 78.106674168344, 14.967441479467309, 0.0 ], [ 78.117350321739821, 14.97520018609845, 0.0 ] ] ] ] } },
{ "type": "Feature", "properties": { "Name": "1", "description": "<html xmlns:fo=\"http://www.w3.org/1999/XSL/Format\" xmlns:msxsl=\"urn:schemas-microsoft-com:xslt\">\n\n<head>\n\n<META http-equiv=\"Content-Type\" content=\"text/html\">\n\n<meta http-equiv=\"content-type\" content=\"text/html; charset=UTF-8\">\n\n</head>\n\n<body style=\"margin:0px 0px 0px 0px;overflow:auto;background:#FFFFFF;\">\n\n<table style=\"font-family:Arial,Verdana,Times;font-size:12px;text-align:left;width:100%;border-collapse:collapse;padding:3px 3px 3px 3px\">\n\n<tr style=\"text-align:center;font-weight:bold;background:#9CBCE2\">\n\n<td>Dark Blue</td>\n\n</tr>\n\n<tr>\n\n<td>\n\n<table style=\"font-family:Arial,Verdana,Times;font-size:12px;text-align:left;width:100%;border-spacing:0px; padding:3px 3px 3px 3px\">\n\n<tr>\n\n<td>FID</td>\n\n<td>2</td>\n\n</tr>\n\n<tr bgcolor=\"#D4E4F3\">\n\n<td>OID_</td>\n\n<td>0</td>\n\n</tr>\n\n<tr>\n\n<td>Name</td>\n\n<td>Dark Blue</td>\n\n</tr>\n\n<tr bgcolor=\"#D4E4F3\">\n\n<td>FolderPath</td>\n\n<td></td>\n\n</tr>\n\n<tr>\n\n<td>SymbolID</td>\n\n<td>0</td>\n\n</tr>\n\n<tr bgcolor=\"#D4E4F3\">\n\n<td>AltMode</td>\n\n<td>0</td>\n\n</tr>\n\n<tr>\n\n<td>Base</td>\n\n<td>0</td>\n\n</tr>\n\n<tr bgcolor=\"#D4E4F3\">\n\n<td>Clamped</td>\n\n<td>0</td>\n\n</tr>\n\n<tr>\n\n<td>Extruded</td>\n\n<td>0</td>\n\n</tr>\n\n<tr bgcolor=\"#D4E4F3\">\n\n<td>Snippet</td>\n\n<td></td>\n\n</tr>\n\n<tr>\n\n<td>PopupInfo</td>\n\n<td></td>\n\n</tr>\n\n<tr bgcolor=\"#D4E4F3\">\n\n<td>Shape_Leng</td>\n\n<td>0</td>\n\n</tr>\n\n</table>\n\n</td>\n\n</tr>\n\n</table>\n\n</body>\n\n</html>", "timestamp": null, "begin": null, "end": null, "altitudeMode": null, "tessellate": -1, "extrude": 0, "visibility": -1, "drawOrder": null, "icon": null, "snippet": "" }, "geometry": { "type": "MultiPolygon", "coordinates": [ [ [ [ 78.150665473000288, 14.98106942100009, 0.0 ], [ 78.150427934000277, 14.981467318000229, 0.0 ], [ 78.148765816000207, 14.98293690200012, 0.0 ], [ 78.148665492000248, 14.98327794800014, 0.0 ], [ 78.147878053000227, 14.984118681000149, 0.0 ], [ 78.146489601000098, 14.985051919000229, 0.0 ], [ 78.146315756000206, 14.984331289000121, 0.0 ], [ 78.145944081000266, 14.98422765200019, 0.0 ], [ 78.145704824000234, 14.984340754000129, 0.0 ], [ 78.145627141720809, 14.98486512095036, 0.0 ], [ 78.144787502000213, 14.98590311600009, 0.0 ], [ 78.14400886500016, 14.98647936200013, 0.0 ], [ 78.142366552000283, 14.988394964000181, 0.0 ], [ 78.142074773000218, 14.98871915100011, 0.0 ], [ 78.140715073000138, 14.989363863000159, 0.0 ], [ 78.140038946000232, 14.98788479900014, 0.0 ], [ 78.14045093500016, 14.98733135500021, 0.0 ], [ 78.141068117000202, 14.987074660000189, 0.0 ], [ 78.142011290000198, 14.987043536000099, 0.0 ], [ 78.141794250000146, 14.98657667400022, 0.0 ], [ 78.143190428000253, 14.985043989000131, 0.0 ], [ 78.142504541000221, 14.98496394300008, 0.0 ], [ 78.141728587000159, 14.986197969000219, 0.0 ], [ 78.141445989000204, 14.98468943100011, 0.0 ], [ 78.142587813945568, 14.983213459860851, 0.0 ], [ 78.143304730000295, 14.981310032000181, 0.0 ], [ 78.144193841000231, 14.979816389000121, 0.0 ], [ 78.144403848000252, 14.97980894700021, 0.0 ], [ 78.144691199000135, 14.980388850000169, 0.0 ], [ 78.144287730000258, 14.980810846000111, 0.0 ], [ 78.144063735000088, 14.98158270800019, 0.0 ], [ 78.144293827000126, 14.9824929040002, 0.0 ], [ 78.144624249000117, 14.982511336000069, 0.0 ], [ 78.144870582000181, 14.982023986000121, 0.0 ], [ 78.145192623000241, 14.98178020900008, 0.0 ], [ 78.144996871000217, 14.981088525000249, 0.0 ], [ 78.145004053000093, 14.98041030100023, 0.0 ], [ 78.145314938000126, 14.980425464000181, 0.0 ], [ 78.145288774000107, 14.97924059500008, 0.0 ], [ 78.144214084000168, 14.97893785600019, 0.0 ], [ 78.14346366048062, 14.979418902290091, 0.0 ], [ 78.143030743000224, 14.980674086000141, 0.0 ], [ 78.140406552000115, 14.982714536000231, 0.0 ], [ 78.139888246000226, 14.98073819300021, 0.0 ], [ 78.140973727000244, 14.97912507100011, 0.0 ], [ 78.142246508000312, 14.97790483100005, 0.0 ], [ 78.141781304000176, 14.97745588000015, 0.0 ], [ 78.139958565000086, 14.977549000000179, 0.0 ], [ 78.139694563000091, 14.97671794200016, 0.0 ], [ 78.139014203000102, 14.976391395000229, 0.0 ], [ 78.137570080000273, 14.976776591000149, 0.0 ], [ 78.136906416000215, 14.976945251000251, 0.0 ], [ 78.136235146000104, 14.97696085800021, 0.0 ], [ 78.135322746000099, 14.976667771000219, 0.0 ], [ 78.135071910000136, 14.976228893000149, 0.0 ], [ 78.133920743000203, 14.97599811800012, 0.0 ], [ 78.134028030000252, 14.975662540000091, 0.0 ], [ 78.134354626000118, 14.975480805000251, 0.0 ], [ 78.134509589000231, 14.975489956000221, 0.0 ], [ 78.134734151000146, 14.975138735000201, 0.0 ], [ 78.134517119000179, 14.9739322320001, 0.0 ], [ 78.135458998000217, 14.97264170100016, 0.0 ], [ 78.134941813000125, 14.97240748800021, 0.0 ], [ 78.134124762000113, 14.972838732000181, 0.0 ], [ 78.133274395000171, 14.973474172000181, 0.0 ], [ 78.132790814000202, 14.973857238000109, 0.0 ], [ 78.131970686000216, 14.973834289000081, 0.0 ], [ 78.13171222800014, 14.97314024200011, 0.0 ], [ 78.131895783000175, 14.972785932000081, 0.0 ], [ 78.131879389000233, 14.971861064000169, 0.0 ], [ 78.132391937000193, 14.97113766200016, 0.0 ], [ 78.131610244000228, 14.97136960000017, 0.0 ], [ 78.131026850000126, 14.971804485000179, 0.0 ], [ 78.12960407800017, 14.970477972000079, 0.0 ], [ 78.128548164000222, 14.96987271500018, 0.0 ], [ 78.126787685000295, 14.97121395100015, 0.0 ], [ 78.125862646000201, 14.97173059900007, 0.0 ], [ 78.124898538000195, 14.973666160000111, 0.0 ], [ 78.1245033040002, 14.973687655000219, 0.0 ], [ 78.12260876900018, 14.974653766000131, 0.0 ], [ 78.122031659000243, 14.97547914000017, 0.0 ], [ 78.120922823000171, 14.975668168000199, 0.0 ], [ 78.120880718000137, 14.97535514100014, 0.0 ], [ 78.120733221000421, 14.97460462100037, 0.0 ], [ 78.120247126000265, 14.969120766000399, 0.0 ], [ 78.125387618000161, 14.96490146000019, 0.0 ], [ 78.126080057000195, 14.963218165000111, 0.0 ], [ 78.127296488000184, 14.962654447000149, 0.0 ], [ 78.132618424000157, 14.962380164000139, 0.0 ], [ 78.134119296000165, 14.962148059000191, 0.0 ], [ 78.134740231000137, 14.96004724800019, 0.0 ], [ 78.136236009000243, 14.95303120900013, 0.0 ], [ 78.136414193000292, 14.95264247500012, 0.0 ], [ 78.137104731000193, 14.947409444000071, 0.0 ], [ 78.137923700000215, 14.94925738000023, 0.0 ], [ 78.139754348000167, 14.94987653400011, 0.0 ], [ 78.141609465000272, 14.95004740700011, 0.0 ], [ 78.143874284537333, 14.9499024140577, 0.0 ], [ 78.147228421299758, 14.94981185288259, 0.0 ], [ 78.148021940000149, 14.949790428000091, 0.0 ], [ 78.152191452000125, 14.949527142000189, 0.0 ], [ 78.152503744000228, 14.954475191000199, 0.0 ], [ 78.153354211000192, 14.9605712610001, 0.0 ], [ 78.154333223000151, 14.961489544000131, 0.0 ], [ 78.15740198400016, 14.963393820000141, 0.0 ], [ 78.158020766000163, 14.9661470380002, 0.0 ], [ 78.159055958000238, 14.96911588900014, 0.0 ], [ 78.160190773000238, 14.971863586000151, 0.0 ], [ 78.157423090000123, 14.973912266000241, 0.0 ], [ 78.157735434000188, 14.97656034100021, 0.0 ], [ 78.158087928000214, 14.97797507200011, 0.0 ], [ 78.15766281200024, 14.98123755700016, 0.0 ], [ 78.153477843000246, 14.98389114500014, 0.0 ], [ 78.149594589000117, 14.989684801000241, 0.0 ], [ 78.150253695000117, 14.994280712000091, 0.0 ], [ 78.148017163225063, 14.99623090650965, 0.0 ], [ 78.147753280630013, 14.995939549553841, 0.0 ], [ 78.14222600346335, 14.9932997776246, 0.0 ], [ 78.142443625000169, 14.99237469400015, 0.0 ], [ 78.142877339000165, 14.99234330500013, 0.0 ], [ 78.142996987000117, 14.992174348000111, 0.0 ], [ 78.143424320000236, 14.98967667500011, 0.0 ], [ 78.144191793000232, 14.98752990400021, 0.0 ], [ 78.145049879000169, 14.98726625400025, 0.0 ], [ 78.147067179000089, 14.98592455600004, 0.0 ], [ 78.147165644000154, 14.986031922000221, 0.0 ], [ 78.147800341000163, 14.98576487500009, 0.0 ], [ 78.14792809700009, 14.98564579000009, 0.0 ], [ 78.148847425000156, 14.98484102600014, 0.0 ], [ 78.149900212000091, 14.983128857000111, 0.0 ], [ 78.150938458000212, 14.98269351700014, 0.0 ], [ 78.151339831000143, 14.98157739500016, 0.0 ], [ 78.150665473000288, 14.98106942100009, 0.0 ], [ 78.151011779000157, 14.981019158000089, 0.0 ], [ 78.153646592000086, 14.979026875000161, 0.0 ], [ 78.153364583000155, 14.978628033000231, 0.0 ], [ 78.15069260100023, 14.979993710000141, 0.0 ], [ 78.150789862000181, 14.98052016500009, 0.0 ], [ 78.150665473000288, 14.98106942100009, 0.0 ] ] ] ] } },
{ "type": "Feature", "properties": { "Name": "1", "description": "<html xmlns:fo=\"http://www.w3.org/1999/XSL/Format\" xmlns:msxsl=\"urn:schemas-microsoft-com:xslt\">\n\n<head>\n\n<META http-equiv=\"Content-Type\" content=\"text/html\">\n\n<meta http-equiv=\"content-type\" content=\"text/html; charset=UTF-8\">\n\n</head>\n\n<body style=\"margin:0px 0px 0px 0px;overflow:auto;background:#FFFFFF;\">\n\n<table style=\"font-family:Arial,Verdana,Times;font-size:12px;text-align:left;width:100%;border-collapse:collapse;padding:3px 3px 3px 3px\">\n\n<tr style=\"text-align:center;font-weight:bold;background:#9CBCE2\">\n\n<td>Cyan</td>\n\n</tr>\n\n<tr>\n\n<td>\n\n<table style=\"font-family:Arial,Verdana,Times;font-size:12px;text-align:left;width:100%;border-spacing:0px; padding:3px 3px 3px 3px\">\n\n<tr>\n\n<td>FID</td>\n\n<td>3</td>\n\n</tr>\n\n<tr bgcolor=\"#D4E4F3\">\n\n<td>OID_</td>\n\n<td>0</td>\n\n</tr>\n\n<tr>\n\n<td>Name</td>\n\n<td>Cyan</td>\n\n</tr>\n\n<tr bgcolor=\"#D4E4F3\">\n\n<td>FolderPath</td>\n\n<td></td>\n\n</tr>\n\n<tr>\n\n<td>SymbolID</td>\n\n<td>0</td>\n\n</tr>\n\n<tr bgcolor=\"#D4E4F3\">\n\n<td>AltMode</td>\n\n<td>0</td>\n\n</tr>\n\n<tr>\n\n<td>Base</td>\n\n<td>0</td>\n\n</tr>\n\n<tr bgcolor=\"#D4E4F3\">\n\n<td>Clamped</td>\n\n<td>0</td>\n\n</tr>\n\n<tr>\n\n<td>Extruded</td>\n\n<td>0</td>\n\n</tr>\n\n<tr bgcolor=\"#D4E4F3\">\n\n<td>Snippet</td>\n\n<td></td>\n\n</tr>\n\n<tr>\n\n<td>PopupInfo</td>\n\n<td></td>\n\n</tr>\n\n<tr bgcolor=\"#D4E4F3\">\n\n<td>Shape_Leng</td>\n\n<td>0</td>\n\n</tr>\n\n</table>\n\n</td>\n\n</tr>\n\n</table>\n\n</body>\n\n</html>", "timestamp": null, "begin": null, "end": null, "altitudeMode": null, "tessellate": -1, "extrude": 0, "visibility": -1, "drawOrder": null, "icon": null, "snippet": "" }, "geometry": { "type": "MultiPolygon", "coordinates": [ [ [ [ 78.120733221000421, 14.97460462100037, 0.0 ], [ 78.120880718000137, 14.97535514100014, 0.0 ], [ 78.120568746000231, 14.975740384000121, 0.0 ], [ 78.119374579000123, 14.97486399500019, 0.0 ], [ 78.11970575700019, 14.973705974000209, 0.0 ], [ 78.118544934973727, 14.97430379995143, 0.0 ], [ 78.118538156789157, 14.97427704636897, 0.0 ], [ 78.109419223957218, 14.967639427878741, 0.0 ], [ 78.112865373000147, 14.967549213000151, 0.0 ], [ 78.115151996000236, 14.967070634000089, 0.0 ], [ 78.11810428300015, 14.966253107000229, 0.0 ], [ 78.11898260900017, 14.965803268000229, 0.0 ], [ 78.120235158071068, 14.96538308074577, 0.0 ], [ 78.122242312000139, 14.96473422100013, 0.0 ], [ 78.124397600000123, 14.964919466000079, 0.0 ], [ 78.125387618000161, 14.96490146000019, 0.0 ], [ 78.120247126000265, 14.969120766000399, 0.0 ], [ 78.120733221000421, 14.97460462100037, 0.0 ] ] ] ] } },
{ "type": "Feature", "properties": { "Name": "1", "description": "<html xmlns:fo=\"http://www.w3.org/1999/XSL/Format\" xmlns:msxsl=\"urn:schemas-microsoft-com:xslt\">\n\n<head>\n\n<META http-equiv=\"Content-Type\" content=\"text/html\">\n\n<meta http-equiv=\"content-type\" content=\"text/html; charset=UTF-8\">\n\n</head>\n\n<body style=\"margin:0px 0px 0px 0px;overflow:auto;background:#FFFFFF;\">\n\n<table style=\"font-family:Arial,Verdana,Times;font-size:12px;text-align:left;width:100%;border-collapse:collapse;padding:3px 3px 3px 3px\">\n\n<tr style=\"text-align:center;font-weight:bold;background:#9CBCE2\">\n\n<td>Purple</td>\n\n</tr>\n\n<tr>\n\n<td>\n\n<table style=\"font-family:Arial,Verdana,Times;font-size:12px;text-align:left;width:100%;border-spacing:0px; padding:3px 3px 3px 3px\">\n\n<tr>\n\n<td>FID</td>\n\n<td>4</td>\n\n</tr>\n\n<tr bgcolor=\"#D4E4F3\">\n\n<td>OID_</td>\n\n<td>0</td>\n\n</tr>\n\n<tr>\n\n<td>Name</td>\n\n<td>Purple</td>\n\n</tr>\n\n<tr bgcolor=\"#D4E4F3\">\n\n<td>FolderPath</td>\n\n<td></td>\n\n</tr>\n\n<tr>\n\n<td>SymbolID</td>\n\n<td>0</td>\n\n</tr>\n\n<tr bgcolor=\"#D4E4F3\">\n\n<td>AltMode</td>\n\n<td>0</td>\n\n</tr>\n\n<tr>\n\n<td>Base</td>\n\n<td>0</td>\n\n</tr>\n\n<tr bgcolor=\"#D4E4F3\">\n\n<td>Clamped</td>\n\n<td>0</td>\n\n</tr>\n\n<tr>\n\n<td>Extruded</td>\n\n<td>0</td>\n\n</tr>\n\n<tr bgcolor=\"#D4E4F3\">\n\n<td>Snippet</td>\n\n<td></td>\n\n</tr>\n\n<tr>\n\n<td>PopupInfo</td>\n\n<td></td>\n\n</tr>\n\n<tr bgcolor=\"#D4E4F3\">\n\n<td>Shape_Leng</td>\n\n<td>0</td>\n\n</tr>\n\n</table>\n\n</td>\n\n</tr>\n\n</table>\n\n</body>\n\n</html>", "timestamp": null, "begin": null, "end": null, "altitudeMode": null, "tessellate": -1, "extrude": 0, "visibility": -1, "drawOrder": null, "icon": null, "snippet": "" }, "geometry": { "type": "MultiPolygon", "coordinates": [ [ [ [ 78.148017163225063, 14.99623090650965, 0.0 ], [ 78.150253695000117, 14.994280712000091, 0.0 ], [ 78.149594589000117, 14.989684801000241, 0.0 ], [ 78.153477843000246, 14.98389114500014, 0.0 ], [ 78.15766281200024, 14.98123755700016, 0.0 ], [ 78.158087928000214, 14.97797507200011, 0.0 ], [ 78.157735434000188, 14.97656034100021, 0.0 ], [ 78.157423090000123, 14.973912266000241, 0.0 ], [ 78.160190773000238, 14.971863586000151, 0.0 ], [ 78.161576751126802, 14.97502741152687, 0.0 ], [ 78.162833122558766, 14.97761878996158, 0.0 ], [ 78.166867289829213, 14.985485995884741, 0.0 ], [ 78.170543425000233, 14.99356419200012, 0.0 ], [ 78.173844680000116, 14.998984304000089, 0.0 ], [ 78.172835067000165, 14.99966783100024, 0.0 ], [ 78.171703839000145, 15.001163692000089, 0.0 ], [ 78.170599087000255, 15.00157751200021, 0.0 ], [ 78.170462831000179, 15.001318891000039, 0.0 ], [ 78.16923690700014, 15.001363653000229, 0.0 ], [ 78.169243632000246, 15.001195412000239, 0.0 ], [ 78.168155805000254, 15.0013051360001, 0.0 ], [ 78.164451260000249, 15.002184162000161, 0.0 ], [ 78.164638163000177, 15.0014589660002, 0.0 ], [ 78.165892007000139, 15.001017762000121, 0.0 ], [ 78.167709743000103, 14.999654362000109, 0.0 ], [ 78.167612927000278, 14.999465592000091, 0.0 ], [ 78.165989979000244, 15.00011790600024, 0.0 ], [ 78.16453634900023, 15.00043459600016, 0.0 ], [ 78.164473319000194, 15.000303381000039, 0.0 ], [ 78.164162337000221, 15.00036751600015, 0.0 ], [ 78.163773905000255, 14.99875395300012, 0.0 ], [ 78.163964392000253, 14.99853853500008, 0.0 ], [ 78.163862850000214, 14.998286965000201, 0.0 ], [ 78.162646507000204, 14.998919892000229, 0.0 ], [ 78.162313053000162, 14.99844982200011, 0.0 ], [ 78.1614033460001, 14.99897390100017, 0.0 ], [ 78.161634154000183, 14.999858332000089, 0.0 ], [ 78.162912061000156, 15.00071886200004, 0.0 ], [ 78.162742015000106, 15.00160195000012, 0.0 ], [ 78.160872883000195, 15.002122972000221, 0.0 ], [ 78.159578156000237, 15.00162925500018, 0.0 ], [ 78.158249044655179, 15.00215743779933, 0.0 ], [ 78.157646178000107, 15.002332207000221, 0.0 ], [ 78.157653410000194, 15.00249161000022, 0.0 ], [ 78.158223080000255, 15.00253608800017, 0.0 ], [ 78.158387450000134, 15.00239125100018, 0.0 ], [ 78.158560512000236, 15.002509097000139, 0.0 ], [ 78.158072117000245, 15.00341059200019, 0.0 ], [ 78.157948452000255, 15.004301939000131, 0.0 ], [ 78.157311976000187, 15.00416934800012, 0.0 ], [ 78.156722585000182, 15.004486220000221, 0.0 ], [ 78.155996531000312, 15.00325686000008, 0.0 ], [ 78.155256884000096, 15.00359911700008, 0.0 ], [ 78.154736877000175, 15.0036502490002, 0.0 ], [ 78.148017163225063, 14.99623090650965, 0.0 ] ] ] ] } },
{ "type": "Feature", "properties": { "Name": "1", "description": "<html xmlns:fo=\"http://www.w3.org/1999/XSL/Format\" xmlns:msxsl=\"urn:schemas-microsoft-com:xslt\">\n\n<head>\n\n<META http-equiv=\"Content-Type\" content=\"text/html\">\n\n<meta http-equiv=\"content-type\" content=\"text/html; charset=UTF-8\">\n\n</head>\n\n<body style=\"margin:0px 0px 0px 0px;overflow:auto;background:#FFFFFF;\">\n\n<table style=\"font-family:Arial,Verdana,Times;font-size:12px;text-align:left;width:100%;border-collapse:collapse;padding:3px 3px 3px 3px\">\n\n<tr style=\"text-align:center;font-weight:bold;background:#9CBCE2\">\n\n<td>Yellow</td>\n\n</tr>\n\n<tr>\n\n<td>\n\n<table style=\"font-family:Arial,Verdana,Times;font-size:12px;text-align:left;width:100%;border-spacing:0px; padding:3px 3px 3px 3px\">\n\n<tr>\n\n<td>FID</td>\n\n<td>5</td>\n\n</tr>\n\n<tr bgcolor=\"#D4E4F3\">\n\n<td>OID_</td>\n\n<td>0</td>\n\n</tr>\n\n<tr>\n\n<td>Name</td>\n\n<td>Yellow</td>\n\n</tr>\n\n<tr bgcolor=\"#D4E4F3\">\n\n<td>FolderPath</td>\n\n<td></td>\n\n</tr>\n\n<tr>\n\n<td>SymbolID</td>\n\n<td>0</td>\n\n</tr>\n\n<tr bgcolor=\"#D4E4F3\">\n\n<td>AltMode</td>\n\n<td>0</td>\n\n</tr>\n\n<tr>\n\n<td>Base</td>\n\n<td>0</td>\n\n</tr>\n\n<tr bgcolor=\"#D4E4F3\">\n\n<td>Clamped</td>\n\n<td>0</td>\n\n</tr>\n\n<tr>\n\n<td>Extruded</td>\n\n<td>0</td>\n\n</tr>\n\n<tr bgcolor=\"#D4E4F3\">\n\n<td>Snippet</td>\n\n<td></td>\n\n</tr>\n\n<tr>\n\n<td>PopupInfo</td>\n\n<td></td>\n\n</tr>\n\n<tr bgcolor=\"#D4E4F3\">\n\n<td>Shape_Leng</td>\n\n<td>0</td>\n\n</tr>\n\n</table>\n\n</td>\n\n</tr>\n\n</table>\n\n</body>\n\n</html>", "timestamp": null, "begin": null, "end": null, "altitudeMode": null, "tessellate": -1, "extrude": 0, "visibility": -1, "drawOrder": null, "icon": null, "snippet": "" }, "geometry": { "type": "MultiPolygon", "coordinates": [ [ [ [ 78.2103064920002, 14.98156566900008, 0.0 ], [ 78.208957632000136, 14.98028965100019, 0.0 ], [ 78.208190775000219, 14.9805354610001, 0.0 ], [ 78.205178862000309, 14.97387623100019, 0.0 ], [ 78.209797578000178, 14.974951049000079, 0.0 ], [ 78.210427511000148, 14.9748417900002, 0.0 ], [ 78.210187573000212, 14.973858273000079, 0.0 ], [ 78.207585692000123, 14.97321878100013, 0.0 ], [ 78.204325847000177, 14.971979215000029, 0.0 ], [ 78.203295943000228, 14.968475012000111, 0.0 ], [ 78.202442726000243, 14.966123097000089, 0.0 ], [ 78.20060598800012, 14.962025081000149, 0.0 ], [ 78.201886736000233, 14.956179033000129, 0.0 ], [ 78.201949959000217, 14.955231112000151, 0.0 ], [ 78.2090837960003, 14.952077711000239, 0.0 ], [ 78.211558712000226, 14.95128600100014, 0.0 ], [ 78.213206110000101, 14.951643638000119, 0.0 ], [ 78.219407233000254, 14.95385620800022, 0.0 ], [ 78.221447197000145, 14.95442063600024, 0.0 ], [ 78.221608206000212, 14.95619118500008, 0.0 ], [ 78.223736038000254, 14.96581239400024, 0.0 ], [ 78.223197522000248, 14.967911985000169, 0.0 ], [ 78.223722846670967, 14.971446578805001, 0.0 ], [ 78.223874927032966, 14.97226760091718, 0.0 ], [ 78.224601921000215, 14.977473678000189, 0.0 ], [ 78.217311898000219, 14.97688587100015, 0.0 ], [ 78.214404224000134, 14.97621564500008, 0.0 ], [ 78.213585831000159, 14.97715639300014, 0.0 ], [ 78.211656321020996, 14.979478215790889, 0.0 ], [ 78.2103064920002, 14.98156566900008, 0.0 ] ] ] ] } },
{ "type": "Feature", "properties": { "Name": "1", "description": "<html xmlns:fo=\"http://www.w3.org/1999/XSL/Format\" xmlns:msxsl=\"urn:schemas-microsoft-com:xslt\">\n\n<head>\n\n<META http-equiv=\"Content-Type\" content=\"text/html\">\n\n<meta http-equiv=\"content-type\" content=\"text/html; charset=UTF-8\">\n\n</head>\n\n<body style=\"margin:0px 0px 0px 0px;overflow:auto;background:#FFFFFF;\">\n\n<table style=\"font-family:Arial,Verdana,Times;font-size:12px;text-align:left;width:100%;border-collapse:collapse;padding:3px 3px 3px 3px\">\n\n<tr style=\"text-align:center;font-weight:bold;background:#9CBCE2\">\n\n<td>Medium Blue</td>\n\n</tr>\n\n<tr>\n\n<td>\n\n<table style=\"font-family:Arial,Verdana,Times;font-size:12px;text-align:left;width:100%;border-spacing:0px; padding:3px 3px 3px 3px\">\n\n<tr>\n\n<td>FID</td>\n\n<td>6</td>\n\n</tr>\n\n<tr bgcolor=\"#D4E4F3\">\n\n<td>OID_</td>\n\n<td>0</td>\n\n</tr>\n\n<tr>\n\n<td>Name</td>\n\n<td>Medium Blue</td>\n\n</tr>\n\n<tr bgcolor=\"#D4E4F3\">\n\n<td>FolderPath</td>\n\n<td></td>\n\n</tr>\n\n<tr>\n\n<td>SymbolID</td>\n\n<td>0</td>\n\n</tr>\n\n<tr bgcolor=\"#D4E4F3\">\n\n<td>AltMode</td>\n\n<td>0</td>\n\n</tr>\n\n<tr>\n\n<td>Base</td>\n\n<td>0</td>\n\n</tr>\n\n<tr bgcolor=\"#D4E4F3\">\n\n<td>Clamped</td>\n\n<td>0</td>\n\n</tr>\n\n<tr>\n\n<td>Extruded</td>\n\n<td>0</td>\n\n</tr>\n\n<tr bgcolor=\"#D4E4F3\">\n\n<td>Snippet</td>\n\n<td></td>\n\n</tr>\n\n<tr>\n\n<td>PopupInfo</td>\n\n<td></td>\n\n</tr>\n\n<tr bgcolor=\"#D4E4F3\">\n\n<td>Shape_Leng</td>\n\n<td>0</td>\n\n</tr>\n\n</table>\n\n</td>\n\n</tr>\n\n</table>\n\n</body>\n\n</html>", "timestamp": null, "begin": null, "end": null, "altitudeMode": null, "tessellate": -1, "extrude": 0, "visibility": -1, "drawOrder": null, "icon": null, "snippet": "" }, "geometry": { "type": "MultiPolygon", "coordinates": [ [ [ [ 78.178018193000185, 14.99424059700004, 0.0 ], [ 78.178019801000175, 14.9954496630001, 0.0 ], [ 78.178881075000163, 14.99613849600019, 0.0 ], [ 78.178169765000121, 14.9962622550002, 0.0 ], [ 78.177560882000307, 14.996552438000149, 0.0 ], [ 78.177510154000174, 14.99704952800022, 0.0 ], [ 78.176501322000206, 14.997578589000231, 0.0 ], [ 78.175232079000239, 14.99842017600014, 0.0 ], [ 78.173964601000193, 14.999034377000211, 0.0 ], [ 78.173844680000286, 14.99898430400026, 0.0 ], [ 78.170543425000233, 14.99356419200012, 0.0 ], [ 78.167359652000187, 14.98645399600019, 0.0 ], [ 78.164432449503408, 14.98073770734106, 0.0 ], [ 78.162833122558936, 14.977618789961751, 0.0 ], [ 78.160345225911669, 14.972216161595901, 0.0 ], [ 78.159055958000238, 14.96911588900014, 0.0 ], [ 78.158143050627245, 14.966497740900881, 0.0 ], [ 78.15740198400016, 14.963393820000141, 0.0 ], [ 78.160463258000107, 14.96317875800014, 0.0 ], [ 78.164450246000172, 14.9633011690002, 0.0 ], [ 78.166568368746653, 14.963562791256891, 0.0 ], [ 78.169253420000189, 14.963659918000131, 0.0 ], [ 78.176761824000266, 14.9641756060002, 0.0 ], [ 78.176624404000222, 14.9675622800001, 0.0 ], [ 78.177695978319662, 14.97104429734674, 0.0 ], [ 78.178153961000248, 14.973124294000231, 0.0 ], [ 78.1791558930002, 14.975716089000169, 0.0 ], [ 78.182711528000311, 14.98165538100022, 0.0 ], [ 78.185139266000249, 14.98218954800012, 0.0 ], [ 78.1873628740002, 14.98310417500022, 0.0 ], [ 78.187453931000221, 14.984827193000109, 0.0 ], [ 78.188205539000194, 14.987549738000039, 0.0 ], [ 78.190158149000126, 14.991401097000161, 0.0 ], [ 78.191047889042125, 14.992675351054061, 0.0 ], [ 78.191180688000088, 14.992865541000191, 0.0 ], [ 78.188438755000163, 14.99402869700015, 0.0 ], [ 78.184967142000232, 14.9942407370001, 0.0 ], [ 78.180470849000244, 14.99585888600012, 0.0 ], [ 78.180022489000123, 14.995937745000161, 0.0 ], [ 78.179829721000146, 14.994183446000021, 0.0 ], [ 78.178018193000185, 14.99424059700004, 0.0 ] ] ] ] } },
{ "type": "Feature", "properties": { "Name": "1", "description": "<html xmlns:fo=\"http://www.w3.org/1999/XSL/Format\" xmlns:msxsl=\"urn:schemas-microsoft-com:xslt\">\n\n<head>\n\n<META http-equiv=\"Content-Type\" content=\"text/html\">\n\n<meta http-equiv=\"content-type\" content=\"text/html; charset=UTF-8\">\n\n</head>\n\n<body style=\"margin:0px 0px 0px 0px;overflow:auto;background:#FFFFFF;\">\n\n<table style=\"font-family:Arial,Verdana,Times;font-size:12px;text-align:left;width:100%;border-collapse:collapse;padding:3px 3px 3px 3px\">\n\n<tr style=\"text-align:center;font-weight:bold;background:#9CBCE2\">\n\n<td>Cyan</td>\n\n</tr>\n\n<tr>\n\n<td>\n\n<table style=\"font-family:Arial,Verdana,Times;font-size:12px;text-align:left;width:100%;border-spacing:0px; padding:3px 3px 3px 3px\">\n\n<tr>\n\n<td>FID</td>\n\n<td>7</td>\n\n</tr>\n\n<tr bgcolor=\"#D4E4F3\">\n\n<td>OID_</td>\n\n<td>0</td>\n\n</tr>\n\n<tr>\n\n<td>Name</td>\n\n<td>Cyan</td>\n\n</tr>\n\n<tr bgcolor=\"#D4E4F3\">\n\n<td>FolderPath</td>\n\n<td></td>\n\n</tr>\n\n<tr>\n\n<td>SymbolID</td>\n\n<td>0</td>\n\n</tr>\n\n<tr bgcolor=\"#D4E4F3\">\n\n<td>AltMode</td>\n\n<td>0</td>\n\n</tr>\n\n<tr>\n\n<td>Base</td>\n\n<td>0</td>\n\n</tr>\n\n<tr bgcolor=\"#D4E4F3\">\n\n<td>Clamped</td>\n\n<td>0</td>\n\n</tr>\n\n<tr>\n\n<td>Extruded</td>\n\n<td>0</td>\n\n</tr>\n\n<tr bgcolor=\"#D4E4F3\">\n\n<td>Snippet</td>\n\n<td></td>\n\n</tr>\n\n<tr>\n\n<td>PopupInfo</td>\n\n<td></td>\n\n</tr>\n\n<tr bgcolor=\"#D4E4F3\">\n\n<td>Shape_Leng</td>\n\n<td>0</td>\n\n</tr>\n\n</table>\n\n</td>\n\n</tr>\n\n</table>\n\n</body>\n\n</html>", "timestamp": null, "begin": null, "end": null, "altitudeMode": null, "tessellate": -1, "extrude": 0, "visibility": -1, "drawOrder": null, "icon": null, "snippet": "" }, "geometry": { "type": "MultiPolygon", "coordinates": [ [ [ [ 78.205178862000309, 14.97387623100019, 0.0 ], [ 78.208190775000219, 14.9805354610001, 0.0 ], [ 78.208957632000136, 14.98028965100019, 0.0 ], [ 78.2103064920002, 14.98156566900008, 0.0 ], [ 78.210710176000191, 14.9819475490001, 0.0 ], [ 78.209740128000249, 14.98255043700021, 0.0 ], [ 78.208784423000111, 14.98276538800013, 0.0 ], [ 78.20806117900014, 14.983367830000249, 0.0 ], [ 78.207562177000227, 14.98369040900025, 0.0 ], [ 78.206635368000207, 14.984289536000119, 0.0 ], [ 78.203124756000136, 14.9852391390001, 0.0 ], [ 78.201492265000184, 14.98550063600015, 0.0 ], [ 78.200424499406893, 14.985317032922859, 0.0 ], [ 78.206938875574622, 14.98075846415867, 0.0 ], [ 78.206290894168717, 14.979554289228931, 0.0 ], [ 78.202982328919177, 14.98079986296483, 0.0 ], [ 78.200357336300726, 14.9755839219726, 0.0 ], [ 78.205178862000309, 14.97387623100019, 0.0 ] ] ] ] } },
{ "type": "Feature", "properties": { "Name": "1", "description": "<html xmlns:fo=\"http://www.w3.org/1999/XSL/Format\" xmlns:msxsl=\"urn:schemas-microsoft-com:xslt\">\n\n<head>\n\n<META http-equiv=\"Content-Type\" content=\"text/html\">\n\n<meta http-equiv=\"content-type\" content=\"text/html; charset=UTF-8\">\n\n</head>\n\n<body style=\"margin:0px 0px 0px 0px;overflow:auto;background:#FFFFFF;\">\n\n<table style=\"font-family:Arial,Verdana,Times;font-size:12px;text-align:left;width:100%;border-collapse:collapse;padding:3px 3px 3px 3px\">\n\n<tr style=\"text-align:center;font-weight:bold;background:#9CBCE2\">\n\n<td>Cyan</td>\n\n</tr>\n\n<tr>\n\n<td>\n\n<table style=\"font-family:Arial,Verdana,Times;font-size:12px;text-align:left;width:100%;border-spacing:0px; padding:3px 3px 3px 3px\">\n\n<tr>\n\n<td>FID</td>\n\n<td>8</td>\n\n</tr>\n\n<tr bgcolor=\"#D4E4F3\">\n\n<td>OID_</td>\n\n<td>0</td>\n\n</tr>\n\n<tr>\n\n<td>Name</td>\n\n<td>Cyan</td>\n\n</tr>\n\n<tr bgcolor=\"#D4E4F3\">\n\n<td>FolderPath</td>\n\n<td></td>\n\n</tr>\n\n<tr>\n\n<td>SymbolID</td>\n\n<td>0</td>\n\n</tr>\n\n<tr bgcolor=\"#D4E4F3\">\n\n<td>AltMode</td>\n\n<td>0</td>\n\n</tr>\n\n<tr>\n\n<td>Base</td>\n\n<td>0</td>\n\n</tr>\n\n<tr bgcolor=\"#D4E4F3\">\n\n<td>Clamped</td>\n\n<td>0</td>\n\n</tr>\n\n<tr>\n\n<td>Extruded</td>\n\n<td>0</td>\n\n</tr>\n\n<tr bgcolor=\"#D4E4F3\">\n\n<td>Snippet</td>\n\n<td></td>\n\n</tr>\n\n<tr>\n\n<td>PopupInfo</td>\n\n<td></td>\n\n</tr>\n\n<tr bgcolor=\"#D4E4F3\">\n\n<td>Shape_Leng</td>\n\n<td>0</td>\n\n</tr>\n\n</table>\n\n</td>\n\n</tr>\n\n</table>\n\n</body>\n\n</html>", "timestamp": null, "begin": null, "end": null, "altitudeMode": null, "tessellate": -1, "extrude": 0, "visibility": -1, "drawOrder": null, "icon": null, "snippet": "" }, "geometry": { "type": "MultiPolygon", "coordinates": [ [ [ [ 78.199299952931256, 14.9872918785818, 0.0 ], [ 78.198180871000091, 14.98790443000013, 0.0 ], [ 78.197010966000221, 14.988574072000061, 0.0 ], [ 78.191122175000146, 14.99263784400023, 0.0 ], [ 78.191047889041954, 14.99267535105389, 0.0 ], [ 78.190158149000126, 14.991401097000161, 0.0 ], [ 78.191488627325498, 14.99043610082953, 0.0 ], [ 78.19059541509705, 14.9887549909306, 0.0 ], [ 78.194410540870592, 14.987200786044349, 0.0 ], [ 78.198799865727381, 14.986399672521831, 0.0 ], [ 78.199299952931256, 14.9872918785818, 0.0 ] ] ] ] } },
{ "type": "Feature", "properties": { "Name": "1", "description": "<html xmlns:fo=\"http://www.w3.org/1999/XSL/Format\" xmlns:msxsl=\"urn:schemas-microsoft-com:xslt\">\n\n<head>\n\n<META http-equiv=\"Content-Type\" content=\"text/html\">\n\n<meta http-equiv=\"content-type\" content=\"text/html; charset=UTF-8\">\n\n</head>\n\n<body style=\"margin:0px 0px 0px 0px;overflow:auto;background:#FFFFFF;\">\n\n<table style=\"font-family:Arial,Verdana,Times;font-size:12px;text-align:left;width:100%;border-collapse:collapse;padding:3px 3px 3px 3px\">\n\n<tr style=\"text-align:center;font-weight:bold;background:#9CBCE2\">\n\n<td>Green</td>\n\n</tr>\n\n<tr>\n\n<td>\n\n<table style=\"font-family:Arial,Verdana,Times;font-size:12px;text-align:left;width:100%;border-spacing:0px; padding:3px 3px 3px 3px\">\n\n<tr>\n\n<td>FID</td>\n\n<td>9</td>\n\n</tr>\n\n<tr bgcolor=\"#D4E4F3\">\n\n<td>OID_</td>\n\n<td>0</td>\n\n</tr>\n\n<tr>\n\n<td>Name</td>\n\n<td>Green</td>\n\n</tr>\n\n<tr bgcolor=\"#D4E4F3\">\n\n<td>FolderPath</td>\n\n<td></td>\n\n</tr>\n\n<tr>\n\n<td>SymbolID</td>\n\n<td>0</td>\n\n</tr>\n\n<tr bgcolor=\"#D4E4F3\">\n\n<td>AltMode</td>\n\n<td>0</td>\n\n</tr>\n\n<tr>\n\n<td>Base</td>\n\n<td>0</td>\n\n</tr>\n\n<tr bgcolor=\"#D4E4F3\">\n\n<td>Clamped</td>\n\n<td>0</td>\n\n</tr>\n\n<tr>\n\n<td>Extruded</td>\n\n<td>0</td>\n\n</tr>\n\n<tr bgcolor=\"#D4E4F3\">\n\n<td>Snippet</td>\n\n<td></td>\n\n</tr>\n\n<tr>\n\n<td>PopupInfo</td>\n\n<td></td>\n\n</tr>\n\n<tr bgcolor=\"#D4E4F3\">\n\n<td>Shape_Leng</td>\n\n<td>0</td>\n\n</tr>\n\n</table>\n\n</td>\n\n</tr>\n\n</table>\n\n</body>\n\n</html>", "timestamp": null, "begin": null, "end": null, "altitudeMode": null, "tessellate": -1, "extrude": 0, "visibility": -1, "drawOrder": null, "icon": null, "snippet": "" }, "geometry": { "type": "MultiPolygon", "coordinates": [ [ [ [ 78.199299952931256, 14.9872918785818, 0.0 ], [ 78.198799865727381, 14.986399672521831, 0.0 ], [ 78.194410540870592, 14.987200786044349, 0.0 ], [ 78.19059541509705, 14.9887549909306, 0.0 ], [ 78.191488627325498, 14.99043610082953, 0.0 ], [ 78.190158149000126, 14.991401097000161, 0.0 ], [ 78.188205539000194, 14.987549738000039, 0.0 ], [ 78.187453931000221, 14.984827193000109, 0.0 ], [ 78.1873628740002, 14.98310417500022, 0.0 ], [ 78.185139266000249, 14.98218954800012, 0.0 ], [ 78.182711528000311, 14.98165538100022, 0.0 ], [ 78.1791558930002, 14.975716089000169, 0.0 ], [ 78.178153961000248, 14.973124294000231, 0.0 ], [ 78.177695978319662, 14.97104429734674, 0.0 ], [ 78.176624404000222, 14.9675622800001, 0.0 ], [ 78.176761824000266, 14.9641756060002, 0.0 ], [ 78.182274993000135, 14.96308497900009, 0.0 ], [ 78.193745455890962, 14.9587360111218, 0.0 ], [ 78.201949959000217, 14.955231112000151, 0.0 ], [ 78.201886736000233, 14.956179033000129, 0.0 ], [ 78.20060598800012, 14.962025081000149, 0.0 ], [ 78.202442726000243, 14.966123097000089, 0.0 ], [ 78.203295943000228, 14.968475012000111, 0.0 ], [ 78.204325847000177, 14.971979215000029, 0.0 ], [ 78.207585692000123, 14.97321878100013, 0.0 ], [ 78.210187573000212, 14.973858273000079, 0.0 ], [ 78.210427511000148, 14.9748417900002, 0.0 ], [ 78.209797578000178, 14.974951049000079, 0.0 ], [ 78.205178862000309, 14.97387623100019, 0.0 ], [ 78.200357336300726, 14.9755839219726, 0.0 ], [ 78.202982328919177, 14.98079986296483, 0.0 ], [ 78.206290894168717, 14.979554289228931, 0.0 ], [ 78.206938875574622, 14.98075846415867, 0.0 ], [ 78.200424499406893, 14.985317032922859, 0.0 ], [ 78.199156180000045, 14.985057997000069, 0.0 ], [ 78.199093392, 14.984799874000091, 0.0 ], [ 78.197003713000072, 14.984365709000141, 0.0 ], [ 78.196854650000091, 14.98504904000009, 0.0 ], [ 78.19896161500003, 14.985578061000069, 0.0 ], [ 78.198956180000039, 14.985664642000071, 0.0 ], [ 78.200139399000136, 14.985835049000061, 0.0 ], [ 78.200825341000268, 14.985867276000141, 0.0 ], [ 78.200593157000242, 14.986584018000091, 0.0 ], [ 78.199299952931256, 14.9872918785818, 0.0 ] ] ] ] } },
{ "type": "Feature", "properties": { "Name": "1", "description": "<html xmlns:fo=\"http://www.w3.org/1999/XSL/Format\" xmlns:msxsl=\"urn:schemas-microsoft-com:xslt\">\n\n<head>\n\n<META http-equiv=\"Content-Type\" content=\"text/html\">\n\n<meta http-equiv=\"content-type\" content=\"text/html; charset=UTF-8\">\n\n</head>\n\n<body style=\"margin:0px 0px 0px 0px;overflow:auto;background:#FFFFFF;\">\n\n<table style=\"font-family:Arial,Verdana,Times;font-size:12px;text-align:left;width:100%;border-collapse:collapse;padding:3px 3px 3px 3px\">\n\n<tr style=\"text-align:center;font-weight:bold;background:#9CBCE2\">\n\n<td>Shade Blue</td>\n\n</tr>\n\n<tr>\n\n<td>\n\n<table style=\"font-family:Arial,Verdana,Times;font-size:12px;text-align:left;width:100%;border-spacing:0px; padding:3px 3px 3px 3px\">\n\n<tr>\n\n<td>FID</td>\n\n<td>10</td>\n\n</tr>\n\n<tr bgcolor=\"#D4E4F3\">\n\n<td>OID_</td>\n\n<td>0</td>\n\n</tr>\n\n<tr>\n\n<td>Name</td>\n\n<td>Shade Blue</td>\n\n</tr>\n\n<tr bgcolor=\"#D4E4F3\">\n\n<td>FolderPath</td>\n\n<td></td>\n\n</tr>\n\n<tr>\n\n<td>SymbolID</td>\n\n<td>0</td>\n\n</tr>\n\n<tr bgcolor=\"#D4E4F3\">\n\n<td>AltMode</td>\n\n<td>0</td>\n\n</tr>\n\n<tr>\n\n<td>Base</td>\n\n<td>0</td>\n\n</tr>\n\n<tr bgcolor=\"#D4E4F3\">\n\n<td>Clamped</td>\n\n<td>0</td>\n\n</tr>\n\n<tr>\n\n<td>Extruded</td>\n\n<td>0</td>\n\n</tr>\n\n<tr bgcolor=\"#D4E4F3\">\n\n<td>Snippet</td>\n\n<td></td>\n\n</tr>\n\n<tr>\n\n<td>PopupInfo</td>\n\n<td></td>\n\n</tr>\n\n<tr bgcolor=\"#D4E4F3\">\n\n<td>Shape_Leng</td>\n\n<td>0</td>\n\n</tr>\n\n</table>\n\n</td>\n\n</tr>\n\n</table>\n\n</body>\n\n</html>", "timestamp": null, "begin": null, "end": null, "altitudeMode": null, "tessellate": -1, "extrude": 0, "visibility": -1, "drawOrder": null, "icon": null, "snippet": "" }, "geometry": { "type": "MultiPolygon", "coordinates": [ [ [ [ 78.254947604000222, 15.020828656000219, 0.0 ], [ 78.255840848000219, 15.020731218000151, 0.0 ], [ 78.256515647000185, 15.02192620300019, 0.0 ], [ 78.260617912004363, 15.02641851992928, 0.0 ], [ 78.270679245384827, 15.027001019485059, 0.0 ], [ 78.278004173885392, 15.02778563277127, 0.0 ], [ 78.282079354949815, 15.029272959926571, 0.0 ], [ 78.284208575998719, 15.03054968700064, 0.0 ], [ 78.2839462864099, 15.033195256609019, 0.0 ], [ 78.273535132628695, 15.03128858363948, 0.0 ], [ 78.272406710000098, 15.03067975200014, 0.0 ], [ 78.269301405000306, 15.03084109200017, 0.0 ], [ 78.268852468000205, 15.03049226400009, 0.0 ], [ 78.266811191000102, 15.0306292740002, 0.0 ], [ 78.264969529000155, 15.03046504000014, 0.0 ], [ 78.2631156029409, 15.03023571203869, 0.0 ], [ 78.262480126000128, 15.03024453600017, 0.0 ], [ 78.261298693000185, 15.03008643400022, 0.0 ], [ 78.261007816000188, 15.02994863800023, 0.0 ], [ 78.26082776200019, 15.0301073550001, 0.0 ], [ 78.259249565000118, 15.03007628100022, 0.0 ], [ 78.255844497000112, 15.030320787000161, 0.0 ], [ 78.254868520000286, 15.030121060000109, 0.0 ], [ 78.253534193000235, 15.030251087000121, 0.0 ], [ 78.252510892000259, 15.030092766000219, 0.0 ], [ 78.255723297028453, 15.029292081626121, 0.0 ], [ 78.253694617493352, 15.02792990662954, 0.0 ], [ 78.251659529448602, 15.02751600726106, 0.0 ], [ 78.249932028756234, 15.024983652372439, 0.0 ], [ 78.250735421000172, 15.023478709000189, 0.0 ], [ 78.251667941000221, 15.02186225700024, 0.0 ], [ 78.251870197000244, 15.021728465000139, 0.0 ], [ 78.253469114000097, 15.02135713700017, 0.0 ], [ 78.254947604000222, 15.020828656000219, 0.0 ] ] ] ] } },
{ "type": "Feature", "properties": { "Name": "1", "description": "<html xmlns:fo=\"http://www.w3.org/1999/XSL/Format\" xmlns:msxsl=\"urn:schemas-microsoft-com:xslt\">\n\n<head>\n\n<META http-equiv=\"Content-Type\" content=\"text/html\">\n\n<meta http-equiv=\"content-type\" content=\"text/html; charset=UTF-8\">\n\n</head>\n\n<body style=\"margin:0px 0px 0px 0px;overflow:auto;background:#FFFFFF;\">\n\n<table style=\"font-family:Arial,Verdana,Times;font-size:12px;text-align:left;width:100%;border-collapse:collapse;padding:3px 3px 3px 3px\">\n\n<tr style=\"text-align:center;font-weight:bold;background:#9CBCE2\">\n\n<td>Shade Blue</td>\n\n</tr>\n\n<tr>\n\n<td>\n\n<table style=\"font-family:Arial,Verdana,Times;font-size:12px;text-align:left;width:100%;border-spacing:0px; padding:3px 3px 3px 3px\">\n\n<tr>\n\n<td>FID</td>\n\n<td>11</td>\n\n</tr>\n\n<tr bgcolor=\"#D4E4F3\">\n\n<td>OID_</td>\n\n<td>0</td>\n\n</tr>\n\n<tr>\n\n<td>Name</td>\n\n<td>Shade Blue</td>\n\n</tr>\n\n<tr bgcolor=\"#D4E4F3\">\n\n<td>FolderPath</td>\n\n<td></td>\n\n</tr>\n\n<tr>\n\n<td>SymbolID</td>\n\n<td>0</td>\n\n</tr>\n\n<tr bgcolor=\"#D4E4F3\">\n\n<td>AltMode</td>\n\n<td>0</td>\n\n</tr>\n\n<tr>\n\n<td>Base</td>\n\n<td>0</td>\n\n</tr>\n\n<tr bgcolor=\"#D4E4F3\">\n\n<td>Clamped</td>\n\n<td>0</td>\n\n</tr>\n\n<tr>\n\n<td>Extruded</td>\n\n<td>0</td>\n\n</tr>\n\n<tr bgcolor=\"#D4E4F3\">\n\n<td>Snippet</td>\n\n<td></td>\n\n</tr>\n\n<tr>\n\n<td>PopupInfo</td>\n\n<td></td>\n\n</tr>\n\n<tr bgcolor=\"#D4E4F3\">\n\n<td>Shape_Leng</td>\n\n<td>0</td>\n\n</tr>\n\n</table>\n\n</td>\n\n</tr>\n\n</table>\n\n</body>\n\n</html>", "timestamp": null, "begin": null, "end": null, "altitudeMode": null, "tessellate": -1, "extrude": 0, "visibility": -1, "drawOrder": null, "icon": null, "snippet": "" }, "geometry": { "type": "MultiPolygon", "coordinates": [ [ [ [ 78.278335870000149, 15.041291576000051, 0.0 ], [ 78.278708539000149, 15.03799864500019, 0.0 ], [ 78.278843330267534, 15.03605972298857, 0.0 ], [ 78.278455884000095, 15.036124634000091, 0.0 ], [ 78.278794505533426, 15.033844124548409, 0.0 ], [ 78.282716326984485, 15.03335340688545, 0.0 ], [ 78.283839760736896, 15.03443670962292, 0.0 ], [ 78.283739020999974, 15.03540159600016, 0.0 ], [ 78.283803809008191, 15.03753850301058, 0.0 ], [ 78.279886662170213, 15.04066888196343, 0.0 ], [ 78.278335870000149, 15.041291576000051, 0.0 ] ] ] ] } },
{ "type": "Feature", "properties": { "Name": "1", "description": "<html xmlns:fo=\"http://www.w3.org/1999/XSL/Format\" xmlns:msxsl=\"urn:schemas-microsoft-com:xslt\">\n\n<head>\n\n<META http-equiv=\"Content-Type\" content=\"text/html\">\n\n<meta http-equiv=\"content-type\" content=\"text/html; charset=UTF-8\">\n\n</head>\n\n<body style=\"margin:0px 0px 0px 0px;overflow:auto;background:#FFFFFF;\">\n\n<table style=\"font-family:Arial,Verdana,Times;font-size:12px;text-align:left;width:100%;border-collapse:collapse;padding:3px 3px 3px 3px\">\n\n<tr style=\"text-align:center;font-weight:bold;background:#9CBCE2\">\n\n<td>Shade Blue</td>\n\n</tr>\n\n<tr>\n\n<td>\n\n<table style=\"font-family:Arial,Verdana,Times;font-size:12px;text-align:left;width:100%;border-spacing:0px; padding:3px 3px 3px 3px\">\n\n<tr>\n\n<td>FID</td>\n\n<td>12</td>\n\n</tr>\n\n<tr bgcolor=\"#D4E4F3\">\n\n<td>OID_</td>\n\n<td>0</td>\n\n</tr>\n\n<tr>\n\n<td>Name</td>\n\n<td>Shade Blue</td>\n\n</tr>\n\n<tr bgcolor=\"#D4E4F3\">\n\n<td>FolderPath</td>\n\n<td></td>\n\n</tr>\n\n<tr>\n\n<td>SymbolID</td>\n\n<td>0</td>\n\n</tr>\n\n<tr bgcolor=\"#D4E4F3\">\n\n<td>AltMode</td>\n\n<td>0</td>\n\n</tr>\n\n<tr>\n\n<td>Base</td>\n\n<td>0</td>\n\n</tr>\n\n<tr bgcolor=\"#D4E4F3\">\n\n<td>Clamped</td>\n\n<td>0</td>\n\n</tr>\n\n<tr>\n\n<td>Extruded</td>\n\n<td>0</td>\n\n</tr>\n\n<tr bgcolor=\"#D4E4F3\">\n\n<td>Snippet</td>\n\n<td></td>\n\n</tr>\n\n<tr>\n\n<td>PopupInfo</td>\n\n<td></td>\n\n</tr>\n\n<tr bgcolor=\"#D4E4F3\">\n\n<td>Shape_Leng</td>\n\n<td>0</td>\n\n</tr>\n\n</table>\n\n</td>\n\n</tr>\n\n</table>\n\n</body>\n\n</html>", "timestamp": null, "begin": null, "end": null, "altitudeMode": null, "tessellate": -1, "extrude": 0, "visibility": -1, "drawOrder": null, "icon": null, "snippet": "" }, "geometry": { "type": "MultiPolygon", "coordinates": [ [ [ [ 78.263396357047213, 15.04702878296661, 0.0 ], [ 78.263413001257845, 15.034351137172109, 0.0 ], [ 78.264473528004089, 15.034948231869009, 0.0 ], [ 78.266634995198615, 15.03540515605351, 0.0 ], [ 78.266416541833166, 15.03467805969586, 0.0 ], [ 78.267538311592034, 15.03502811724587, 0.0 ], [ 78.267532220700332, 15.035293503807679, 0.0 ], [ 78.266138443181887, 15.037792021724901, 0.0 ], [ 78.264715294999974, 15.039460868000109, 0.0 ], [ 78.26455072317998, 15.039966850655331, 0.0 ], [ 78.264992436383977, 15.04046962439247, 0.0 ], [ 78.265320250591913, 15.044484180771351, 0.0 ], [ 78.263396357047213, 15.04702878296661, 0.0 ] ] ] ] } },
{ "type": "Feature", "properties": { "Name": "1", "description": "<html xmlns:fo=\"http://www.w3.org/1999/XSL/Format\" xmlns:msxsl=\"urn:schemas-microsoft-com:xslt\">\n\n<head>\n\n<META http-equiv=\"Content-Type\" content=\"text/html\">\n\n<meta http-equiv=\"content-type\" content=\"text/html; charset=UTF-8\">\n\n</head>\n\n<body style=\"margin:0px 0px 0px 0px;overflow:auto;background:#FFFFFF;\">\n\n<table style=\"font-family:Arial,Verdana,Times;font-size:12px;text-align:left;width:100%;border-collapse:collapse;padding:3px 3px 3px 3px\">\n\n<tr style=\"text-align:center;font-weight:bold;background:#9CBCE2\">\n\n<td>Light Pink</td>\n\n</tr>\n\n<tr>\n\n<td>\n\n<table style=\"font-family:Arial,Verdana,Times;font-size:12px;text-align:left;width:100%;border-spacing:0px; padding:3px 3px 3px 3px\">\n\n<tr>\n\n<td>FID</td>\n\n<td>13</td>\n\n</tr>\n\n<tr bgcolor=\"#D4E4F3\">\n\n<td>OID_</td>\n\n<td>0</td>\n\n</tr>\n\n<tr>\n\n<td>Name</td>\n\n<td>Light Pink</td>\n\n</tr>\n\n<tr bgcolor=\"#D4E4F3\">\n\n<td>FolderPath</td>\n\n<td></td>\n\n</tr>\n\n<tr>\n\n<td>SymbolID</td>\n\n<td>0</td>\n\n</tr>\n\n<tr bgcolor=\"#D4E4F3\">\n\n<td>AltMode</td>\n\n<td>0</td>\n\n</tr>\n\n<tr>\n\n<td>Base</td>\n\n<td>0</td>\n\n</tr>\n\n<tr bgcolor=\"#D4E4F3\">\n\n<td>Clamped</td>\n\n<td>0</td>\n\n</tr>\n\n<tr>\n\n<td>Extruded</td>\n\n<td>0</td>\n\n</tr>\n\n<tr bgcolor=\"#D4E4F3\">\n\n<td>Snippet</td>\n\n<td></td>\n\n</tr>\n\n<tr>\n\n<td>PopupInfo</td>\n\n<td></td>\n\n</tr>\n\n<tr bgcolor=\"#D4E4F3\">\n\n<td>Shape_Leng</td>\n\n<td>0</td>\n\n</tr>\n\n</table>\n\n</td>\n\n</tr>\n\n</table>\n\n</body>\n\n</html>", "timestamp": null, "begin": null, "end": null, "altitudeMode": null, "tessellate": -1, "extrude": 0, "visibility": -1, "drawOrder": null, "icon": null, "snippet": "" }, "geometry": { "type": "MultiPolygon", "coordinates": [ [ [ [ 78.126929500000131, 15.0573134710001, 0.0 ], [ 78.127476205000164, 15.055939764000019, 0.0 ], [ 78.127483074999986, 15.05397074000018, 0.0 ], [ 78.127137030000085, 15.04926366900003, 0.0 ], [ 78.126900708000051, 15.04590421100005, 0.0 ], [ 78.127114596000183, 15.041480809000181, 0.0 ], [ 78.126643001000105, 15.034233888000131, 0.0 ], [ 78.128218178167344, 15.03087642200285, 0.0 ], [ 78.131589308, 15.024881853000069, 0.0 ], [ 78.137216133184836, 15.01837573791585, 0.0 ], [ 78.140214559000015, 15.015071758999969, 0.0 ], [ 78.143706191000092, 15.01513023900003, 0.0 ], [ 78.148424640000144, 15.017999364, 0.0 ], [ 78.156223777000037, 15.02132196900004, 0.0 ], [ 78.156361723000032, 15.02538948800003, 0.0 ], [ 78.156085873000166, 15.028298988000071, 0.0 ], [ 78.156437813000139, 15.02881754500009, 0.0 ], [ 78.156101252000099, 15.03117419900002, 0.0 ], [ 78.156538387000126, 15.03184218000013, 0.0 ], [ 78.155417152000155, 15.032304792000049, 0.0 ], [ 78.154379059000121, 15.032413984000019, 0.0 ], [ 78.151302926000085, 15.03326577700005, 0.0 ], [ 78.146003609000104, 15.033425658000059, 0.0 ], [ 78.145988573000125, 15.034680314000131, 0.0 ], [ 78.14972288600012, 15.035949218000161, 0.0 ], [ 78.148924773000033, 15.038480600000179, 0.0 ], [ 78.148614077000104, 15.03869305600017, 0.0 ], [ 78.147955944000103, 15.03930149500013, 0.0 ], [ 78.148158060000128, 15.039979887000131, 0.0 ], [ 78.1484015690001, 15.040093462000019, 0.0 ], [ 78.147370044000127, 15.04283522100013, 0.0 ], [ 78.144244786000172, 15.048044765000039, 0.0 ], [ 78.142677059502546, 15.05260816299892, 0.0 ], [ 78.141822751000063, 15.055056799000059, 0.0 ], [ 78.140443955000194, 15.055038794000099, 0.0 ], [ 78.138242803000139, 15.054572630000051, 0.0 ], [ 78.137310207000041, 15.05458830500004, 0.0 ], [ 78.134877572000164, 15.054358430000089, 0.0 ], [ 78.133610143000169, 15.054053957000059, 0.0 ], [ 78.1334180610001, 15.05368592800005, 0.0 ], [ 78.132924390000198, 15.05366372900011, 0.0 ], [ 78.129408774000069, 15.05595994100003, 0.0 ], [ 78.127874924000196, 15.0566026730001, 0.0 ], [ 78.126929500000131, 15.0573134710001, 0.0 ] ] ] ] } },
{ "type": "Feature", "properties": { "Name": "1", "description": "<html xmlns:fo=\"http://www.w3.org/1999/XSL/Format\" xmlns:msxsl=\"urn:schemas-microsoft-com:xslt\">\n\n<head>\n\n<META http-equiv=\"Content-Type\" content=\"text/html\">\n\n<meta http-equiv=\"content-type\" content=\"text/html; charset=UTF-8\">\n\n</head>\n\n<body style=\"margin:0px 0px 0px 0px;overflow:auto;background:#FFFFFF;\">\n\n<table style=\"font-family:Arial,Verdana,Times;font-size:12px;text-align:left;width:100%;border-collapse:collapse;padding:3px 3px 3px 3px\">\n\n<tr style=\"text-align:center;font-weight:bold;background:#9CBCE2\">\n\n<td>Pink</td>\n\n</tr>\n\n<tr>\n\n<td>\n\n<table style=\"font-family:Arial,Verdana,Times;font-size:12px;text-align:left;width:100%;border-spacing:0px; padding:3px 3px 3px 3px\">\n\n<tr>\n\n<td>FID</td>\n\n<td>14</td>\n\n</tr>\n\n<tr bgcolor=\"#D4E4F3\">\n\n<td>OID_</td>\n\n<td>0</td>\n\n</tr>\n\n<tr>\n\n<td>Name</td>\n\n<td>Pink</td>\n\n</tr>\n\n<tr bgcolor=\"#D4E4F3\">\n\n<td>FolderPath</td>\n\n<td></td>\n\n</tr>\n\n<tr>\n\n<td>SymbolID</td>\n\n<td>0</td>\n\n</tr>\n\n<tr bgcolor=\"#D4E4F3\">\n\n<td>AltMode</td>\n\n<td>0</td>\n\n</tr>\n\n<tr>\n\n<td>Base</td>\n\n<td>0</td>\n\n</tr>\n\n<tr bgcolor=\"#D4E4F3\">\n\n<td>Clamped</td>\n\n<td>0</td>\n\n</tr>\n\n<tr>\n\n<td>Extruded</td>\n\n<td>0</td>\n\n</tr>\n\n<tr bgcolor=\"#D4E4F3\">\n\n<td>Snippet</td>\n\n<td></td>\n\n</tr>\n\n<tr>\n\n<td>PopupInfo</td>\n\n<td></td>\n\n</tr>\n\n<tr bgcolor=\"#D4E4F3\">\n\n<td>Shape_Leng</td>\n\n<td>0</td>\n\n</tr>\n\n</table>\n\n</td>\n\n</tr>\n\n</table>\n\n</body>\n\n</html>", "timestamp": null, "begin": null, "end": null, "altitudeMode": null, "tessellate": -1, "extrude": 0, "visibility": -1, "drawOrder": null, "icon": null, "snippet": "" }, "geometry": { "type": "MultiPolygon", "coordinates": [ [ [ [ 78.082380802127602, 15.120664195367789, 0.0 ], [ 78.079026725701056, 15.117613230028381, 0.0 ], [ 78.076410623000186, 15.10964333400011, 0.0 ], [ 78.07326829100009, 15.106430108000151, 0.0 ], [ 78.070347157000128, 15.09817400700013, 0.0 ], [ 78.071653385000047, 15.098368514000191, 0.0 ], [ 78.07173210100018, 15.098137214000021, 0.0 ], [ 78.074249640000176, 15.09820116999998, 0.0 ], [ 78.07387132600013, 15.09977755700015, 0.0 ], [ 78.076632417999974, 15.102113779000151, 0.0 ], [ 78.078618999984087, 15.10238812659367, 0.0 ], [ 78.079556247000085, 15.102549145000131, 0.0 ], [ 78.081503714738062, 15.10307368035075, 0.0 ], [ 78.083265780000147, 15.1034706480001, 0.0 ], [ 78.090436245000035, 15.10307867700004, 0.0 ], [ 78.091434605000188, 15.10298637700004, 0.0 ], [ 78.095276259000116, 15.10350987700002, 0.0 ], [ 78.096524581000153, 15.10296641000008, 0.0 ], [ 78.095932276000099, 15.105283953000081, 0.0 ], [ 78.095451832000151, 15.10821646799997, 0.0 ], [ 78.09463829300006, 15.110258785000161, 0.0 ], [ 78.094496253000045, 15.110984337000099, 0.0 ], [ 78.096005204999983, 15.11414514100017, 0.0 ], [ 78.095817659000147, 15.11586535200013, 0.0 ], [ 78.095935049000047, 15.11616256500014, 0.0 ], [ 78.096846585000151, 15.11687680300008, 0.0 ], [ 78.098246065000126, 15.11893032200004, 0.0 ], [ 78.098311052000099, 15.120443041000099, 0.0 ], [ 78.092264257000124, 15.12015027400008, 0.0 ], [ 78.088492291290208, 15.120461730429611, 0.0 ], [ 78.085254317000079, 15.120891534000121, 0.0 ], [ 78.082380802127602, 15.120664195367789, 0.0 ] ] ] ] } },
{ "type": "Feature", "properties": { "Name": "1", "description": "<html xmlns:fo=\"http://www.w3.org/1999/XSL/Format\" xmlns:msxsl=\"urn:schemas-microsoft-com:xslt\">\n\n<head>\n\n<META http-equiv=\"Content-Type\" content=\"text/html\">\n\n<meta http-equiv=\"content-type\" content=\"text/html; charset=UTF-8\">\n\n</head>\n\n<body style=\"margin:0px 0px 0px 0px;overflow:auto;background:#FFFFFF;\">\n\n<table style=\"font-family:Arial,Verdana,Times;font-size:12px;text-align:left;width:100%;border-collapse:collapse;padding:3px 3px 3px 3px\">\n\n<tr style=\"text-align:center;font-weight:bold;background:#9CBCE2\">\n\n<td>Grey</td>\n\n</tr>\n\n<tr>\n\n<td>\n\n<table style=\"font-family:Arial,Verdana,Times;font-size:12px;text-align:left;width:100%;border-spacing:0px; padding:3px 3px 3px 3px\">\n\n<tr>\n\n<td>FID</td>\n\n<td>15</td>\n\n</tr>\n\n<tr bgcolor=\"#D4E4F3\">\n\n<td>OID_</td>\n\n<td>0</td>\n\n</tr>\n\n<tr>\n\n<td>Name</td>\n\n<td>Grey</td>\n\n</tr>\n\n<tr bgcolor=\"#D4E4F3\">\n\n<td>FolderPath</td>\n\n<td></td>\n\n</tr>\n\n<tr>\n\n<td>SymbolID</td>\n\n<td>0</td>\n\n</tr>\n\n<tr bgcolor=\"#D4E4F3\">\n\n<td>AltMode</td>\n\n<td>0</td>\n\n</tr>\n\n<tr>\n\n<td>Base</td>\n\n<td>0</td>\n\n</tr>\n\n<tr bgcolor=\"#D4E4F3\">\n\n<td>Clamped</td>\n\n<td>0</td>\n\n</tr>\n\n<tr>\n\n<td>Extruded</td>\n\n<td>0</td>\n\n</tr>\n\n<tr bgcolor=\"#D4E4F3\">\n\n<td>Snippet</td>\n\n<td></td>\n\n</tr>\n\n<tr>\n\n<td>PopupInfo</td>\n\n<td></td>\n\n</tr>\n\n<tr bgcolor=\"#D4E4F3\">\n\n<td>Shape_Leng</td>\n\n<td>0</td>\n\n</tr>\n\n</table>\n\n</td>\n\n</tr>\n\n</table>\n\n</body>\n\n</html>", "timestamp": null, "begin": null, "end": null, "altitudeMode": null, "tessellate": -1, "extrude": 0, "visibility": -1, "drawOrder": null, "icon": null, "snippet": "" }, "geometry": { "type": "MultiPolygon", "coordinates": [ [ [ [ 78.148017163225063, 14.99623090650965, 0.0 ], [ 78.147102892000305, 14.997028126000201, 0.0 ], [ 78.146868010673302, 14.997576083096989, 0.0 ], [ 78.146408349536955, 14.997067311973071, 0.0 ], [ 78.141737172484113, 14.99450112843704, 0.0 ], [ 78.142708756000161, 14.99413006100013, 0.0 ], [ 78.142762159000256, 14.993980060000069, 0.0 ], [ 78.142585635000216, 14.99350134300016, 0.0 ], [ 78.14220146800011, 14.993404075000109, 0.0 ], [ 78.14222600346335, 14.9932997776246, 0.0 ], [ 78.147753280630013, 14.995939549553841, 0.0 ], [ 78.148017163225063, 14.99623090650965, 0.0 ] ] ] ] } },
{ "type": "Feature", "properties": { "Name": "1", "description": "<html xmlns:fo=\"http://www.w3.org/1999/XSL/Format\" xmlns:msxsl=\"urn:schemas-microsoft-com:xslt\">\n\n<head>\n\n<META http-equiv=\"Content-Type\" content=\"text/html\">\n\n<meta http-equiv=\"content-type\" content=\"text/html; charset=UTF-8\">\n\n</head>\n\n<body style=\"margin:0px 0px 0px 0px;overflow:auto;background:#FFFFFF;\">\n\n<table style=\"font-family:Arial,Verdana,Times;font-size:12px;text-align:left;width:100%;border-collapse:collapse;padding:3px 3px 3px 3px\">\n\n<tr style=\"text-align:center;font-weight:bold;background:#9CBCE2\">\n\n<td>Dark Blue</td>\n\n</tr>\n\n<tr>\n\n<td>\n\n<table style=\"font-family:Arial,Verdana,Times;font-size:12px;text-align:left;width:100%;border-spacing:0px; padding:3px 3px 3px 3px\">\n\n<tr>\n\n<td>FID</td>\n\n<td>16</td>\n\n</tr>\n\n<tr bgcolor=\"#D4E4F3\">\n\n<td>OID_</td>\n\n<td>0</td>\n\n</tr>\n\n<tr>\n\n<td>Name</td>\n\n<td>Dark Blue</td>\n\n</tr>\n\n<tr bgcolor=\"#D4E4F3\">\n\n<td>FolderPath</td>\n\n<td></td>\n\n</tr>\n\n<tr>\n\n<td>SymbolID</td>\n\n<td>0</td>\n\n</tr>\n\n<tr bgcolor=\"#D4E4F3\">\n\n<td>AltMode</td>\n\n<td>0</td>\n\n</tr>\n\n<tr>\n\n<td>Base</td>\n\n<td>0</td>\n\n</tr>\n\n<tr bgcolor=\"#D4E4F3\">\n\n<td>Clamped</td>\n\n<td>0</td>\n\n</tr>\n\n<tr>\n\n<td>Extruded</td>\n\n<td>0</td>\n\n</tr>\n\n<tr bgcolor=\"#D4E4F3\">\n\n<td>Snippet</td>\n\n<td></td>\n\n</tr>\n\n<tr>\n\n<td>PopupInfo</td>\n\n<td></td>\n\n</tr>\n\n<tr bgcolor=\"#D4E4F3\">\n\n<td>Shape_Leng</td>\n\n<td>0</td>\n\n</tr>\n\n</table>\n\n</td>\n\n</tr>\n\n</table>\n\n</body>\n\n</html>", "timestamp": null, "begin": null, "end": null, "altitudeMode": null, "tessellate": -1, "extrude": 0, "visibility": -1, "drawOrder": null, "icon": null, "snippet": "" }, "geometry": { "type": "MultiPolygon", "coordinates": [ [ [ [ 78.146868010673302, 14.997576083096989, 0.0 ], [ 78.145946527727006, 14.99972582026999, 0.0 ], [ 78.145332865000114, 15.00256698700014, 0.0 ], [ 78.144874024000273, 15.01103386000017, 0.0 ], [ 78.140904368000236, 15.010574567000109, 0.0 ], [ 78.140043521000166, 15.010396010000139, 0.0 ], [ 78.138340113000254, 15.00933687000008, 0.0 ], [ 78.137484466079343, 15.00755130162247, 0.0 ], [ 78.137113194000108, 15.006104230000121, 0.0 ], [ 78.137186304000124, 15.00547601600022, 0.0 ], [ 78.136836793000214, 15.003232434000211, 0.0 ], [ 78.137002359000235, 15.00205023700016, 0.0 ], [ 78.137780857000166, 15.0013314360001, 0.0 ], [ 78.1382681890002, 15.0004196280002, 0.0 ], [ 78.138497037000093, 15.00021577000018, 0.0 ], [ 78.138678665000214, 14.999964743000129, 0.0 ], [ 78.138883264000185, 14.9993066090002, 0.0 ], [ 78.138893008000309, 14.997786931000229, 0.0 ], [ 78.139728765000257, 14.996351757000131, 0.0 ], [ 78.139975120000088, 14.995499583000139, 0.0 ], [ 78.139977958000145, 14.99535740600021, 0.0 ], [ 78.140752654000153, 14.994877136000239, 0.0 ], [ 78.141737172484113, 14.99450112843704, 0.0 ], [ 78.146408349536955, 14.997067311973071, 0.0 ], [ 78.146868010673302, 14.997576083096989, 0.0 ] ] ] ] } },
{ "type": "Feature", "properties": { "Name": "1", "description": "<html xmlns:fo=\"http://www.w3.org/1999/XSL/Format\" xmlns:msxsl=\"urn:schemas-microsoft-com:xslt\">\n\n<head>\n\n<META http-equiv=\"Content-Type\" content=\"text/html\">\n\n<meta http-equiv=\"content-type\" content=\"text/html; charset=UTF-8\">\n\n</head>\n\n<body style=\"margin:0px 0px 0px 0px;overflow:auto;background:#FFFFFF;\">\n\n<table style=\"font-family:Arial,Verdana,Times;font-size:12px;text-align:left;width:100%;border-collapse:collapse;padding:3px 3px 3px 3px\">\n\n<tr style=\"text-align:center;font-weight:bold;background:#9CBCE2\">\n\n<td>Grey</td>\n\n</tr>\n\n<tr>\n\n<td>\n\n<table style=\"font-family:Arial,Verdana,Times;font-size:12px;text-align:left;width:100%;border-spacing:0px; padding:3px 3px 3px 3px\">\n\n<tr>\n\n<td>FID</td>\n\n<td>17</td>\n\n</tr>\n\n<tr bgcolor=\"#D4E4F3\">\n\n<td>OID_</td>\n\n<td>0</td>\n\n</tr>\n\n<tr>\n\n<td>Name</td>\n\n<td>Grey</td>\n\n</tr>\n\n<tr bgcolor=\"#D4E4F3\">\n\n<td>FolderPath</td>\n\n<td></td>\n\n</tr>\n\n<tr>\n\n<td>SymbolID</td>\n\n<td>0</td>\n\n</tr>\n\n<tr bgcolor=\"#D4E4F3\">\n\n<td>AltMode</td>\n\n<td>0</td>\n\n</tr>\n\n<tr>\n\n<td>Base</td>\n\n<td>0</td>\n\n</tr>\n\n<tr bgcolor=\"#D4E4F3\">\n\n<td>Clamped</td>\n\n<td>0</td>\n\n</tr>\n\n<tr>\n\n<td>Extruded</td>\n\n<td>0</td>\n\n</tr>\n\n<tr bgcolor=\"#D4E4F3\">\n\n<td>Snippet</td>\n\n<td></td>\n\n</tr>\n\n<tr>\n\n<td>PopupInfo</td>\n\n<td></td>\n\n</tr>\n\n<tr bgcolor=\"#D4E4F3\">\n\n<td>Shape_Leng</td>\n\n<td>0</td>\n\n</tr>\n\n</table>\n\n</td>\n\n</tr>\n\n</table>\n\n</body>\n\n</html>", "timestamp": null, "begin": null, "end": null, "altitudeMode": null, "tessellate": -1, "extrude": 0, "visibility": -1, "drawOrder": null, "icon": null, "snippet": "" }, "geometry": { "type": "MultiPolygon", "coordinates": [ [ [ [ 78.154736877000175, 15.0036502490002, 0.0 ], [ 78.15448633300025, 15.003835440000159, 0.0 ], [ 78.153107440000099, 15.00386631600009, 0.0 ], [ 78.152969272038376, 15.00436188709978, 0.0 ], [ 78.152924044068925, 15.00427914035504, 0.0 ], [ 78.146868010673302, 14.997576083096989, 0.0 ], [ 78.147102892000305, 14.997028126000201, 0.0 ], [ 78.148017163225063, 14.99623090650965, 0.0 ], [ 78.154736877000175, 15.0036502490002, 0.0 ] ] ] ] } },
{ "type": "Feature", "properties": { "Name": "1", "description": "<html xmlns:fo=\"http://www.w3.org/1999/XSL/Format\" xmlns:msxsl=\"urn:schemas-microsoft-com:xslt\">\n\n<head>\n\n<META http-equiv=\"Content-Type\" content=\"text/html\">\n\n<meta http-equiv=\"content-type\" content=\"text/html; charset=UTF-8\">\n\n</head>\n\n<body style=\"margin:0px 0px 0px 0px;overflow:auto;background:#FFFFFF;\">\n\n<table style=\"font-family:Arial,Verdana,Times;font-size:12px;text-align:left;width:100%;border-collapse:collapse;padding:3px 3px 3px 3px\">\n\n<tr style=\"text-align:center;font-weight:bold;background:#9CBCE2\">\n\n<td>Purple</td>\n\n</tr>\n\n<tr>\n\n<td>\n\n<table style=\"font-family:Arial,Verdana,Times;font-size:12px;text-align:left;width:100%;border-spacing:0px; padding:3px 3px 3px 3px\">\n\n<tr>\n\n<td>FID</td>\n\n<td>19</td>\n\n</tr>\n\n<tr bgcolor=\"#D4E4F3\">\n\n<td>OID_</td>\n\n<td>0</td>\n\n</tr>\n\n<tr>\n\n<td>Name</td>\n\n<td>Purple</td>\n\n</tr>\n\n<tr bgcolor=\"#D4E4F3\">\n\n<td>FolderPath</td>\n\n<td></td>\n\n</tr>\n\n<tr>\n\n<td>SymbolID</td>\n\n<td>0</td>\n\n</tr>\n\n<tr bgcolor=\"#D4E4F3\">\n\n<td>AltMode</td>\n\n<td>0</td>\n\n</tr>\n\n<tr>\n\n<td>Base</td>\n\n<td>0</td>\n\n</tr>\n\n<tr bgcolor=\"#D4E4F3\">\n\n<td>Clamped</td>\n\n<td>0</td>\n\n</tr>\n\n<tr>\n\n<td>Extruded</td>\n\n<td>0</td>\n\n</tr>\n\n<tr bgcolor=\"#D4E4F3\">\n\n<td>Snippet</td>\n\n<td></td>\n\n</tr>\n\n<tr>\n\n<td>PopupInfo</td>\n\n<td></td>\n\n</tr>\n\n<tr bgcolor=\"#D4E4F3\">\n\n<td>Shape_Leng</td>\n\n<td>0</td>\n\n</tr>\n\n</table>\n\n</td>\n\n</tr>\n\n</table>\n\n</body>\n\n</html>", "timestamp": null, "begin": null, "end": null, "altitudeMode": null, "tessellate": -1, "extrude": 0, "visibility": -1, "drawOrder": null, "icon": null, "snippet": "" }, "geometry": { "type": "MultiPolygon", "coordinates": [ [ [ [ 78.088969606020498, 15.07246001202668, 0.0 ], [ 78.088538753943112, 15.069901494040209, 0.0 ], [ 78.087067071892591, 15.06666354049224, 0.0 ], [ 78.084793368981991, 15.06532531108479, 0.0 ], [ 78.085746707103169, 15.064087333401741, 0.0 ], [ 78.088471492247891, 15.06319367347527, 0.0 ], [ 78.092875468886348, 15.06226514347412, 0.0 ], [ 78.095750932405736, 15.062783903371891, 0.0 ], [ 78.097184531315008, 15.063245930417111, 0.0 ], [ 78.099039395911177, 15.06281890685165, 0.0 ], [ 78.099838558038357, 15.06372820545624, 0.0 ], [ 78.100366877370675, 15.06396314684048, 0.0 ], [ 78.10126966218786, 15.06436461145012, 0.0 ], [ 78.102512929989302, 15.064274939543401, 0.0 ], [ 78.10374542842095, 15.065265564429181, 0.0 ], [ 78.103664642616422, 15.066684739131921, 0.0 ], [ 78.093990734802048, 15.06854807429221, 0.0 ], [ 78.091408084910768, 15.070146803217989, 0.0 ], [ 78.088969606020498, 15.07246001202668, 0.0 ] ] ] ] } },
{ "type": "Feature", "properties": { "Name": "1", "description": "<html xmlns:fo=\"http://www.w3.org/1999/XSL/Format\" xmlns:msxsl=\"urn:schemas-microsoft-com:xslt\">\n\n<head>\n\n<META http-equiv=\"Content-Type\" content=\"text/html\">\n\n<meta http-equiv=\"content-type\" content=\"text/html; charset=UTF-8\">\n\n</head>\n\n<body style=\"margin:0px 0px 0px 0px;overflow:auto;background:#FFFFFF;\">\n\n<table style=\"font-family:Arial,Verdana,Times;font-size:12px;text-align:left;width:100%;border-collapse:collapse;padding:3px 3px 3px 3px\">\n\n<tr style=\"text-align:center;font-weight:bold;background:#9CBCE2\">\n\n<td>Purple</td>\n\n</tr>\n\n<tr>\n\n<td>\n\n<table style=\"font-family:Arial,Verdana,Times;font-size:12px;text-align:left;width:100%;border-spacing:0px; padding:3px 3px 3px 3px\">\n\n<tr>\n\n<td>FID</td>\n\n<td>18</td>\n\n</tr>\n\n<tr bgcolor=\"#D4E4F3\">\n\n<td>OID_</td>\n\n<td>0</td>\n\n</tr>\n\n<tr>\n\n<td>Name</td>\n\n<td>Purple</td>\n\n</tr>\n\n<tr bgcolor=\"#D4E4F3\">\n\n<td>FolderPath</td>\n\n<td></td>\n\n</tr>\n\n<tr>\n\n<td>SymbolID</td>\n\n<td>0</td>\n\n</tr>\n\n<tr bgcolor=\"#D4E4F3\">\n\n<td>AltMode</td>\n\n<td>0</td>\n\n</tr>\n\n<tr>\n\n<td>Base</td>\n\n<td>0</td>\n\n</tr>\n\n<tr bgcolor=\"#D4E4F3\">\n\n<td>Clamped</td>\n\n<td>0</td>\n\n</tr>\n\n<tr>\n\n<td>Extruded</td>\n\n<td>0</td>\n\n</tr>\n\n<tr bgcolor=\"#D4E4F3\">\n\n<td>Snippet</td>\n\n<td></td>\n\n</tr>\n\n<tr>\n\n<td>PopupInfo</td>\n\n<td></td>\n\n</tr>\n\n<tr bgcolor=\"#D4E4F3\">\n\n<td>Shape_Leng</td>\n\n<td>0</td>\n\n</tr>\n\n</table>\n\n</td>\n\n</tr>\n\n</table>\n\n</body>\n\n</html>", "timestamp": null, "begin": null, "end": null, "altitudeMode": null, "tessellate": -1, "extrude": 0, "visibility": -1, "drawOrder": null, "icon": null, "snippet": "" }, "geometry": { "type": "MultiPolygon", "coordinates": [ [ [ [ 78.152969272038376, 15.00436188709978, 0.0 ], [ 78.152907433000166, 15.00458368700021, 0.0 ], [ 78.152654914000152, 15.004521486000099, 0.0 ], [ 78.152815790998773, 15.01087723098499, 0.0 ], [ 78.149678429000119, 15.01118287400004, 0.0 ], [ 78.144874024000273, 15.01103386000017, 0.0 ], [ 78.145332865000114, 15.00256698700014, 0.0 ], [ 78.145946527727006, 14.99972582026999, 0.0 ], [ 78.146868010673302, 14.997576083096989, 0.0 ], [ 78.152924044068925, 15.00427914035504, 0.0 ], [ 78.152969272038376, 15.00436188709978, 0.0 ] ] ] ] } }
]
}
