{
"type": "FeatureCollection",
"name": "1___73_",
"crs": { "type": "name", "properties": { "name": "urn:ogc:def:crs:OGC:1.3:CRS84" } },
"features": [
{ "type": "Feature", "properties": { "Name": "1", "description": null, "timestamp": null, "begin": null, "end": null, "altitudeMode": null, "tessellate": 1, "extrude": 0, "visibility": -1, "drawOrder": null, "icon": null }, "geometry": { "type": "Polygon", "coordinates": [ [ [ 77.958202190589773, 15.17117173096258, 0.0 ], [ 77.958574137653684, 15.170912472103, 0.0 ], [ 77.958994215937523, 15.16943518255272, 0.0 ], [ 77.960420269923077, 15.16748448775787, 0.0 ], [ 77.96140470318521, 15.165357444433971, 0.0 ], [ 77.962170340421238, 15.157359333553281, 0.0 ], [ 77.967421638939982, 15.15759087959248, 0.0 ], [ 77.976116862620742, 15.157897013102991, 0.0 ], [ 77.979866398980306, 15.15799213681219, 0.0 ], [ 77.980534340535229, 15.158200403742519, 0.0 ], [ 77.980329860476544, 15.15849843549311, 0.0 ], [ 77.981914629150481, 15.15882291665851, 0.0 ], [ 77.984173501021331, 15.15938709595995, 0.0 ], [ 77.985114564265132, 15.159652354576689, 0.0 ], [ 77.986734709622667, 15.15989356607575, 0.0 ], [ 77.987404939967519, 15.160226081349711, 0.0 ], [ 77.988422405028601, 15.160609767202789, 0.0 ], [ 77.990025386681253, 15.160783134841269, 0.0 ], [ 77.991841713065327, 15.16098274310551, 0.0 ], [ 77.99429089671672, 15.161358938415351, 0.0 ], [ 77.997170322246134, 15.16123852956005, 0.0 ], [ 78.000359849544608, 15.162470062243891, 0.0 ], [ 78.005063860612253, 15.16279447108529, 0.0 ], [ 78.013227714167854, 15.16391485393139, 0.0 ], [ 78.019531619284166, 15.1628309871878, 0.0 ], [ 78.029064437327051, 15.16303421733928, 0.0 ], [ 78.032196998733752, 15.1623915401498, 0.0 ], [ 78.036152339182607, 15.163566271805101, 0.0 ], [ 78.036611073279161, 15.163932723514471, 0.0 ], [ 78.036619532261668, 15.163923440063201, 0.0 ], [ 78.038255574814045, 15.164760958937549, 0.0 ], [ 78.039636997215979, 15.164397081352829, 0.0 ], [ 78.038203169669259, 15.165303735650181, 0.0 ], [ 78.036686996876313, 15.16582931806467, 0.0 ], [ 78.036902003575193, 15.165060911501969, 0.0 ], [ 78.036312092717125, 15.165086578215231, 0.0 ], [ 78.034194668295072, 15.165705030642121, 0.0 ], [ 78.033685443843126, 15.165396921495439, 0.0 ], [ 78.033259426869265, 15.16545694758155, 0.0 ], [ 78.033309554455968, 15.16603317228931, 0.0 ], [ 78.032629807766199, 15.16668984767281, 0.0 ], [ 78.032366725801339, 15.16793914197569, 0.0 ], [ 78.032384809861412, 15.168301908273421, 0.0 ], [ 78.031335446560348, 15.173335331796849, 0.0 ], [ 78.025460556454675, 15.175706781305839, 0.0 ], [ 78.019051866019211, 15.17398558674979, 0.0 ], [ 78.011058924665008, 15.17469885155691, 0.0 ], [ 78.006174913403868, 15.17555146221819, 0.0 ], [ 78.002882234697111, 15.175129702623449, 0.0 ], [ 77.999240005516342, 15.17420710938838, 0.0 ], [ 77.991235776765919, 15.16969671428819, 0.0 ], [ 77.987231226208124, 15.169801303210599, 0.0 ], [ 77.979551792931176, 15.16958564956588, 0.0 ], [ 77.97595240480608, 15.17069417281343, 0.0 ], [ 77.972616715487916, 15.17134592972841, 0.0 ], [ 77.97002541494227, 15.171468481338589, 0.0 ], [ 77.968140459255338, 15.1707682558536, 0.0 ], [ 77.966715732089142, 15.170380662286931, 0.0 ], [ 77.965770274030476, 15.170219426535549, 0.0 ], [ 77.963927487440884, 15.170203545263499, 0.0 ], [ 77.962453334714624, 15.17124556393804, 0.0 ], [ 77.960569690814481, 15.17151328818283, 0.0 ], [ 77.95893910307673, 15.172084316797269, 0.0 ], [ 77.958837589626199, 15.172038747921979, 0.0 ], [ 77.95776118217357, 15.171420992120259, 0.0 ], [ 77.958202190589773, 15.17117173096258, 0.0 ] ] ] } },
{ "type": "Feature", "properties": { "Name": "1", "description": null, "timestamp": null, "begin": null, "end": null, "altitudeMode": null, "tessellate": -1, "extrude": 0, "visibility": -1, "drawOrder": null, "icon": null }, "geometry": { "type": "Polygon", "coordinates": [ [ [ 78.009908552100001, 15.151567629, 0.0 ], [ 78.010357032900004, 15.1514513724, 0.0 ], [ 78.015317446699996, 15.150078819399999, 0.0 ], [ 78.017630577099993, 15.1487423654, 0.0 ], [ 78.019025671199998, 15.148776271899999, 0.0 ], [ 78.022524625499997, 15.148887208, 0.0 ], [ 78.023648133500004, 15.149156445799999, 0.0 ], [ 78.024652421799999, 15.1493926965, 0.0 ], [ 78.024682403599996, 15.149432836, 0.0 ], [ 78.024865863200006, 15.149688014100001, 0.0 ], [ 78.025115934200002, 15.150025507400001, 0.0 ], [ 78.026287999800005, 15.1501521278, 0.0 ], [ 78.0269795066, 15.150368543400001, 0.0 ], [ 78.027696988599999, 15.150223239100001, 0.0 ], [ 78.027761155899995, 15.1502533476, 0.0 ], [ 78.028277282100007, 15.1504955223, 0.0 ], [ 78.028572250600007, 15.1507871395, 0.0 ], [ 78.029386894400005, 15.1508483269, 0.0 ], [ 78.0305824175, 15.1508447415, 0.0 ], [ 78.031807797, 15.151242055100001, 0.0 ], [ 78.031057590499998, 15.1516762786, 0.0 ], [ 78.030598134, 15.151936575600001, 0.0 ], [ 78.030669529299999, 15.152900577500001, 0.0 ], [ 78.030491451499998, 15.153037897300001, 0.0 ], [ 78.029569630300003, 15.153793932399999, 0.0 ], [ 78.027616558, 15.1550853012, 0.0 ], [ 78.026615597700001, 15.1552059443, 0.0 ], [ 78.026838692200002, 15.1555620275, 0.0 ], [ 78.026785650099995, 15.155947798, 0.0 ], [ 78.027054381, 15.156533509100001, 0.0 ], [ 78.028404266500004, 15.155835210399999, 0.0 ], [ 78.029188579199996, 15.155420636500001, 0.0 ], [ 78.029733752200002, 15.155214346199999, 0.0 ], [ 78.034176358300002, 15.154194325400001, 0.0 ], [ 78.035916868900003, 15.1540311256, 0.0 ], [ 78.036725063700004, 15.1540332402, 0.0 ], [ 78.036394923499998, 15.1536269709, 0.0 ], [ 78.0382936046, 15.153845086800001, 0.0 ], [ 78.038962926899998, 15.1539227141, 0.0 ], [ 78.038477044700002, 15.1556328104, 0.0 ], [ 78.0383143886, 15.156183158799999, 0.0 ], [ 78.037853492300002, 15.1580311851, 0.0 ], [ 78.037556953, 15.159251469399999, 0.0 ], [ 78.037376442099998, 15.160009221, 0.0 ], [ 78.036792763500003, 15.162716383199999, 0.0 ], [ 78.036747172800006, 15.1629377423, 0.0 ], [ 78.036555442062266, 15.163873473494791, 0.0 ], [ 78.036183913705585, 15.16359694926698, 0.0 ], [ 78.032201562850361, 15.16238426571093, 0.0 ], [ 78.032172929048329, 15.16238127632568, 0.0 ], [ 78.029107553459156, 15.16304142372533, 0.0 ], [ 78.019559662503227, 15.162883246456101, 0.0 ], [ 78.019559231041896, 15.16289254126859, 0.0 ], [ 78.014001358100003, 15.163710307500001, 0.0 ], [ 78.0136886258, 15.162974532, 0.0 ], [ 78.013069196399996, 15.1615216553, 0.0 ], [ 78.011742977899999, 15.1584154787, 0.0 ], [ 78.011523332400003, 15.157579048900001, 0.0 ], [ 78.011177934800003, 15.1562891766, 0.0 ], [ 78.010899297, 15.1552635211, 0.0 ], [ 78.011037416700006, 15.155157023, 0.0 ], [ 78.010912026599996, 15.154990697700001, 0.0 ], [ 78.010842144500003, 15.1550427255, 0.0 ], [ 78.010572980899994, 15.15404694, 0.0 ], [ 78.009908552100001, 15.151567629, 0.0 ], [ 78.009908552100001, 15.151567629, 0.0 ] ] ] } }
]
}
