{
"type": "FeatureCollection",
"name": "1___20_",
"crs": { "type": "name", "properties": { "name": "urn:ogc:def:crs:OGC:1.3:CRS84" } },
"features": [
{ "type": "Feature", "properties": { "Name": "1", "description": null, "timestamp": null, "begin": null, "end": null, "altitudeMode": null, "tessellate": 1, "extrude": 0, "visibility": -1, "drawOrder": null, "icon": null }, "geometry": { "type": "Polygon", "coordinates": [ [ [ 78.026596125141964, 15.34514616805437, 0.0 ], [ 78.037485575026466, 15.4015034437358, 0.0 ], [ 78.014229091756107, 15.418627463263549, 0.0 ], [ 77.872611707665541, 15.380581942730339, 0.0 ], [ 77.86381416867664, 15.335008002189049, 0.0 ], [ 77.855388803369053, 15.28997499272719, 0.0 ], [ 78.026596125141964, 15.34514616805437, 0.0 ] ] ] } }
]
}
