{
"type": "FeatureCollection",
"name": "1___50_",
"crs": { "type": "name", "properties": { "name": "urn:ogc:def:crs:OGC:1.3:CRS84" } },
"features": [
{ "type": "Feature", "properties": { "Name": "1", "description": null, "timestamp": null, "begin": null, "end": null, "altitudeMode": null, "tessellate": -1, "extrude": 0, "visibility": -1, "drawOrder": null, "icon": null }, "geometry": { "type": "LineString", "coordinates": [ [ 77.904291172900002, 15.1397585321, 0.0 ], [ 77.918078820230221, 15.14579583109024, 0.0 ], [ 77.920225538795592, 15.147305694071671, 0.0 ], [ 77.928715853833282, 15.152478867754169, 0.0 ], [ 77.936406579731511, 15.19343796318118, 0.0 ], [ 77.970858509323364, 15.19053923088275, 0.0 ], [ 77.970269157918324, 15.14079482879551, 0.0 ], [ 78.04254063519565, 15.15784795121084, 0.0 ], [ 78.044689954820214, 15.194136204641071, 0.0 ], [ 78.103831924794051, 15.2597138722313, 0.0 ], [ 78.158819123246076, 15.14063098560073, 0.0 ], [ 78.091353447499998, 15.1317086885, 0.0 ], [ 78.088610269262404, 15.10654570854976, 0.0 ], [ 78.015312318230102, 15.099806102523379, 0.0 ], [ 78.002083046114222, 15.04529562270047, 0.0 ], [ 77.986827893092666, 15.04749481814506, 0.0 ], [ 77.978965776983898, 15.03211770899332, 0.0 ], [ 77.949578863919086, 15.08658349200253, 0.0 ], [ 77.9049571069, 15.0958277708, 0.0 ], [ 77.904160054299993, 15.139846132300001, 0.0 ] ] } }
]
}
