{
"type": "FeatureCollection",
"name": "1___71_",
"crs": { "type": "name", "properties": { "name": "urn:ogc:def:crs:OGC:1.3:CRS84" } },
"features": [
{ "type": "Feature", "properties": { "Name": "1", "description": null, "timestamp": null, "begin": null, "end": null, "altitudeMode": null, "tessellate": 1, "extrude": 0, "visibility": -1, "drawOrder": null, "icon": null }, "geometry": { "type": "Polygon", "coordinates": [ [ [ 78.899271213798713, 14.89194521061995, 0.0 ], [ 78.900146521345874, 14.891966995135871, 0.0 ], [ 78.90026447184519, 14.892295510668291, 0.0 ], [ 78.901005395495673, 14.8924069383103, 0.0 ], [ 78.901067191261546, 14.8916315947214, 0.0 ], [ 78.90189062430764, 14.8857615606808, 0.0 ], [ 78.901922108013991, 14.88467022418987, 0.0 ], [ 78.903124856649043, 14.88470818396654, 0.0 ], [ 78.903284874968023, 14.88280502563093, 0.0 ], [ 78.903490715452378, 14.881996174818971, 0.0 ], [ 78.903925683873538, 14.879809714195069, 0.0 ], [ 78.903166787777195, 14.88016642438307, 0.0 ], [ 78.902376536592186, 14.87823203394375, 0.0 ], [ 78.902195396874234, 14.876493136573339, 0.0 ], [ 78.902783033789262, 14.875045673257111, 0.0 ], [ 78.906327544345132, 14.87442791018009, 0.0 ], [ 78.906422924300088, 14.870879860325051, 0.0 ], [ 78.905036116156865, 14.870592520914331, 0.0 ], [ 78.905046972379139, 14.86991168903374, 0.0 ], [ 78.906542713831499, 14.869960597678229, 0.0 ], [ 78.90847240360165, 14.86987279748667, 0.0 ], [ 78.909406387345214, 14.86977943270352, 0.0 ], [ 78.908899676432071, 14.870880223787911, 0.0 ], [ 78.907221628592808, 14.87593220776467, 0.0 ], [ 78.909367911904639, 14.878399281472239, 0.0 ], [ 78.907125467760437, 14.886574940248821, 0.0 ], [ 78.905448225686428, 14.88699363091161, 0.0 ], [ 78.903946358896391, 14.88854968270196, 0.0 ], [ 78.903442502749442, 14.89155243203906, 0.0 ], [ 78.902851293389233, 14.89440677143884, 0.0 ], [ 78.903615224746289, 14.894691838481339, 0.0 ], [ 78.903386511847046, 14.896802033966891, 0.0 ], [ 78.898961647439691, 14.89358472064189, 0.0 ], [ 78.899271213798713, 14.89194521061995, 0.0 ] ] ] } }
]
}
