{
"type": "FeatureCollection",
"name": "1___92_",
"crs": { "type": "name", "properties": { "name": "urn:ogc:def:crs:OGC:1.3:CRS84" } },
"features": [
{ "type": "Feature", "properties": { "Name": "1", "description": null, "timestamp": null, "begin": null, "end": null, "altitudeMode": null, "tessellate": -1, "extrude": 0, "visibility": -1, "drawOrder": null, "icon": null }, "geometry": { "type": "Polygon", "coordinates": [ [ [ 78.033097146800003, 15.581261446099999, 0.0 ], [ 78.028497600899996, 15.5796824908, 0.0 ], [ 78.030990644200003, 15.5772203609, 0.0 ], [ 78.039775788100002, 15.567178328200001, 0.0 ], [ 78.042369909399994, 15.567469087099999, 0.0 ], [ 78.042042631399994, 15.570591195800001, 0.0 ], [ 78.044549627199999, 15.5710187448, 0.0 ], [ 78.045452023, 15.568560552, 0.0 ], [ 78.052985989500002, 15.568540026200001, 0.0 ], [ 78.056659942300001, 15.570092966200001, 0.0 ], [ 78.056846654599994, 15.573394437699999, 0.0 ], [ 78.060207470899996, 15.575242319899999, 0.0 ], [ 78.071370302800005, 15.574342379400001, 0.0 ], [ 78.083310228100004, 15.5740333657, 0.0 ], [ 78.084591298199996, 15.576368667400001, 0.0 ], [ 78.087786307200005, 15.5777864798, 0.0 ], [ 78.091761720400001, 15.5750360542, 0.0 ], [ 78.0986219272, 15.5769223458, 0.0 ], [ 78.105410084200003, 15.5803557654, 0.0 ], [ 78.121006399099997, 15.581356360799999, 0.0 ], [ 78.117892922500005, 15.5844537919, 0.0 ], [ 78.106154344700002, 15.5889088411, 0.0 ], [ 78.096512851699998, 15.596836077600001, 0.0 ], [ 78.088218470599998, 15.596774438100001, 0.0 ], [ 78.082230957899995, 15.591649243, 0.0 ], [ 78.076715007100006, 15.5900743969, 0.0 ], [ 78.074370674099995, 15.5876304884, 0.0 ], [ 78.069444289100005, 15.586621325699999, 0.0 ], [ 78.067666601100001, 15.584774143100001, 0.0 ], [ 78.063797465199997, 15.5839531631, 0.0 ], [ 78.057973984100002, 15.5804500104, 0.0 ], [ 78.050891032600006, 15.581722496199999, 0.0 ], [ 78.048079526600006, 15.583287542, 0.0 ], [ 78.042861856499997, 15.581477448599999, 0.0 ], [ 78.046793860299999, 15.580232371, 0.0 ], [ 78.049462438299997, 15.578578195, 0.0 ], [ 78.0513852614, 15.576702903199999, 0.0 ], [ 78.050568691600006, 15.575037699799999, 0.0 ], [ 78.042292940500005, 15.5775818145, 0.0 ], [ 78.036228643, 15.581275187399999, 0.0 ], [ 78.035796574700001, 15.583042413, 0.0 ], [ 78.0344361187, 15.5840346716, 0.0 ], [ 78.034320819499996, 15.584711117299999, 0.0 ], [ 78.034516145400005, 15.5847320184, 0.0 ], [ 78.033989369099999, 15.586761513, 0.0 ], [ 78.033413826100002, 15.5871327226, 0.0 ], [ 78.0334393718, 15.587622579, 0.0 ], [ 78.032422897700002, 15.588066786900001, 0.0 ], [ 78.0266885634, 15.585778599699999, 0.0 ], [ 78.028200726199998, 15.584851610799999, 0.0 ], [ 78.029131659100003, 15.584690497, 0.0 ], [ 78.029963499100006, 15.5846227841, 0.0 ], [ 78.030738756399998, 15.5850911864, 0.0 ], [ 78.031298916, 15.5846566132, 0.0 ], [ 78.031429273200004, 15.583521444900001, 0.0 ], [ 78.031162357900001, 15.5828230509, 0.0 ], [ 78.0331817151, 15.5811931884, 0.0 ], [ 78.033097146800003, 15.581261446099999, 0.0 ] ] ] } },
{ "type": "Feature", "properties": { "Name": "1", "description": null, "timestamp": null, "begin": null, "end": null, "altitudeMode": null, "tessellate": -1, "extrude": 0, "visibility": -1, "drawOrder": null, "icon": null }, "geometry": { "type": "Point", "coordinates": [ 78.090161271820492, 15.584064081203991, 0.0 ] } }
]
}
