{
"type": "FeatureCollection",
"name": "1___106_",
"crs": { "type": "name", "properties": { "name": "urn:ogc:def:crs:OGC:1.3:CRS84" } },
"features": [
{ "type": "Feature", "properties": { "Name": "1", "description": null, "timestamp": null, "begin": null, "end": null, "altitudeMode": null, "tessellate": 1, "extrude": 0, "visibility": -1, "drawOrder": null, "icon": null }, "geometry": { "type": "Polygon", "coordinates": [ [ [ 78.243378205614505, 14.857456664880131, 0.0 ], [ 78.244146726620016, 14.855378485220999, 0.0 ], [ 78.253377790953579, 14.854577138400529, 0.0 ], [ 78.2585661623026, 14.851337013616559, 0.0 ], [ 78.267699272023933, 14.851337448400409, 0.0 ], [ 78.26797439933172, 14.8518281478267, 0.0 ], [ 78.270593189984126, 14.85392737089655, 0.0 ], [ 78.270558921874397, 14.8539633893344, 0.0 ], [ 78.266658298378232, 14.85885222293073, 0.0 ], [ 78.268118144471302, 14.860388488347359, 0.0 ], [ 78.268974406050589, 14.861597342464259, 0.0 ], [ 78.269626788547669, 14.862385887948779, 0.0 ], [ 78.27022589628173, 14.86282253107932, 0.0 ], [ 78.269300985241159, 14.86422565037871, 0.0 ], [ 78.26757568843442, 14.86548644397849, 0.0 ], [ 78.26450981543708, 14.866235570148881, 0.0 ], [ 78.265658349503269, 14.86821193301825, 0.0 ], [ 78.268099832204328, 14.8687368872527, 0.0 ], [ 78.267992570822031, 14.870160141286959, 0.0 ], [ 78.269560168495133, 14.87088966922456, 0.0 ], [ 78.271750347449867, 14.870043974573489, 0.0 ], [ 78.272705337653008, 14.86860505362473, 0.0 ], [ 78.275167561935959, 14.867455928695801, 0.0 ], [ 78.276320550032708, 14.86761739993509, 0.0 ], [ 78.278711683885447, 14.869803977674589, 0.0 ], [ 78.281799231394828, 14.87455177839286, 0.0 ], [ 78.282331284903577, 14.87717167404517, 0.0 ], [ 78.282053883499799, 14.877857472044941, 0.0 ], [ 78.279955377745765, 14.87468454268074, 0.0 ], [ 78.279731116154451, 14.87589862079799, 0.0 ], [ 78.280098657529962, 14.87674521419496, 0.0 ], [ 78.280837695463134, 14.877685364567879, 0.0 ], [ 78.281053597516063, 14.87854814072471, 0.0 ], [ 78.28048583460442, 14.87885186826675, 0.0 ], [ 78.279561971859593, 14.877685181763431, 0.0 ], [ 78.278581232190547, 14.87704310388815, 0.0 ], [ 78.277198548175136, 14.8771282662773, 0.0 ], [ 78.275663070492797, 14.87834114566383, 0.0 ], [ 78.271740259747773, 14.87946124266352, 0.0 ], [ 78.272829502557101, 14.87833063913069, 0.0 ], [ 78.2751471920932, 14.876829664072149, 0.0 ], [ 78.275778670441696, 14.874476322488521, 0.0 ], [ 78.272851139205798, 14.87464218325464, 0.0 ], [ 78.271238836653851, 14.873937915967471, 0.0 ], [ 78.268497361732841, 14.87481885355305, 0.0 ], [ 78.267061473432705, 14.874693174601161, 0.0 ], [ 78.264735115882502, 14.874630283742579, 0.0 ], [ 78.26197617536674, 14.87375453504762, 0.0 ], [ 78.260599177387746, 14.87307026166379, 0.0 ], [ 78.259178221717221, 14.87319436251385, 0.0 ], [ 78.259184827679746, 14.87381678160888, 0.0 ], [ 78.260332951610636, 14.87513283710121, 0.0 ], [ 78.259263949379957, 14.87563734011712, 0.0 ], [ 78.258488115931144, 14.875826975702161, 0.0 ], [ 78.257831375860249, 14.87608022984573, 0.0 ], [ 78.256454471187567, 14.876651703294851, 0.0 ], [ 78.254975750256065, 14.87713503520331, 0.0 ], [ 78.254473771972982, 14.87671529531316, 0.0 ], [ 78.252961821184016, 14.87773740159577, 0.0 ], [ 78.251474680436431, 14.876587991125341, 0.0 ], [ 78.245001568493066, 14.86891222695095, 0.0 ], [ 78.242850513719219, 14.869940186637081, 0.0 ], [ 78.243938069562361, 14.871895842327421, 0.0 ], [ 78.241919002867661, 14.87331841289615, 0.0 ], [ 78.242062979107445, 14.874003842028131, 0.0 ], [ 78.241497104897832, 14.87576361547212, 0.0 ], [ 78.240717711599544, 14.87690645573049, 0.0 ], [ 78.243124823483726, 14.879478938623089, 0.0 ], [ 78.244168529305412, 14.879154825598659, 0.0 ], [ 78.244744005207778, 14.878379961751079, 0.0 ], [ 78.247468818020664, 14.880129191024031, 0.0 ], [ 78.246920300778697, 14.881815449411629, 0.0 ], [ 78.246901736126844, 14.883332896910821, 0.0 ], [ 78.245724455689768, 14.884897716047069, 0.0 ], [ 78.245725846830112, 14.888729866454771, 0.0 ], [ 78.244555238174385, 14.89012303835761, 0.0 ], [ 78.247824428333558, 14.89131891833641, 0.0 ], [ 78.250312076128722, 14.88894226322031, 0.0 ], [ 78.254310473083194, 14.88839407883343, 0.0 ], [ 78.25643492686369, 14.890173807449671, 0.0 ], [ 78.260881737733101, 14.89077714096334, 0.0 ], [ 78.261486738456, 14.889880768292031, 0.0 ], [ 78.261825616013994, 14.891036389114181, 0.0 ], [ 78.260658130653809, 14.893798848662611, 0.0 ], [ 78.261055457377623, 14.89623969665729, 0.0 ], [ 78.261376193833073, 14.89744411742522, 0.0 ], [ 78.260910684749206, 14.89833806565839, 0.0 ], [ 78.258569213908444, 14.899173079217841, 0.0 ], [ 78.256719981163116, 14.90093989743861, 0.0 ], [ 78.255972431462865, 14.89917299669993, 0.0 ], [ 78.253553318260828, 14.899560017068939, 0.0 ], [ 78.250538588394861, 14.900315684842839, 0.0 ], [ 78.248381898990118, 14.900727463549501, 0.0 ], [ 78.247665016834546, 14.89827375728963, 0.0 ], [ 78.245499102313104, 14.89661866401293, 0.0 ], [ 78.244776312284216, 14.895232969864541, 0.0 ], [ 78.24209337047057, 14.89607388099569, 0.0 ], [ 78.238815086787213, 14.89048682449001, 0.0 ], [ 78.240526366353819, 14.88921968859909, 0.0 ], [ 78.240921106925967, 14.8852523922234, 0.0 ], [ 78.24298066193694, 14.884263672043611, 0.0 ], [ 78.243132146034313, 14.88071547985264, 0.0 ], [ 78.237106228520531, 14.88145284738718, 0.0 ], [ 78.235214856376459, 14.87737052503439, 0.0 ], [ 78.234041938259324, 14.87469839663307, 0.0 ], [ 78.233163145065973, 14.87086736420159, 0.0 ], [ 78.233350022802469, 14.869978944678239, 0.0 ], [ 78.22820042514897, 14.870395769264871, 0.0 ], [ 78.227730091112235, 14.8687342972687, 0.0 ], [ 78.225939533861535, 14.871602901689259, 0.0 ], [ 78.229237138300974, 14.87464407525666, 0.0 ], [ 78.229639784848388, 14.876710849783629, 0.0 ], [ 78.230981209783678, 14.87964789909141, 0.0 ], [ 78.230410375375698, 14.881509424232741, 0.0 ], [ 78.230899656403722, 14.88173682738322, 0.0 ], [ 78.230307597848608, 14.882592918421089, 0.0 ], [ 78.227474642344475, 14.88408964007653, 0.0 ], [ 78.226787564957021, 14.88408963148084, 0.0 ], [ 78.223051227755022, 14.88660151172888, 0.0 ], [ 78.217908578247588, 14.88606895504136, 0.0 ], [ 78.216853232132621, 14.88472483357643, 0.0 ], [ 78.214936440792002, 14.88501571240965, 0.0 ], [ 78.214185693059548, 14.882303687402731, 0.0 ], [ 78.214158925688309, 14.87791903736287, 0.0 ], [ 78.212727935204072, 14.87218139197096, 0.0 ], [ 78.217352062164011, 14.871127040549741, 0.0 ], [ 78.22319751686139, 14.86683844104062, 0.0 ], [ 78.226014767497375, 14.86617975524873, 0.0 ], [ 78.227990515583059, 14.86323051635193, 0.0 ], [ 78.225818269954786, 14.85972119508917, 0.0 ], [ 78.229990785747816, 14.85972189814469, 0.0 ], [ 78.234647836964484, 14.863974926615279, 0.0 ], [ 78.243378205614505, 14.857456664880131, 0.0 ] ] ] } },
{ "type": "Feature", "properties": { "Name": "1", "description": null, "timestamp": null, "begin": null, "end": null, "altitudeMode": null, "tessellate": 1, "extrude": 0, "visibility": -1, "drawOrder": null, "icon": null }, "geometry": { "type": "Polygon", "coordinates": [ [ [ 78.251362032207254, 14.876467254230301, 0.0 ], [ 78.247462943354819, 14.87164447604416, 0.0 ], [ 78.248266198267316, 14.870646913930081, 0.0 ], [ 78.255551210237229, 14.86416339047549, 0.0 ], [ 78.260770046465026, 14.86150390627882, 0.0 ], [ 78.266619272362419, 14.85873353612352, 0.0 ], [ 78.268969628713904, 14.86444241593988, 0.0 ], [ 78.267249255388236, 14.86555067575248, 0.0 ], [ 78.264439412918804, 14.866104563073449, 0.0 ], [ 78.265643348907432, 14.86815534514742, 0.0 ], [ 78.252394223225878, 14.87729879912763, 0.0 ], [ 78.251362032207254, 14.876467254230301, 0.0 ] ] ] } }
]
}
