{
"type": "FeatureCollection",
"name": "1___99_",
"crs": { "type": "name", "properties": { "name": "urn:ogc:def:crs:OGC:1.3:CRS84" } },
"features": [
{ "type": "Feature", "properties": { "Name": "1", "description": null, "timestamp": null, "begin": null, "end": null, "altitudeMode": null, "tessellate": -1, "extrude": 0, "visibility": -1, "drawOrder": null, "icon": null }, "geometry": { "type": "Point", "coordinates": [ 78.317091572275658, 14.78852933391382, 0.0 ] } },
{ "type": "Feature", "properties": { "Name": "1", "description": null, "timestamp": null, "begin": null, "end": null, "altitudeMode": null, "tessellate": -1, "extrude": 0, "visibility": -1, "drawOrder": null, "icon": null }, "geometry": { "type": "Polygon", "coordinates": [ [ [ 78.292490808400004, 14.7950665727, 0.0 ], [ 78.288939009200007, 14.788989261799999, 0.0 ], [ 78.309101103499998, 14.776111240200001, 0.0 ], [ 78.318050574099999, 14.7766501325, 0.0 ], [ 78.325205159299998, 14.7746126141, 0.0 ], [ 78.350802617599996, 14.761190032, 0.0 ], [ 78.358646228799998, 14.780050762, 0.0 ], [ 78.318847881799996, 14.8038385028, 0.0 ], [ 78.306873416599998, 14.812108498, 0.0 ], [ 78.300367148500001, 14.8082090216, 0.0 ], [ 78.292490808400004, 14.7950665727, 0.0 ] ] ] } }
]
}
