{
"type": "FeatureCollection",
"name": "1___10_",
"crs": { "type": "name", "properties": { "name": "urn:ogc:def:crs:OGC:1.3:CRS84" } },
"features": [
{ "type": "Feature", "properties": { "Name": "kml_1", "description": null, "timestamp": null, "begin": null, "end": null, "altitudeMode": null, "tessellate": -1, "extrude": 0, "visibility": -1, "drawOrder": null, "icon": null }, "geometry": { "type": "LineString", "coordinates": [ [ 78.431494781647203, 14.1810208395259, 0.0 ], [ 78.430274759764004, 14.17897228108, 0.0 ], [ 78.426901417294602, 14.178264411372901, 0.0 ], [ 78.424892762140004, 14.174787646225401, 0.0 ], [ 78.426306560603194, 14.173596008398, 0.0 ], [ 78.429372443330706, 14.1725719371947, 0.0 ], [ 78.430510441459603, 14.173366225356, 0.0 ], [ 78.431451341333997, 14.1731826828729, 0.0 ], [ 78.431667346122097, 14.172382147510501, 0.0 ], [ 78.433086066053903, 14.1719398962172, 0.0 ], [ 78.433893987432597, 14.172431349507001, 0.0 ], [ 78.434123370380604, 14.1714009236014, 0.0 ], [ 78.4341393664142, 14.171327735669299, 0.0 ], [ 78.435604951639505, 14.1707704335358, 0.0 ], [ 78.437574393083295, 14.1706362585289, 0.0 ], [ 78.4374532941507, 14.1697800963021, 0.0 ], [ 78.439651106388098, 14.168487948494001, 0.0 ], [ 78.440072373296999, 14.1700973940005, 0.0 ], [ 78.440026725344296, 14.1720677032036, 0.0 ], [ 78.4401285944015, 14.1738028239558, 0.0 ], [ 78.441525598206596, 14.174518964613901, 0.0 ], [ 78.442860920889402, 14.174598230684801, 0.0 ], [ 78.444500934867705, 14.174931073765601, 0.0 ], [ 78.445364446889798, 14.1784325993008, 0.0 ], [ 78.434458962734695, 14.181507571961101, 0.0 ], [ 78.431494781647203, 14.1810208395259, 0.0 ] ] } },
{ "type": "Feature", "properties": { "Name": "kml_2", "description": null, "timestamp": null, "begin": null, "end": null, "altitudeMode": null, "tessellate": -1, "extrude": 0, "visibility": -1, "drawOrder": null, "icon": null }, "geometry": { "type": "LineString", "coordinates": [ [ 78.424585325251996, 14.172854734345, 0.0 ], [ 78.423601061819099, 14.1716544786825, 0.0 ], [ 78.421807100953103, 14.169350871839599, 0.0 ], [ 78.421725290684705, 14.1663836160717, 0.0 ], [ 78.422533541155005, 14.1591376242487, 0.0 ], [ 78.422544728718705, 14.1573339344943, 0.0 ], [ 78.423372847144194, 14.156635887049401, 0.0 ], [ 78.423887111646593, 14.1553615370154, 0.0 ], [ 78.423970547172104, 14.1553418244513, 0.0 ], [ 78.425317502059499, 14.1541069950959, 0.0 ], [ 78.427121757785798, 14.154772621747099, 0.0 ], [ 78.429211521561797, 14.154540173426801, 0.0 ], [ 78.429965724111995, 14.155553698189699, 0.0 ], [ 78.430952092894898, 14.155553910577, 0.0 ], [ 78.430887926424603, 14.157941998797099, 0.0 ], [ 78.433750760872002, 14.1581434894444, 0.0 ], [ 78.433995031278002, 14.1601555157155, 0.0 ], [ 78.433005080071496, 14.1625410177137, 0.0 ], [ 78.433883030207696, 14.1667220209536, 0.0 ], [ 78.433200190143594, 14.1688747038408, 0.0 ], [ 78.431962172459393, 14.1680356622359, 0.0 ], [ 78.430324414955805, 14.1665191274757, 0.0 ], [ 78.428495321664997, 14.166626303949799, 0.0 ], [ 78.428403394043301, 14.168672061714499, 0.0 ], [ 78.428483760615407, 14.1715186221975, 0.0 ], [ 78.424585325251996, 14.172854734345, 0.0 ] ] } },
{ "type": "Feature", "properties": { "Name": "kml_3", "description": null, "timestamp": null, "begin": null, "end": null, "altitudeMode": null, "tessellate": -1, "extrude": 0, "visibility": -1, "drawOrder": null, "icon": null }, "geometry": { "type": "LineString", "coordinates": [ [ 78.4469300975463, 14.1777208235965, 0.0 ], [ 78.447921491455205, 14.1750137893603, 0.0 ], [ 78.445896584568501, 14.174427653314501, 0.0 ], [ 78.444421166562094, 14.1718543010481, 0.0 ], [ 78.442975685696894, 14.1698472566192, 0.0 ], [ 78.442535920805298, 14.169563544646801, 0.0 ], [ 78.441489328663096, 14.169071339956799, 0.0 ], [ 78.440267355298403, 14.168457729069599, 0.0 ], [ 78.439294176614297, 14.168061482049101, 0.0 ], [ 78.436231624649693, 14.169458442249599, 0.0 ], [ 78.4356751515204, 14.169147450271501, 0.0 ], [ 78.435976599464695, 14.166642208662299, 0.0 ], [ 78.434848330658895, 14.164189765823201, 0.0 ], [ 78.433761776495302, 14.1626847272498, 0.0 ], [ 78.434198307931595, 14.1607879815574, 0.0 ], [ 78.434364232719801, 14.157485173495999, 0.0 ], [ 78.436855395617599, 14.156191063596699, 0.0 ], [ 78.4386583373132, 14.1564912283651, 0.0 ], [ 78.439423519726105, 14.1551157897786, 0.0 ], [ 78.441499873392004, 14.1550687540637, 0.0 ], [ 78.442511311237098, 14.154285528608799, 0.0 ], [ 78.444945639085105, 14.1565531767979, 0.0 ], [ 78.445932454610002, 14.1609438978307, 0.0 ], [ 78.445279196624497, 14.163840735199701, 0.0 ], [ 78.447336134408204, 14.166681100692699, 0.0 ], [ 78.451018818490098, 14.1702176439162, 0.0 ], [ 78.454161364836395, 14.1714824231221, 0.0 ], [ 78.458530076282997, 14.1714987400577, 0.0 ], [ 78.460067302207904, 14.173512606084, 0.0 ], [ 78.4469300975463, 14.1777208235965, 0.0 ] ] } },
{ "type": "Feature", "properties": { "Name": "kml_4", "description": null, "timestamp": null, "begin": null, "end": null, "altitudeMode": null, "tessellate": -1, "extrude": 0, "visibility": -1, "drawOrder": null, "icon": null }, "geometry": { "type": "LineString", "coordinates": [ [ 78.431100596527799, 14.1514056753521, 0.0 ], [ 78.431072310263701, 14.148162036016499, 0.0 ], [ 78.429904546116802, 14.146481284344199, 0.0 ], [ 78.4298734185993, 14.1464489130597, 0.0 ], [ 78.431956708477003, 14.144346853111401, 0.0 ], [ 78.432885034187393, 14.144619437030901, 0.0 ], [ 78.432823773363594, 14.145441770832599, 0.0 ], [ 78.434093294755101, 14.1458974044985, 0.0 ], [ 78.435152642659006, 14.144901594699499, 0.0 ], [ 78.436665065407794, 14.1447247211164, 0.0 ], [ 78.437302298976505, 14.145457494132099, 0.0 ], [ 78.437518605124495, 14.146045799595599, 0.0 ], [ 78.438965040650899, 14.1465051515233, 0.0 ], [ 78.439154771791394, 14.147533915478499, 0.0 ], [ 78.440044616852703, 14.1491953485774, 0.0 ], [ 78.442596822689296, 14.1496333769853, 0.0 ], [ 78.445087916715906, 14.149442789626301, 0.0 ], [ 78.445138496283306, 14.1511079929374, 0.0 ], [ 78.444793985154703, 14.152050145917899, 0.0 ], [ 78.444404724281299, 14.153074734930399, 0.0 ], [ 78.441106078636807, 14.154697067079301, 0.0 ], [ 78.4390780582508, 14.1544557984642, 0.0 ], [ 78.433047189291202, 14.1519422574488, 0.0 ], [ 78.431100596527799, 14.1514056753521, 0.0 ] ] } },
{ "type": "Feature", "properties": { "Name": "kml_6", "description": null, "timestamp": null, "begin": null, "end": null, "altitudeMode": null, "tessellate": -1, "extrude": 0, "visibility": -1, "drawOrder": null, "icon": null }, "geometry": { "type": "LineString", "coordinates": [ [ 78.300477420626805, 14.2465297074435, 0.0 ], [ 78.305267084648506, 14.245666237449599, 0.0 ], [ 78.309133257535194, 14.246345166529901, 0.0 ], [ 78.311999401226302, 14.2489186262098, 0.0 ], [ 78.310258087597603, 14.2522518840403, 0.0 ], [ 78.306825172886406, 14.2547189691784, 0.0 ], [ 78.301949563283699, 14.254728858327599, 0.0 ], [ 78.299672851425498, 14.253656068241, 0.0 ], [ 78.297333284832703, 14.254445438317999, 0.0 ], [ 78.293947652650601, 14.257582358410801, 0.0 ], [ 78.291126913213105, 14.2607697382502, 0.0 ], [ 78.289161255072798, 14.2624452953368, 0.0 ], [ 78.287517536857905, 14.263683482111199, 0.0 ], [ 78.284516386708304, 14.263031878700501, 0.0 ], [ 78.280256790493198, 14.259749767531099, 0.0 ], [ 78.279145051491497, 14.2603481027411, 0.0 ], [ 78.281069319619306, 14.2650125074787, 0.0 ], [ 78.280628475032998, 14.2665826642735, 0.0 ], [ 78.277747445942595, 14.2661281874365, 0.0 ], [ 78.276044040867404, 14.2661087152026, 0.0 ], [ 78.274045251937395, 14.2668520536467, 0.0 ], [ 78.273498149330194, 14.263569294011999, 0.0 ], [ 78.275189714254793, 14.262050245631, 0.0 ], [ 78.277285043609098, 14.260204732728999, 0.0 ], [ 78.276420187734502, 14.259411325511399, 0.0 ], [ 78.274582696670905, 14.2568653528577, 0.0 ], [ 78.272133305905399, 14.2540896015177, 0.0 ], [ 78.270992003627697, 14.2534828307348, 0.0 ], [ 78.269308703689404, 14.2506875146086, 0.0 ], [ 78.271151634242798, 14.2485892841039, 0.0 ], [ 78.273210000406607, 14.246020000492599, 0.0 ], [ 78.275775672451502, 14.2466485501064, 0.0 ], [ 78.277765586486296, 14.2465352021343, 0.0 ], [ 78.278415009974694, 14.246641537124701, 0.0 ], [ 78.278716259697703, 14.2467370856202, 0.0 ], [ 78.279592212580596, 14.2469773590636, 0.0 ], [ 78.279912913526701, 14.247027072946, 0.0 ], [ 78.280429898281596, 14.2469552293399, 0.0 ], [ 78.282439977392499, 14.247099860924299, 0.0 ], [ 78.283495925132897, 14.246976646343599, 0.0 ], [ 78.284005917318893, 14.2469044593993, 0.0 ], [ 78.285767814762494, 14.247272995451301, 0.0 ], [ 78.289809026348806, 14.245284577334001, 0.0 ], [ 78.300477420626805, 14.2465297074435, 0.0 ] ] } },
{ "type": "Feature", "properties": { "Name": "kml_7", "description": null, "timestamp": null, "begin": null, "end": null, "altitudeMode": null, "tessellate": -1, "extrude": 0, "visibility": -1, "drawOrder": null, "icon": null }, "geometry": { "type": "LineString", "coordinates": [ [ 78.248265549406199, 14.2493793068854, 0.0 ], [ 78.262769174772004, 14.247255325813899, 0.0 ], [ 78.265734817902398, 14.2485938203428, 0.0 ], [ 78.265748517931797, 14.2512368054884, 0.0 ], [ 78.267762599568997, 14.253995103666799, 0.0 ], [ 78.265882571047101, 14.2584459713082, 0.0 ], [ 78.265997864641804, 14.2613514765389, 0.0 ], [ 78.265025016568899, 14.2622637727605, 0.0 ], [ 78.264845169794498, 14.268541867690301, 0.0 ], [ 78.261913249321395, 14.269657527440099, 0.0 ], [ 78.254325090047402, 14.2704277485446, 0.0 ], [ 78.2459087511034, 14.2714626876505, 0.0 ], [ 78.242327437138499, 14.2678853274353, 0.0 ], [ 78.237139962184401, 14.2667342115849, 0.0 ], [ 78.231946223114903, 14.267028473402201, 0.0 ], [ 78.235762125453306, 14.261381985234101, 0.0 ], [ 78.236841350821095, 14.2570149266628, 0.0 ], [ 78.231824800391905, 14.253236774368499, 0.0 ], [ 78.248265549406199, 14.2493793068854, 0.0 ] ] } },
{ "type": "Feature", "properties": { "Name": "kml_8", "description": null, "timestamp": null, "begin": null, "end": null, "altitudeMode": null, "tessellate": -1, "extrude": 0, "visibility": -1, "drawOrder": null, "icon": null }, "geometry": { "type": "LineString", "coordinates": [ [ 78.236642589745898, 14.2452450369796, 0.0 ], [ 78.240740838076704, 14.239616888225401, 0.0 ], [ 78.241082812852895, 14.2289026560157, 0.0 ], [ 78.242750160260996, 14.2255591988501, 0.0 ], [ 78.244847522407497, 14.229039684673999, 0.0 ], [ 78.247713713957097, 14.2318214418551, 0.0 ], [ 78.250306294598303, 14.235013807939101, 0.0 ], [ 78.254609771274005, 14.2411837789011, 0.0 ], [ 78.244191889062904, 14.2438306824333, 0.0 ], [ 78.236642589745898, 14.2452450369796, 0.0 ] ] } },
{ "type": "Feature", "properties": { "Name": "kml_9", "description": null, "timestamp": null, "begin": null, "end": null, "altitudeMode": null, "tessellate": -1, "extrude": 0, "visibility": -1, "drawOrder": null, "icon": null }, "geometry": { "type": "LineString", "coordinates": [ [ 78.412905028532094, 14.164127170440301, 0.0 ], [ 78.407517659163503, 14.1583152179495, 0.0 ], [ 78.405537407062099, 14.155756074813301, 0.0 ], [ 78.401684279336294, 14.1540549230312, 0.0 ], [ 78.401633664419705, 14.1466808051703, 0.0 ], [ 78.399099634794595, 14.1423566618873, 0.0 ], [ 78.403102653260405, 14.139007041517299, 0.0 ], [ 78.407503134421304, 14.138180823234499, 0.0 ], [ 78.4077163881026, 14.138119219152999, 0.0 ], [ 78.409306876305195, 14.1360778469501, 0.0 ], [ 78.413147327839098, 14.1385408097286, 0.0 ], [ 78.417676439856507, 14.141592848504599, 0.0 ], [ 78.420782031846699, 14.1494466811124, 0.0 ], [ 78.418368899010801, 14.153847412038401, 0.0 ], [ 78.417570222370202, 14.158617993478501, 0.0 ], [ 78.412905028532094, 14.164127170440301, 0.0 ] ] } },
{ "type": "Feature", "properties": { "Name": "kml_10", "description": null, "timestamp": null, "begin": null, "end": null, "altitudeMode": null, "tessellate": -1, "extrude": 0, "visibility": -1, "drawOrder": null, "icon": null }, "geometry": { "type": "LineString", "coordinates": [ [ 78.411995967560301, 14.197081215948, 0.0 ], [ 78.410032282941401, 14.191516756027999, 0.0 ], [ 78.410910278278607, 14.187058389092201, 0.0 ], [ 78.409004952869495, 14.1830770949444, 0.0 ], [ 78.410398364095599, 14.179582029797, 0.0 ], [ 78.413437680871098, 14.1787600238307, 0.0 ], [ 78.411594848096598, 14.1742749043153, 0.0 ], [ 78.415505478933696, 14.1743166060172, 0.0 ], [ 78.423984938797105, 14.173398293962199, 0.0 ], [ 78.424780285797993, 14.177500673605801, 0.0 ], [ 78.425052464041102, 14.1816035187558, 0.0 ], [ 78.425436406177397, 14.1824483869981, 0.0 ], [ 78.428161652214996, 14.181857851025301, 0.0 ], [ 78.430826164835295, 14.1817558033868, 0.0 ], [ 78.431884702903105, 14.183460043616, 0.0 ], [ 78.432074041190702, 14.189081604131999, 0.0 ], [ 78.431936363332795, 14.1926634412907, 0.0 ], [ 78.427997105039793, 14.196314830816901, 0.0 ], [ 78.419024403578504, 14.1942378736394, 0.0 ], [ 78.411995967560301, 14.197081215948, 0.0 ] ] } },
{ "type": "Feature", "properties": { "Name": "kml_11", "description": null, "timestamp": null, "begin": null, "end": null, "altitudeMode": null, "tessellate": -1, "extrude": 0, "visibility": -1, "drawOrder": null, "icon": null }, "geometry": { "type": "LineString", "coordinates": [ [ 78.392977414464596, 14.1821052563468, 0.0 ], [ 78.392818368351897, 14.173115482870299, 0.0 ], [ 78.403060285122095, 14.175649816108599, 0.0 ], [ 78.404583940576401, 14.1793202174445, 0.0 ], [ 78.405867685343594, 14.1956725548044, 0.0 ], [ 78.392977414464596, 14.1821052563468, 0.0 ] ] } },
{ "type": "Feature", "properties": { "Name": "kml_14", "description": null, "timestamp": null, "begin": null, "end": null, "altitudeMode": null, "tessellate": -1, "extrude": 0, "visibility": -1, "drawOrder": null, "icon": null }, "geometry": { "type": "LineString", "coordinates": [ [ 78.342887598897505, 14.263595261367399, 0.0 ], [ 78.346220196406605, 14.2662552525486, 0.0 ], [ 78.348662788346601, 14.267364377750701, 0.0 ], [ 78.350084224659199, 14.2666261231397, 0.0 ], [ 78.355250000242904, 14.2666399999119, 0.0 ], [ 78.358461150328395, 14.264611522831901, 0.0 ], [ 78.358723916634503, 14.2625683955875, 0.0 ], [ 78.362612572150098, 14.2566803407595, 0.0 ], [ 78.366085586387797, 14.2545439894387, 0.0 ], [ 78.3657467240389, 14.2469507263844, 0.0 ], [ 78.370521564727497, 14.246201533179701, 0.0 ], [ 78.3875507967945, 14.2401014655639, 0.0 ], [ 78.3936623079843, 14.243683303069, 0.0 ], [ 78.393649491034296, 14.2436865245704, 0.0 ], [ 78.391169614795203, 14.245754775834399, 0.0 ], [ 78.392278137125103, 14.249854333921499, 0.0 ], [ 78.389397119181993, 14.2591884926631, 0.0 ], [ 78.395953002605907, 14.263379841638599, 0.0 ], [ 78.397370000076606, 14.2613200000962, 0.0 ], [ 78.399670000021402, 14.258429999923001, 0.0 ], [ 78.404958530350797, 14.255528444813301, 0.0 ], [ 78.410836824955297, 14.255463620848699, 0.0 ], [ 78.410230835388404, 14.2535903122786, 0.0 ], [ 78.410171467893704, 14.2501136938467, 0.0 ], [ 78.409065545795102, 14.2457567165771, 0.0 ], [ 78.405260523677597, 14.243558973067699, 0.0 ], [ 78.399895094132305, 14.2421166147039, 0.0 ], [ 78.394310917341798, 14.2390375756958, 0.0 ], [ 78.3929462278236, 14.2381684183761, 0.0 ], [ 78.400400175575101, 14.234831989206899, 0.0 ], [ 78.400895777684497, 14.232636017155601, 0.0 ], [ 78.396627447860794, 14.2287790000588, 0.0 ], [ 78.401169259353594, 14.2281202137598, 0.0 ], [ 78.400414992012699, 14.2244180846982, 0.0 ], [ 78.389149165781305, 14.2193000657598, 0.0 ], [ 78.375421511873597, 14.221674834122901, 0.0 ], [ 78.366762737434101, 14.225830693084699, 0.0 ], [ 78.366524124129697, 14.224376390900201, 0.0 ], [ 78.367927028271197, 14.217648295667299, 0.0 ], [ 78.367641919421402, 14.216046643681301, 0.0 ], [ 78.365345417009806, 14.213982799583601, 0.0 ], [ 78.366403948464693, 14.210233171139199, 0.0 ], [ 78.371102119194006, 14.212002008235, 0.0 ], [ 78.3756284139276, 14.2117125536244, 0.0 ], [ 78.374118451658603, 14.2088780727235, 0.0 ], [ 78.371225666389407, 14.203486930019899, 0.0 ], [ 78.371711643806506, 14.201829339634701, 0.0 ], [ 78.371087147495999, 14.197609125847601, 0.0 ], [ 78.372055029030193, 14.194655588195699, 0.0 ], [ 78.372278238027306, 14.1853648668185, 0.0 ], [ 78.374172141656302, 14.179749278306399, 0.0 ], [ 78.373195663668398, 14.1761162984618, 0.0 ], [ 78.3727278502449, 14.173408076759699, 0.0 ], [ 78.370033861363595, 14.1714323042508, 0.0 ], [ 78.366462189955996, 14.1731311615693, 0.0 ], [ 78.362961595077294, 14.171387707473899, 0.0 ], [ 78.3567921454962, 14.1764532208879, 0.0 ], [ 78.355751713888594, 14.171783437268401, 0.0 ], [ 78.349774478750405, 14.170858032236101, 0.0 ], [ 78.349411408309905, 14.1676888161272, 0.0 ], [ 78.341540868772398, 14.171717251272799, 0.0 ], [ 78.333222083048696, 14.170617925409999, 0.0 ], [ 78.329638957874195, 14.1759787268852, 0.0 ], [ 78.336650000455506, 14.179960000127499, 0.0 ], [ 78.339660861423098, 14.1759529031836, 0.0 ], [ 78.3419405501932, 14.1742106591721, 0.0 ], [ 78.345312358765099, 14.1748381808838, 0.0 ], [ 78.345682442965398, 14.177218678963399, 0.0 ], [ 78.349837375483801, 14.179209066395501, 0.0 ], [ 78.346662063630205, 14.183016851983, 0.0 ], [ 78.345755603166296, 14.1883238908311, 0.0 ], [ 78.3522602026773, 14.198885066557599, 0.0 ], [ 78.348271470897899, 14.2077145167135, 0.0 ], [ 78.339295939867796, 14.2250275148489, 0.0 ], [ 78.332833270681604, 14.2298852975137, 0.0 ], [ 78.326518160582694, 14.231731832341, 0.0 ], [ 78.336877546288093, 14.243228577090299, 0.0 ], [ 78.344705047743204, 14.2381793370702, 0.0 ], [ 78.351658139874502, 14.2298209470915, 0.0 ], [ 78.353634459260903, 14.2302779987644, 0.0 ], [ 78.350831106138202, 14.2512331312467, 0.0 ], [ 78.343322271629205, 14.255207004713601, 0.0 ], [ 78.342239906618104, 14.2557195091082, 0.0 ], [ 78.342887598897505, 14.263595261367399, 0.0 ] ] } },
{ "type": "Feature", "properties": { "Name": "kml_15", "description": null, "timestamp": null, "begin": null, "end": null, "altitudeMode": null, "tessellate": -1, "extrude": 0, "visibility": -1, "drawOrder": null, "icon": null }, "geometry": { "type": "LineString", "coordinates": [ [ 78.408329837458595, 14.216827525265099, 0.0 ], [ 78.404245914000597, 14.2173422708515, 0.0 ], [ 78.401127301812195, 14.218882046858401, 0.0 ], [ 78.399513573911193, 14.2169802296517, 0.0 ], [ 78.397972741505001, 14.2161352123042, 0.0 ], [ 78.395614014205606, 14.2162337571637, 0.0 ], [ 78.393676109751198, 14.2148253238864, 0.0 ], [ 78.390227104650705, 14.213690269852799, 0.0 ], [ 78.388354633452096, 14.212137574307899, 0.0 ], [ 78.385377183880493, 14.211469779580399, 0.0 ], [ 78.386805458826004, 14.207343160858199, 0.0 ], [ 78.388540515905206, 14.199244031188501, 0.0 ], [ 78.389742433232996, 14.195213978782499, 0.0 ], [ 78.391668861718102, 14.193213395290201, 0.0 ], [ 78.395962862261101, 14.195215462905701, 0.0 ], [ 78.398962834616896, 14.194452704201399, 0.0 ], [ 78.398651338946493, 14.1919637482262, 0.0 ], [ 78.402684064624793, 14.1960176050379, 0.0 ], [ 78.405869489889895, 14.1998633829532, 0.0 ], [ 78.4071308898166, 14.208493746350699, 0.0 ], [ 78.408329837458595, 14.216827525265099, 0.0 ] ] } },
{ "type": "Feature", "properties": { "Name": "kml_16", "description": null, "timestamp": null, "begin": null, "end": null, "altitudeMode": null, "tessellate": -1, "extrude": 0, "visibility": -1, "drawOrder": null, "icon": null }, "geometry": { "type": "LineString", "coordinates": [ [ 78.349774478750405, 14.170858032236101, 0.0 ], [ 78.355751713888594, 14.171783437268401, 0.0 ], [ 78.355850077427803, 14.1736866242179, 0.0 ], [ 78.3567921454962, 14.1764532208879, 0.0 ] ] } },
{ "type": "Feature", "properties": { "Name": "kml_17", "description": null, "timestamp": null, "begin": null, "end": null, "altitudeMode": null, "tessellate": -1, "extrude": 0, "visibility": -1, "drawOrder": null, "icon": null }, "geometry": { "type": "LineString", "coordinates": [ [ 78.3419405501932, 14.1742106591721, 0.0 ], [ 78.345312358765099, 14.1748381808838, 0.0 ], [ 78.346682508123294, 14.1771311642601, 0.0 ], [ 78.349837375483801, 14.179209066395501, 0.0 ], [ 78.355210000197602, 14.178939999855899, 0.0 ] ] } },
{ "type": "Feature", "properties": { "Name": "kml_18", "description": null, "timestamp": null, "begin": null, "end": null, "altitudeMode": null, "tessellate": -1, "extrude": 0, "visibility": -1, "drawOrder": null, "icon": null }, "geometry": { "type": "LineString", "coordinates": [ [ 78.316168125266501, 14.2830675690455, 0.0 ], [ 78.319058832474994, 14.2867356306866, 0.0 ], [ 78.320603511865897, 14.286908202953001, 0.0 ], [ 78.3228684365764, 14.2858031554295, 0.0 ], [ 78.327702253496795, 14.282887030799801, 0.0 ], [ 78.338870954409799, 14.2809062457192, 0.0 ], [ 78.342587533190297, 14.2805717509296, 0.0 ], [ 78.342684415789805, 14.2785165093852, 0.0 ], [ 78.344411396671404, 14.2770467195487, 0.0 ], [ 78.343427066755297, 14.274128520031301, 0.0 ], [ 78.341044408292802, 14.2725774104549, 0.0 ], [ 78.336723688313995, 14.271890961834201, 0.0 ], [ 78.328701506968798, 14.2704538732727, 0.0 ], [ 78.327726584939896, 14.2729246774042, 0.0 ], [ 78.324063901811002, 14.2750462006147, 0.0 ], [ 78.320959738565904, 14.276074888046599, 0.0 ], [ 78.318343912486299, 14.275797265882799, 0.0 ], [ 78.316168125266501, 14.2830675690455, 0.0 ] ] } }
]
}
