{
"type": "FeatureCollection",
"name": "1___3_",
"crs": { "type": "name", "properties": { "name": "urn:ogc:def:crs:OGC:1.3:CRS84" } },
"features": [
{ "type": "Feature", "properties": { "Name": "1", "description": null, "timestamp": null, "begin": null, "end": null, "altitudeMode": null, "tessellate": 1, "extrude": 0, "visibility": -1, "drawOrder": null, "icon": null }, "geometry": { "type": "Polygon", "coordinates": [ [ [ 78.217631613623254, 15.04582632216435, 0.0 ], [ 78.218727431110878, 15.04416088779926, 0.0 ], [ 78.220530773989125, 15.04382320092151, 0.0 ], [ 78.221617215565431, 15.043631792266851, 0.0 ], [ 78.222003180403021, 15.0435723371072, 0.0 ], [ 78.222397096089466, 15.043577967406669, 0.0 ], [ 78.222488691599381, 15.04389064720842, 0.0 ], [ 78.223053858738041, 15.04573078630094, 0.0 ], [ 78.222596970028803, 15.04608228001905, 0.0 ], [ 78.223549555441323, 15.047252242975279, 0.0 ], [ 78.224630623420239, 15.04671322895668, 0.0 ], [ 78.225487206033478, 15.046118964081799, 0.0 ], [ 78.226841085080281, 15.047507720915331, 0.0 ], [ 78.228544726430641, 15.04945470150362, 0.0 ], [ 78.229915637501165, 15.049587304540401, 0.0 ], [ 78.231882671174745, 15.04995507944893, 0.0 ], [ 78.231583151411016, 15.051476550226139, 0.0 ], [ 78.23148680641971, 15.05178272812109, 0.0 ], [ 78.231287162104749, 15.052342849813931, 0.0 ], [ 78.231463058294551, 15.05256397389765, 0.0 ], [ 78.230912185888215, 15.05352754379923, 0.0 ], [ 78.230183163100477, 15.05360641453141, 0.0 ], [ 78.230239476065194, 15.054289809592831, 0.0 ], [ 78.229790598833517, 15.05495099125385, 0.0 ], [ 78.231478398946479, 15.055396335866529, 0.0 ], [ 78.235015833535329, 15.056676151201289, 0.0 ], [ 78.235871509441083, 15.05598935642314, 0.0 ], [ 78.237205288517998, 15.0602753376776, 0.0 ], [ 78.236865333046254, 15.06249775221541, 0.0 ], [ 78.238372020914639, 15.06523951515055, 0.0 ], [ 78.237523448889348, 15.065204051317879, 0.0 ], [ 78.237559391881192, 15.064938685461669, 0.0 ], [ 78.236903851952718, 15.06433682099073, 0.0 ], [ 78.235424361760082, 15.064342109732451, 0.0 ], [ 78.235295075271964, 15.06478920728749, 0.0 ], [ 78.233708973752243, 15.064976591885729, 0.0 ], [ 78.233902028100928, 15.065426411422781, 0.0 ], [ 78.23258557389525, 15.06550579578667, 0.0 ], [ 78.230091870165452, 15.064880506996881, 0.0 ], [ 78.231496699853821, 15.061645880681651, 0.0 ], [ 78.229890889943135, 15.06093501600324, 0.0 ], [ 78.229844218103182, 15.0603145905697, 0.0 ], [ 78.228182790151294, 15.059444147122941, 0.0 ], [ 78.22742847004919, 15.0603517212512, 0.0 ], [ 78.223984487694437, 15.06082414843743, 0.0 ], [ 78.22422012363721, 15.05988681022658, 0.0 ], [ 78.22491052297417, 15.06029603924571, 0.0 ], [ 78.225278923092546, 15.06002739297282, 0.0 ], [ 78.224985290714912, 15.059798742541391, 0.0 ], [ 78.224908897223131, 15.059443177362891, 0.0 ], [ 78.225433762347791, 15.05938305892516, 0.0 ], [ 78.225644781605652, 15.058949316246061, 0.0 ], [ 78.225685228480771, 15.05947002805428, 0.0 ], [ 78.225916133268299, 15.059386801690421, 0.0 ], [ 78.225872859070606, 15.05902936960632, 0.0 ], [ 78.226334606629408, 15.058106181415919, 0.0 ], [ 78.22610710323481, 15.057583059706991, 0.0 ], [ 78.226293061920842, 15.056774454053061, 0.0 ], [ 78.225940604560776, 15.056401543270439, 0.0 ], [ 78.225634069734809, 15.05610362553438, 0.0 ], [ 78.225071765023529, 15.054775769753199, 0.0 ], [ 78.223388043410807, 15.05557749575839, 0.0 ], [ 78.223370174096317, 15.055832083934829, 0.0 ], [ 78.223033112593086, 15.05579199570475, 0.0 ], [ 78.223015663751696, 15.05553931170591, 0.0 ], [ 78.221484562386621, 15.05582801290457, 0.0 ], [ 78.221257135492735, 15.0561123049189, 0.0 ], [ 78.221102471785983, 15.05613291529167, 0.0 ], [ 78.22101550161365, 15.056351296288421, 0.0 ], [ 78.22051429130768, 15.05638830725472, 0.0 ], [ 78.220518834240693, 15.05610502749281, 0.0 ], [ 78.218448130361509, 15.056277936984729, 0.0 ], [ 78.218265664331909, 15.05581873841675, 0.0 ], [ 78.216532470776457, 15.05503588411629, 0.0 ], [ 78.215909524220365, 15.05376428917109, 0.0 ], [ 78.215324837744632, 15.05263246418283, 0.0 ], [ 78.214593692907059, 15.052848014414581, 0.0 ], [ 78.214167757784566, 15.05150016459754, 0.0 ], [ 78.214755250503089, 15.051026364619601, 0.0 ], [ 78.216309508796016, 15.0485875146111, 0.0 ], [ 78.217631613623254, 15.04582632216435, 0.0 ] ] ] } },
{ "type": "Feature", "properties": { "Name": "1", "description": null, "timestamp": null, "begin": null, "end": null, "altitudeMode": null, "tessellate": 1, "extrude": 0, "visibility": -1, "drawOrder": null, "icon": null }, "geometry": { "type": "Polygon", "coordinates": [ [ [ 78.221177018162422, 15.041461186109681, 0.0 ], [ 78.223161856130162, 15.039366377985919, 0.0 ], [ 78.223818653828232, 15.03811714726934, 0.0 ], [ 78.224115693087128, 15.037697077863539, 0.0 ], [ 78.224585754420119, 15.037307137134251, 0.0 ], [ 78.225394344989923, 15.03728914283413, 0.0 ], [ 78.226514642422288, 15.038589024601899, 0.0 ], [ 78.226315711123149, 15.03968130353095, 0.0 ], [ 78.228501183046347, 15.04296563590434, 0.0 ], [ 78.231628827163135, 15.04574843952228, 0.0 ], [ 78.234522263045449, 15.048745987841009, 0.0 ], [ 78.236102741038209, 15.05030788476205, 0.0 ], [ 78.240285848471643, 15.05143268057954, 0.0 ], [ 78.24086232965648, 15.050463204192161, 0.0 ], [ 78.237647470331765, 15.04880460266115, 0.0 ], [ 78.236417577672029, 15.04804628509258, 0.0 ], [ 78.236907451826767, 15.04690393498252, 0.0 ], [ 78.236084571477093, 15.046542409978819, 0.0 ], [ 78.235173199263102, 15.045712745587119, 0.0 ], [ 78.235873854204286, 15.0442324428278, 0.0 ], [ 78.236780087301227, 15.042409933453881, 0.0 ], [ 78.237674672849963, 15.04359062418181, 0.0 ], [ 78.238079675323519, 15.043020361618639, 0.0 ], [ 78.238507526309121, 15.042711194607969, 0.0 ], [ 78.238728090471014, 15.043053539654119, 0.0 ], [ 78.239806321351978, 15.04286392466639, 0.0 ], [ 78.239836195869358, 15.04465043412878, 0.0 ], [ 78.242246966449386, 15.045460675723049, 0.0 ], [ 78.242502991634908, 15.045826765597759, 0.0 ], [ 78.243099920879644, 15.04646348185916, 0.0 ], [ 78.243410877362308, 15.04640571763102, 0.0 ], [ 78.243593102545645, 15.046685989416581, 0.0 ], [ 78.243450158538337, 15.047128513142161, 0.0 ], [ 78.243341087921067, 15.048108318436, 0.0 ], [ 78.242552248149465, 15.04952695953058, 0.0 ], [ 78.242232732345684, 15.05022300149229, 0.0 ], [ 78.241745546721248, 15.05132363736471, 0.0 ], [ 78.24137430573515, 15.051582611718951, 0.0 ], [ 78.241683463239582, 15.05165360534586, 0.0 ], [ 78.242364174094035, 15.05502813123513, 0.0 ], [ 78.242206863069867, 15.05900612032352, 0.0 ], [ 78.244496001511905, 15.06403300430301, 0.0 ], [ 78.244979628620825, 15.064211030515979, 0.0 ], [ 78.245135912504793, 15.06464492895492, 0.0 ], [ 78.245152761537454, 15.065122922598309, 0.0 ], [ 78.243210593090168, 15.0649616891048, 0.0 ], [ 78.24191843087344, 15.06512009368342, 0.0 ], [ 78.241619331456278, 15.06432754067076, 0.0 ], [ 78.241038812285126, 15.06423269843612, 0.0 ], [ 78.240959883449221, 15.06492770827308, 0.0 ], [ 78.240492126306904, 15.065330151066281, 0.0 ], [ 78.240460353980936, 15.06567264429445, 0.0 ], [ 78.24027832084532, 15.065953336299961, 0.0 ], [ 78.239882052588342, 15.065860761501339, 0.0 ], [ 78.239775887903349, 15.06530404026873, 0.0 ], [ 78.238370791518193, 15.0652519877729, 0.0 ], [ 78.236909735305716, 15.062548666731461, 0.0 ], [ 78.237252059908386, 15.06035506326486, 0.0 ], [ 78.236298834837328, 15.057391219985419, 0.0 ], [ 78.235818867735802, 15.05604320691876, 0.0 ], [ 78.235047998807659, 15.05674639790284, 0.0 ], [ 78.232616433474803, 15.055840661885791, 0.0 ], [ 78.2314208101768, 15.05538092594885, 0.0 ], [ 78.229805974846229, 15.054969391196369, 0.0 ], [ 78.230249302865786, 15.054326927425651, 0.0 ], [ 78.230254398569599, 15.053631807255799, 0.0 ], [ 78.230911087318034, 15.053578236474809, 0.0 ], [ 78.231473132346252, 15.05260853818548, 0.0 ], [ 78.231325122313748, 15.05235780937659, 0.0 ], [ 78.231629248253554, 15.051428257154109, 0.0 ], [ 78.231839157392031, 15.04993900191449, 0.0 ], [ 78.228545064890682, 15.049440359680849, 0.0 ], [ 78.226753278705132, 15.047402942191921, 0.0 ], [ 78.22547066633696, 15.04610321597009, 0.0 ], [ 78.224607965796622, 15.04670913631533, 0.0 ], [ 78.223623518054268, 15.04718690325967, 0.0 ], [ 78.222617918935455, 15.046077638374131, 0.0 ], [ 78.223041690266299, 15.04576762819128, 0.0 ], [ 78.222413621313137, 15.043618556834041, 0.0 ], [ 78.221989646221061, 15.043498620416409, 0.0 ], [ 78.218743042631061, 15.04419099683947, 0.0 ], [ 78.221177018162422, 15.041461186109681, 0.0 ] ] ] } }
]
}
