{
"type": "FeatureCollection",
"name": "1___36_",
"crs": { "type": "name", "properties": { "name": "urn:ogc:def:crs:OGC:1.3:CRS84" } },
"features": [
{ "type": "Feature", "properties": { "Name": "1", "description": null, "timestamp": null, "begin": null, "end": null, "altitudeMode": null, "tessellate": -1, "extrude": 0, "visibility": -1, "drawOrder": null, "icon": null }, "geometry": { "type": "Point", "coordinates": [ 77.259453361124116, 14.806806833822071, 0.0 ] } },
{ "type": "Feature", "properties": { "Name": "1", "description": null, "timestamp": null, "begin": null, "end": null, "altitudeMode": null, "tessellate": 1, "extrude": 0, "visibility": -1, "drawOrder": null, "icon": null }, "geometry": { "type": "Polygon", "coordinates": [ [ [ 77.264104190332233, 14.884975968075331, 0.0 ], [ 77.263173354376363, 14.856709456422591, 0.0 ], [ 77.249767028930592, 14.857217743980989, 0.0 ], [ 77.248851006877757, 14.82388484726633, 0.0 ], [ 77.248202910018861, 14.785555256867969, 0.0 ], [ 77.247689094797352, 14.760318783672, 0.0 ], [ 77.295642036979601, 14.7598649292249, 0.0 ], [ 77.299852903698138, 14.839000665267911, 0.0 ], [ 77.31400371026929, 14.84374607057249, 0.0 ], [ 77.314223668422684, 14.88511856550994, 0.0 ], [ 77.277950872447008, 14.88494538004389, 0.0 ], [ 77.278115000955324, 14.87927902719913, 0.0 ], [ 77.271886922103121, 14.879495797225699, 0.0 ], [ 77.271712403881835, 14.884720720831121, 0.0 ], [ 77.264104190332233, 14.884975968075331, 0.0 ] ] ] } }
]
}
