{
"type": "FeatureCollection",
"name": "1___25_",
"crs": { "type": "name", "properties": { "name": "urn:ogc:def:crs:OGC:1.3:CRS84" } },
"features": [
{ "type": "Feature", "properties": { "Name": "1", "description": null, "timestamp": null, "begin": null, "end": null, "altitudeMode": null, "tessellate": 1, "extrude": 0, "visibility": -1, "drawOrder": null, "icon": null }, "geometry": { "type": "LineString", "coordinates": [ [ 77.511475600361749, 15.85532603133472, 732.492261747355542 ], [ 77.511258337611579, 15.859232787059179, 733.927508491924527 ], [ 77.511395908069261, 15.863142890275499, 733.43657768877074 ], [ 77.511887285049568, 15.86702657564704, 724.124973540164888 ], [ 77.512728748060965, 15.870854277230441, 722.902387106944275 ], [ 77.51391391051817, 15.874596853609759, 718.998250027645781 ], [ 77.515433767785339, 15.878225809849001, 717.401772016664495 ], [ 77.51727676519927, 15.88171351456946, 715.260382927991486 ], [ 77.519428885573163, 15.885033410494691, 713.99648007388646 ], [ 77.521873755526869, 15.888160216853951, 711.762262294580864 ], [ 77.524592769846947, 15.891070122096149, 710.177920248493933 ], [ 77.527565232937619, 15.89374096543882, 707.068220158936469 ], [ 77.530768516291687, 15.896152405861599, 704.184794563590913 ], [ 77.534178230785017, 15.898286077248491, 696.909185453986311 ], [ 77.537768412481554, 15.90012572848862, 695.669800234411127 ], [ 77.541511720530536, 15.90165734746037, 693.821831167716482 ], [ 77.545379645640963, 15.90286926794626, 694.940786088928689 ], [ 77.549342727536512, 15.903752258657221, 694.127026620426022 ], [ 77.553370779722144, 15.9042995936819, 689.916107836102924 ], [ 77.55743311983548, 15.90450710381918, 684.340124169001115 ], [ 77.561498803812825, 15.904373208399161, 687.923983808303888 ], [ 77.565536862068257, 15.90389892734764, 687.594325199220748 ], [ 77.56951653586934, 15.903087873401519, 684.160445042746574 ], [ 77.573407512090455, 15.90194622453474, 685.01814240679073 ], [ 77.577180154538397, 15.90048267680716, 675.004946530394818 ], [ 77.580805730071631, 15.898708377998849, 671.725270041741283 ], [ 77.584256627775929, 15.896636842540349, 667.008411020490144 ], [ 77.587506569514275, 15.894283848392719, 667.090941448933449 ], [ 77.590530810237496, 15.89166731667008, 670.698848195609344 ], [ 77.593306326521343, 15.888807174929051, 670.855953062112121 ], [ 77.595811991890798, 15.885725205174859, 669.948975704299073 ], [ 77.598028737594632, 15.88244487775018, 673.980303728097965 ], [ 77.59993969760778, 15.87899117238039, 692.006669149189747 ], [ 77.60153033676265, 15.87539038774649, 697.212664805829263 ], [ 77.602788561042004, 15.871669941043489, 694.649255633449229 ], [ 77.603704809204402, 15.8678581590578, 685.80863108341623 ], [ 77.604272125058571, 15.863984062360471, 683.726932774499573 ], [ 77.604486209851601, 15.860077144264309, 684.188322849502924 ], [ 77.604345454389744, 15.85616714623163, 685.461547116246379 ], [ 77.603850950665475, 15.852283831444471, 688.100807917751808 ], [ 77.603006482921515, 15.848456758262101, 690.869454969027856 ], [ 77.601818498238288, 15.84471505528917, 691.842484054120632 ], [ 77.600296056887586, 15.841087199764891, 696.40189240492407 ], [ 77.59845076284725, 15.837600800956039, 684.773317002107206 ], [ 77.596296675021463, 15.834282390197689, 682.556741000805687 ], [ 77.593850199856348, 15.831157219173489, 682.602714777914912 ], [ 77.591129966178542, 15.82824906796362, 689.135126626625265 ], [ 77.588156683217989, 15.825580064313391, 692.440131566107084 ], [ 77.584952982901072, 15.823170515489529, 688.216543066350596 ], [ 77.581543247615912, 15.821038753995129, 695.330415418476377 ], [ 77.577953424759755, 15.81920099830854, 715.962453712897172 ], [ 77.574210829475163, 15.817671229697689, 717.625079669889374 ], [ 77.570343937069353, 15.816461086039141, 719.111186138798757 ], [ 77.566382166685941, 15.81557977344281, 720.409416551945696 ], [ 77.562355657862724, 15.81503399634849, 721.509982182962858 ], [ 77.558295041661367, 15.814827906621129, 722.404324489011401 ], [ 77.554231208093768, 15.814963072028251, 723.085768487515566 ], [ 77.550195071598623, 15.815438464337181, 723.549158477485321 ], [ 77.546217336333115, 15.816250467121581, 723.790934894121506 ], [ 77.542328263049157, 15.81739290321854, 723.80921615563534 ], [ 77.538557439309812, 15.81885708162951, 723.603899013125101 ], [ 77.534933554777723, 15.82063186351141, 725.192652944374004 ], [ 77.531484183271218, 15.82270374676091, 723.365529283405067 ], [ 77.528235573232763, 15.82505696855408, 717.098561489532813 ], [ 77.525212448194182, 15.827673625068201, 721.883790405618129 ], [ 77.522437818748699, 15.830533807482469, 731.05093246644185 ], [ 77.519932807456343, 15.833615753231021, 728.24122322048413 ], [ 77.517716488013249, 15.83689601136593, 739.44478045938456 ], [ 77.515805739909595, 15.84034962078043, 739.716916165836778 ], [ 77.514215119688345, 15.84395029994444, 742.144807423049656 ], [ 77.512956749790732, 15.84767064671661, 739.927010802027667 ], [ 77.512040225846334, 15.851482346719241, 735.925656407111887 ], [ 77.511475600361749, 15.85532603133472, 732.492261747355542 ] ] } },
{ "type": "Feature", "properties": { "Name": "1", "description": null, "timestamp": null, "begin": null, "end": null, "altitudeMode": null, "tessellate": 1, "extrude": 0, "visibility": -1, "drawOrder": null, "icon": null }, "geometry": { "type": "LineString", "coordinates": [ [ 77.615670336117674, 15.80836428279572, 693.746271756605552 ], [ 77.613689986833876, 15.81179554425726, 689.897243547710218 ], [ 77.61202796002118, 15.815379819563899, 686.225383057049839 ], [ 77.610696921246955, 15.81908983163483, 689.759486095547572 ], [ 77.60970701897304, 15.822897344985741, 693.416493410859971 ], [ 77.609065806811344, 15.8267733804778, 694.706784256237029 ], [ 77.608778185471508, 15.830688435771551, 691.697890807773433 ], [ 77.608846364859915, 15.834612709811671, 681.039827257071693 ], [ 77.609269846635797, 15.83851632963697, 679.745147023361483 ], [ 77.610045427376932, 15.842369577790119, 675.088456232976341 ], [ 77.611167222349266, 15.84614311859621, 674.096280086320803 ], [ 77.612626709718583, 15.849808221585469, 671.911170094180875 ], [ 77.614412794885524, 15.85333698035636, 669.870383703679067 ], [ 77.616511894470378, 15.85670252520797, 669.514971018213487 ], [ 77.618908039322946, 15.85987922791718, 661.63696139382364 ], [ 77.621582995785261, 15.862842897094399, 663.475711356404076 ], [ 77.624516404293303, 15.86557096262284, 665.300772639540355 ], [ 77.627685934268627, 15.86804264776848, 670.14788994910873 ], [ 77.631067454123936, 15.87023912764133, 672.329718051188138 ], [ 77.634635215088011, 15.872143672792671, 670.421631519842208 ], [ 77.638362047446336, 15.87374177684597, 667.274725489457751 ], [ 77.642219567697154, 15.87502126718131, 658.125401339033488 ], [ 77.646178395035363, 15.875972397822871, 659.781438083229204 ], [ 77.650208375503937, 15.87658792381548, 653.372064979630409 ], [ 77.654278812090922, 15.87686315651829, 649.2517413622611 ], [ 77.658358699004054, 15.87679599939028, 646.605121047196121 ], [ 77.662416958320463, 15.87638696399225, 651.149109098629992 ], [ 77.666422677191619, 15.875639166082321, 648.328123303457801 ], [ 77.67034534377828, 15.87455830183475, 649.075541133706565 ], [ 77.674155080100292, 15.873152604365281, 646.696413870762399 ], [ 77.677822870011298, 15.87143278089723, 644.454060675940468 ], [ 77.68132078054613, 15.869411931051831, 648.532535050933916 ], [ 77.684622174941993, 15.867105446890699, 652.413757708799494 ], [ 77.687701915699733, 15.864530895479049, 661.500746258243112 ], [ 77.690536556130894, 15.861707884871549, 668.47675945016374 ], [ 77.693104518926106, 15.85865791454991, 669.37164870319134 ], [ 77.695386260383316, 15.85540421145997, 669.122196787793314 ], [ 77.697364419046522, 15.851971552905461, 670.766378633706381 ], [ 77.699023947627424, 15.848386077655871, 670.885119388365752 ], [ 77.700352227213472, 15.844675086714719, 670.039710251038628 ], [ 77.701339162903125, 15.840866835272699, 673.321640873780098 ], [ 77.701977260153228, 15.836990317436079, 674.088587558797826 ], [ 77.702261681272716, 15.833075045374899, 675.307666513361482 ], [ 77.70219028164945, 15.829150824576089, 680.102465239081312 ], [ 77.701763625452969, 15.825247526915289, 688.262582624555307 ], [ 77.700984980712192, 15.821394863276, 700.703548994734092 ], [ 77.699860293824713, 15.81762215744638, 701.995503629654877 ], [ 77.69839814371079, 15.813958123012959, 702.238546816729581 ], [ 77.696609675977669, 15.810430644946051, 705.120930679319372 ], [ 77.69450851761259, 15.80706656753461, 713.80054960252096 ], [ 77.692110672866647, 15.803891490278501, 702.458881896064781 ], [ 77.689434401134449, 15.80092957328484, 695.111711832954143 ], [ 77.686500077767803, 15.79820335364154, 688.923835756794915 ], [ 77.683330038888087, 15.795733574157209, 689.894690536489975 ], [ 77.679948411381702, 15.793539025762099, 688.755206157932435 ], [ 77.67638092937176, 15.791636404760601, 692.379049826619621 ], [ 77.672654738558762, 15.790040186013069, 695.911671758037187 ], [ 77.668798189912778, 15.788762513004039, 698.872374610156726 ], [ 77.664840624277261, 15.78781310562575, 701.921360915440232 ], [ 77.660812149511912, 15.787199186372479, 700.84354497978461 ], [ 77.656743411855103, 15.78692542550176, 700.430970107128815 ], [ 77.652665363230994, 15.78699390557586, 710.476261110801715 ], [ 77.64860902625378, 15.78740410565044, 713.057320542993011 ], [ 77.644605258699144, 15.78815290522968, 706.712764114143965 ], [ 77.640684519218027, 15.789234607958029, 710.832048319959995 ], [ 77.6368766360564, 15.79064098487, 701.332202988591348 ], [ 77.633210580524874, 15.792361336872419, 706.677136887034635 ], [ 77.629714246926511, 15.7943825759879, 707.987152895202257 ], [ 77.626414240603836, 15.796689324747589, 708.545853231644401 ], [ 77.623335675706429, 15.79926403298332, 701.838526434956634 ], [ 77.620501984210648, 15.80208711113842, 699.619313825153881 ], [ 77.617934737637867, 15.8051370790908, 694.206234477574753 ], [ 77.615670336117674, 15.80836428279572, 693.746271756605552 ] ] } },
{ "type": "Feature", "properties": { "Name": "1", "description": null, "timestamp": null, "begin": null, "end": null, "altitudeMode": null, "tessellate": 1, "extrude": 0, "visibility": -1, "drawOrder": null, "icon": null }, "geometry": { "type": "LineString", "coordinates": [ [ 77.619113573710521, 15.711898776616851, 790.519954923227374 ], [ 77.617335006313738, 15.715429938720661, 788.0128116876067 ], [ 77.6158829002609, 15.719096886288019, 781.907905697461274 ], [ 77.614768324801247, 15.722871711718151, 780.073131993065658 ], [ 77.6139997819201, 15.72672568482826, 771.557824518226653 ], [ 77.613583141090643, 15.730629471399689, 763.799171602744877 ], [ 77.613521594015566, 15.734553356368711, 758.858303133429331 ], [ 77.61381562972123, 15.738467469966389, 752.976049094322207 ], [ 77.614463030211667, 15.74234201508798, 747.687074112177925 ], [ 77.61545888673507, 15.746147494161489, 745.186151390618988 ], [ 77.616795636557427, 15.749854933787161, 738.187845186835716 ], [ 77.618463119981428, 15.753436105434931, 732.058320827068655 ], [ 77.620448657193748, 15.75686374051584, 729.944641709037796 ], [ 77.622737144370333, 15.76011173818438, 732.07451774075912 ], [ 77.625311168321488, 15.76315536428319, 726.054337453170206 ], [ 77.62815113881355, 15.76597143990792, 724.268566518166153 ], [ 77.631235437567824, 15.768538518148411, 723.624911020011723 ], [ 77.634540582805897, 15.770837047651611, 734.847438453055815 ], [ 77.638041408090331, 15.772849521752089, 733.459126859991215 ], [ 77.641711254095583, 15.77456061202574, 731.799279750656297 ], [ 77.645522171844561, 15.775957285241279, 728.388776590634734 ], [ 77.649445135853981, 15.7770289028111, 719.872425615583779 ], [ 77.653450265554667, 15.777767301977081, 716.524970888070243 ], [ 77.657507053286366, 15.7781668581075, 714.574873988336321 ], [ 77.66158459711616, 15.77822452762539, 712.954566932727175 ], [ 77.665651836689165, 15.77793987123877, 711.676345744311107 ], [ 77.66967779029882, 15.777315057293491, 710.749780765225523 ], [ 77.673631791351269, 15.77635484522326, 709.479729864180626 ], [ 77.677483722406208, 15.77506654922397, 704.262750127013874 ], [ 77.681204244993594, 15.773459982431881, 702.904149687084328 ], [ 77.68476502344015, 15.77154738203493, 704.787882764722667 ], [ 77.688138940986889, 15.769343315893019, 705.387347485136047 ], [ 77.691300306539731, 15.766864571385019, 705.677907042067204 ], [ 77.694225050469143, 15.764130027336581, 702.825661895570647 ], [ 77.696890907962029, 15.76116051001206, 705.493098286218128 ], [ 77.699277588525618, 15.757978634276069, 708.391449671321539 ], [ 77.701366930353061, 15.754608631142871, 711.189027403598857 ], [ 77.703143038378755, 15.75107616303537, 713.892977832607244 ], [ 77.704592404977916, 15.747408128168921, 717.871910201268975 ], [ 77.705704012401739, 15.74363245555692, 717.027306577871627 ], [ 77.706469416179843, 15.73977789220582, 721.190018459367479 ], [ 77.706882808869224, 15.73587378412561, 728.956088596987911 ], [ 77.706941063681469, 15.731949852827499, 735.313346680110953 ], [ 77.706643757673206, 15.72803596901343, 742.637770554447798 ], [ 77.705993174342211, 15.72416192518182, 749.198073082037695 ], [ 77.704994285628359, 15.72035720888103, 757.158132764909055 ], [ 77.703654713474691, 15.71665077833477, 764.466433188287738 ], [ 77.701984671260178, 15.71307084214493, 771.534541589250239 ], [ 77.699996885565, 15.70964464474406, 775.163524676520183 ], [ 77.697706498880095, 15.70639825922529, 768.203388491543933 ], [ 77.695130954012683, 15.70335638911962, 769.888175058382785 ], [ 77.69228986107845, 15.70054218062208, 769.798830920460432 ], [ 77.689204848098882, 15.697977046687321, 760.953688542692589 ], [ 77.685899396345434, 15.69568050432526, 756.326942236573814 ], [ 77.682398661683223, 15.69367002632583, 759.763907142343214 ], [ 77.678729283272929, 15.691960908533019, 761.779078558667152 ], [ 77.67491918107946, 15.69056615366968, 760.177279047121488 ], [ 77.670997343721055, 15.68949637258986, 765.568523781392855 ], [ 77.666993608261464, 15.68875970370307, 769.865084151913152 ], [ 77.662938433607565, 15.68836175117797, 779.413489993486564 ], [ 77.658862669221534, 15.68830554239123, 776.739293143643977 ], [ 77.65479732089068, 15.688591504942121, 775.66103209084747 ], [ 77.650773315319768, 15.689217463406001, 767.295196161939657 ], [ 77.646821265318934, 15.690178655851181, 775.26439596855721 ], [ 77.642971237356292, 15.69146776999473, 781.138304437636407 ], [ 77.639252523227142, 15.693074998724761, 776.077664802255981 ], [ 77.635693417560816, 15.69498811457091, 777.094443075780191 ], [ 77.632321002844691, 15.69719256256162, 774.990166790921648 ], [ 77.629160943589071, 15.699671570767981, 771.224750074791586 ], [ 77.626237291189952, 15.702406277700559, 781.382698900234686 ], [ 77.623572300968107, 15.705375875597539, 789.066600568303329 ], [ 77.621186262773307, 15.708557768522279, 791.466505311704054 ], [ 77.619113573710521, 15.711898776616851, 790.519954923227374 ] ] } },
{ "type": "Feature", "properties": { "Name": "1", "description": null, "timestamp": null, "begin": null, "end": null, "altitudeMode": null, "tessellate": 1, "extrude": 0, "visibility": -1, "drawOrder": null, "icon": null }, "geometry": { "type": "LineString", "coordinates": [ [ 77.51874501724788, 15.742404059624359, 788.42818260237982 ], [ 77.517504585851938, 15.7461431101336, 786.439091977006342 ], [ 77.516607460961168, 15.74997199151983, 782.686032453792109 ], [ 77.516060490382031, 15.75386156111643, 779.320683094399669 ], [ 77.51586785767131, 15.75778221266075, 775.427503362852804 ], [ 77.516031049687626, 15.761704101587309, 773.103880828107549 ], [ 77.516548844651609, 15.765597372186321, 771.81739280360739 ], [ 77.517417320822901, 15.769432384899631, 764.703580410451536 ], [ 77.518629885748183, 15.773179942022891, 756.710662910365045 ], [ 77.520177325875238, 15.776811510093831, 750.536170900782167 ], [ 77.52204787617309, 15.7802994372699, 750.394394931519287 ], [ 77.524227309243869, 15.7836171640354, 743.298488442024677 ], [ 77.526699043262226, 15.78673942562776, 741.020933396391001 ], [ 77.52944426793124, 15.789642444634589, 741.496970253740074 ], [ 77.532442087504734, 15.79230411228704, 743.184548381741479 ], [ 77.535669679792633, 15.794704157060689, 737.074050899346048 ], [ 77.539102469940389, 15.79682429929117, 742.127969711587298 ], [ 77.542714317658877, 15.7986483906184, 736.231667972823629 ], [ 77.546477716474158, 15.80016253718915, 733.210729236485008 ], [ 77.550364003473121, 15.801355205671349, 728.917289338269597 ], [ 77.554343577936834, 15.80221731126573, 728.421930871724726 ], [ 77.558386127184349, 15.8027422870382, 722.809683421353157 ], [ 77.562460857891921, 15.80292613403962, 724.415234351673121 ], [ 77.566536731109537, 15.802767451827689, 718.168749050095357 ], [ 77.570582699166778, 15.802267449156011, 713.143772765627205 ], [ 77.574567942646368, 15.80142993474805, 704.293556019596963 ], [ 77.578462105600963, 15.800261288227169, 707.58076861731297 ], [ 77.582235527205455, 15.798770411426091, 710.567164615310617 ], [ 77.585859468062807, 15.796968660450609, 719.153009894682327 ], [ 77.589306329425369, 15.794869759019781, 722.005530750189109 ], [ 77.592549863649765, 15.79248969374882, 721.205734575394104 ], [ 77.595565374270905, 15.78984659217959, 717.388994170581327 ], [ 77.59832990416561, 15.786960584495271, 716.040411142912603 ], [ 77.600822410367229, 15.783853649980911, 714.792026214641851 ], [ 77.603023924199661, 15.78054944940798, 723.47392149967618 ], [ 77.604917695512924, 15.777073144627799, 717.271754185952545 ], [ 77.606489319928158, 15.773451206756279, 721.66796619890772 ], [ 77.607726848130156, 15.769711214418249, 732.962385636524914 ], [ 77.608620876388258, 15.765881643595, 726.08106369421148 ], [ 77.609164617628409, 15.76199165068096, 736.912437196758788 ], [ 77.609353952532345, 15.75807085040641, 741.011538945889583 ], [ 77.609187460291267, 15.75414909032054, 742.218796576757882 ], [ 77.608666428799012, 15.750256223553841, 747.731288420596229 ], [ 77.60779484422558, 15.746421881590409, 751.523286874058272 ], [ 77.606579360069418, 15.742675248779211, 752.948324727692466 ], [ 77.605029245942717, 15.73904484029813, 758.660447099222665 ], [ 77.603156316495969, 15.735558285257451, 764.174142585004802 ], [ 77.600974841038934, 15.732242116588271, 757.132862712364272 ], [ 77.59850143455904, 15.72912156930915, 767.638030163048938 ], [ 77.595754930977563, 15.726220388698991, 774.822756804839287 ], [ 77.592756239616378, 15.72356064982819, 778.56749215727541 ], [ 77.589528185972668, 15.721162589813201, 782.302074353129797 ], [ 77.586095338015397, 15.719044454062271, 799.735368394782199 ], [ 77.582483819323869, 15.717222357673871, 805.343072114554616 ], [ 77.578721110486285, 15.715710163034061, 790.916120650070525 ], [ 77.574835840261912, 15.714519374536509, 783.406137498203066 ], [ 77.570857568085884, 15.713659051219009, 792.757368066546974 ], [ 77.566816559559328, 15.713135737975261, 790.725890778804228 ], [ 77.562743556617832, 15.712953415860341, 788.093858362034211 ], [ 77.558669544111652, 15.71311347186422, 792.132454883894184 ], [ 77.554625514555909, 15.713614688381259, 797.102961577531687 ], [ 77.550642232823051, 15.7144532524547, 800.405201643307009 ], [ 77.546750002550027, 15.71562278472679, 796.067918273916575 ], [ 77.542978436020618, 15.717114387876279, 796.390931295713926 ], [ 77.539356229256938, 15.71891671417843, 803.411024167722076 ], [ 77.535910944017246, 15.72101605167825, 808.221770033559665 ], [ 77.53266879834618, 15.72339642832733, 817.796673981194544 ], [ 77.529654467260286, 15.726039733298959, 814.03882341805047 ], [ 77.526890895078765, 15.72892585456616, 818.428879131687722 ], [ 77.524399120822338, 15.732032831704, 810.202889546035067 ], [ 77.522198118007665, 15.735337022762121, 818.072752201296453 ], [ 77.520304650058392, 15.73881328394604, 838.190394075458698 ], [ 77.51874501724788, 15.742404059624359, 788.42818260237982 ] ] } }
]
}
