{
"type": "FeatureCollection",
"name": "1___108_",
"crs": { "type": "name", "properties": { "name": "urn:ogc:def:crs:OGC:1.3:CRS84" } },
"features": [
{ "type": "Feature", "properties": { "Name": "1", "description": "<html xmlns:fo=\"http://www.w3.org/1999/XSL/Format\" xmlns:msxsl=\"urn:schemas-microsoft-com:xslt\">\n\n<head>\n\n<META http-equiv=\"Content-Type\" content=\"text/html\">\n\n<meta http-equiv=\"content-type\" content=\"text/html; charset=UTF-8\">\n\n</head>\n\n<body style=\"margin:0px 0px 0px 0px;overflow:auto;background:#FFFFFF;\">\n\n<table style=\"font-family:Arial,Verdana,Times;font-size:12px;text-align:left;width:100%;border-collapse:collapse;padding:3px 3px 3px 3px\">\n\n<tr style=\"text-align:center;font-weight:bold;background:#9CBCE2\">\n\n<td>Bestavemula</td>\n\n</tr>\n\n<tr>\n\n<td>\n\n<table style=\"font-family:Arial,Verdana,Times;font-size:12px;text-align:left;width:100%;border-spacing:0px; padding:3px 3px 3px 3px\">\n\n<tr>\n\n<td>FID</td>\n\n<td>8071</td>\n\n</tr>\n\n<tr bgcolor=\"#D4E4F3\">\n\n<td>FID_</td>\n\n<td>0</td>\n\n</tr>\n\n<tr>\n\n<td>Remarks</td>\n\n<td>Kondasunkesula Reserved Forest</td>\n\n</tr>\n\n<tr bgcolor=\"#D4E4F3\">\n\n<td>V_Name</td>\n\n<td>Bestavemula</td>\n\n</tr>\n\n<tr>\n\n<td>M_Name</td>\n\n<td>Mylavaram</td>\n\n</tr>\n\n<tr bgcolor=\"#D4E4F3\">\n\n<td>D_Name</td>\n\n<td>Kadapa</td>\n\n</tr>\n\n<tr>\n\n<td>DMV_Code</td>\n\n<td>1102003</td>\n\n</tr>\n\n<tr bgcolor=\"#D4E4F3\">\n\n<td>Parcel_num</td>\n\n<td>557</td>\n\n</tr>\n\n<tr>\n\n<td>Descriptio</td>\n\n<td>Parcel Boundary</td>\n\n</tr>\n\n<tr bgcolor=\"#D4E4F3\">\n\n<td>Parcel_Typ</td>\n\n<td></td>\n\n</tr>\n\n<tr>\n\n<td>Shape_Leng</td>\n\n<td>0.056021</td>\n\n</tr>\n\n<tr bgcolor=\"#D4E4F3\">\n\n<td>Shape_Le_1</td>\n\n<td>0.056021</td>\n\n</tr>\n\n</table>\n\n</td>\n\n</tr>\n\n</table>\n\n</body>\n\n</html>", "timestamp": null, "begin": null, "end": null, "altitudeMode": null, "tessellate": -1, "extrude": 0, "visibility": -1, "drawOrder": null, "icon": null, "snippet": "" }, "geometry": { "type": "MultiPolygon", "coordinates": [ [ [ [ 78.307524844, 15.026982866000139, 0.0 ], [ 78.306816843000149, 15.02729832400013, 0.0 ], [ 78.306175544000098, 15.027602270000051, 0.0 ], [ 78.305036059000088, 15.02811411400012, 0.0 ], [ 78.304045399000188, 15.028438956000169, 0.0 ], [ 78.303501577000134, 15.028637746000131, 0.0 ], [ 78.302250322000077, 15.029037005000189, 0.0 ], [ 78.299444860999984, 15.02891660000012, 0.0 ], [ 78.300683037000113, 15.02544102000013, 0.0 ], [ 78.299728337000033, 15.024383403999989, 0.0 ], [ 78.300860957000111, 15.02318439400011, 0.0 ], [ 78.301459466000153, 15.022544906000119, 0.0 ], [ 78.302717430000143, 15.021169668000031, 0.0 ], [ 78.303993674000083, 15.01976396900017, 0.0 ], [ 78.305958567000175, 15.017620108000131, 0.0 ], [ 78.306926994000094, 15.01657719800016, 0.0 ], [ 78.308054316000153, 15.01536711600005, 0.0 ], [ 78.30876154900011, 15.01464236100003, 0.0 ], [ 78.310229769999978, 15.013076804000089, 0.0 ], [ 78.311234804000037, 15.012012294000099, 0.0 ], [ 78.312396212000181, 15.01210983800002, 0.0 ], [ 78.313145134000195, 15.01225302500006, 0.0 ], [ 78.313171016000183, 15.012338447000049, 0.0 ], [ 78.313371366000069, 15.01299969100001, 0.0 ], [ 78.312992725000072, 15.01315700599997, 0.0 ], [ 78.313374809000095, 15.01524790100007, 0.0 ], [ 78.313564425000152, 15.01631116600004, 0.0 ], [ 78.313551640000071, 15.01690071400014, 0.0 ], [ 78.312707696000018, 15.01887123800009, 0.0 ], [ 78.31211963800007, 15.02020444600009, 0.0 ], [ 78.311999465000156, 15.020475813000081, 0.0 ], [ 78.312235461000114, 15.0214135380001, 0.0 ], [ 78.312294018999978, 15.02164995000015, 0.0 ], [ 78.312478640000108, 15.02193942200012, 0.0 ], [ 78.312322933000075, 15.023116593000051, 0.0 ], [ 78.311483889000101, 15.02411235800014, 0.0 ], [ 78.312994244000095, 15.024087233000101, 0.0 ], [ 78.312757726000086, 15.024372173000071, 0.0 ], [ 78.312480561000143, 15.02470608200008, 0.0 ], [ 78.312453072000096, 15.024738857, 0.0 ], [ 78.311068223000177, 15.025366567000111, 0.0 ], [ 78.309050289000197, 15.02629116500003, 0.0 ], [ 78.307524844, 15.026982866000139, 0.0 ] ], [ [ 78.308460795000087, 15.025419419, 0.0 ], [ 78.308447176000129, 15.025629044000031, 0.0 ], [ 78.30826919600014, 15.02586039199997, 0.0 ], [ 78.308096826999986, 15.02608158900011, 0.0 ], [ 78.308054188000142, 15.02613462800014, 0.0 ], [ 78.307766674000106, 15.026260993, 0.0 ], [ 78.307822008000073, 15.026358074000139, 0.0 ], [ 78.30823935300009, 15.02615214400015, 0.0 ], [ 78.308572009000045, 15.02585428600003, 0.0 ], [ 78.308504883000182, 15.025678072000179, 0.0 ], [ 78.308683132000112, 15.025511508000079, 0.0 ], [ 78.308608555000092, 15.02539741800007, 0.0 ], [ 78.308460795000087, 15.025419419, 0.0 ] ] ] ] } },
{ "type": "Feature", "properties": { "Name": "1", "description": "<html xmlns:fo=\"http://www.w3.org/1999/XSL/Format\" xmlns:msxsl=\"urn:schemas-microsoft-com:xslt\">\n\n<head>\n\n<META http-equiv=\"Content-Type\" content=\"text/html\">\n\n<meta http-equiv=\"content-type\" content=\"text/html; charset=UTF-8\">\n\n</head>\n\n<body style=\"margin:0px 0px 0px 0px;overflow:auto;background:#FFFFFF;\">\n\n<table style=\"font-family:Arial,Verdana,Times;font-size:12px;text-align:left;width:100%;border-collapse:collapse;padding:3px 3px 3px 3px\">\n\n<tr style=\"text-align:center;font-weight:bold;background:#9CBCE2\">\n\n<td>Bestavemula</td>\n\n</tr>\n\n<tr>\n\n<td>\n\n<table style=\"font-family:Arial,Verdana,Times;font-size:12px;text-align:left;width:100%;border-spacing:0px; padding:3px 3px 3px 3px\">\n\n<tr>\n\n<td>FID</td>\n\n<td>8067</td>\n\n</tr>\n\n<tr bgcolor=\"#D4E4F3\">\n\n<td>FID_</td>\n\n<td>0</td>\n\n</tr>\n\n<tr>\n\n<td>Remarks</td>\n\n<td></td>\n\n</tr>\n\n<tr bgcolor=\"#D4E4F3\">\n\n<td>V_Name</td>\n\n<td>Bestavemula</td>\n\n</tr>\n\n<tr>\n\n<td>M_Name</td>\n\n<td>Mylavaram</td>\n\n</tr>\n\n<tr bgcolor=\"#D4E4F3\">\n\n<td>D_Name</td>\n\n<td>Kadapa</td>\n\n</tr>\n\n<tr>\n\n<td>DMV_Code</td>\n\n<td>1102003</td>\n\n</tr>\n\n<tr bgcolor=\"#D4E4F3\">\n\n<td>Parcel_num</td>\n\n<td>556</td>\n\n</tr>\n\n<tr>\n\n<td>Descriptio</td>\n\n<td>Parcel Boundary</td>\n\n</tr>\n\n<tr bgcolor=\"#D4E4F3\">\n\n<td>Parcel_Typ</td>\n\n<td></td>\n\n</tr>\n\n<tr>\n\n<td>Shape_Leng</td>\n\n<td>0.086043</td>\n\n</tr>\n\n<tr bgcolor=\"#D4E4F3\">\n\n<td>Shape_Le_1</td>\n\n<td>0.086043</td>\n\n</tr>\n\n</table>\n\n</td>\n\n</tr>\n\n</table>\n\n</body>\n\n</html>", "timestamp": null, "begin": null, "end": null, "altitudeMode": null, "tessellate": -1, "extrude": 0, "visibility": -1, "drawOrder": null, "icon": null, "snippet": "" }, "geometry": { "type": "MultiPolygon", "coordinates": [ [ [ [ 78.30876154900011, 15.01464236100003, 0.0 ], [ 78.308054316000153, 15.01536711600005, 0.0 ], [ 78.306926994000094, 15.01657719800016, 0.0 ], [ 78.305958567000175, 15.017620108000131, 0.0 ], [ 78.303993674000083, 15.01976396900017, 0.0 ], [ 78.302717430000143, 15.021169668000031, 0.0 ], [ 78.301459466000153, 15.022544906000119, 0.0 ], [ 78.300860957000111, 15.02318439400011, 0.0 ], [ 78.299728337000033, 15.024383403999989, 0.0 ], [ 78.297239038000043, 15.024565331000019, 0.0 ], [ 78.294646521000175, 15.02292415200003, 0.0 ], [ 78.294617847000097, 15.02286396400007, 0.0 ], [ 78.29459954500004, 15.02282796300017, 0.0 ], [ 78.294366609000122, 15.022369764000191, 0.0 ], [ 78.294251154000051, 15.02214265600003, 0.0 ], [ 78.29398196600016, 15.021581768000029, 0.0 ], [ 78.293674120000105, 15.02094033000003, 0.0 ], [ 78.293602347000103, 15.01985347700008, 0.0 ], [ 78.293474512000103, 15.018245237000089, 0.0 ], [ 78.293455682000172, 15.01797011600013, 0.0 ], [ 78.293447164000156, 15.01786440000012, 0.0 ], [ 78.29344702700007, 15.01786269700006, 0.0 ], [ 78.293442146000075, 15.01780211900018, 0.0 ], [ 78.293429783000079, 15.01764867000003, 0.0 ], [ 78.293376322000142, 15.01689882600016, 0.0 ], [ 78.29333628400002, 15.016337240000039, 0.0 ], [ 78.293318746000182, 15.01610932, 0.0 ], [ 78.293236792000187, 15.01504427999998, 0.0 ], [ 78.293218010000032, 15.01480019000007, 0.0 ], [ 78.293188674000078, 15.01442938800011, 0.0 ], [ 78.293175963000181, 15.01417100100014, 0.0 ], [ 78.29310453800008, 15.01378985700001, 0.0 ], [ 78.29308777100016, 15.01370038400017, 0.0 ], [ 78.293081068000049, 15.01366461700013, 0.0 ], [ 78.29302401700005, 15.01336017300002, 0.0 ], [ 78.292446560000144, 15.01070967100009, 0.0 ], [ 78.292268592000141, 15.00989280099998, 0.0 ], [ 78.292011374000197, 15.008712183, 0.0 ], [ 78.293497418000072, 15.00818211300003, 0.0 ], [ 78.295744011000068, 15.00810479300003, 0.0 ], [ 78.297046353000155, 15.00804739400019, 0.0 ], [ 78.297104390000072, 15.008051112000089, 0.0 ], [ 78.297177273000159, 15.008047097000031, 0.0 ], [ 78.297280187000126, 15.008041582000031, 0.0 ], [ 78.297250847000043, 15.00882978500016, 0.0 ], [ 78.297419854000054, 15.00889849400005, 0.0 ], [ 78.297809573000052, 15.00863638700014, 0.0 ], [ 78.298030628000163, 15.00826397900005, 0.0 ], [ 78.298849542000028, 15.00818070700007, 0.0 ], [ 78.29883238300016, 15.00798513200016, 0.0 ], [ 78.299094363000165, 15.00804522800019, 0.0 ], [ 78.299215090000075, 15.008064891999989, 0.0 ], [ 78.299381703000108, 15.008090948000021, 0.0 ], [ 78.299890341000093, 15.0081711680001, 0.0 ], [ 78.300722298000096, 15.00831705600007, 0.0 ], [ 78.301614068000163, 15.008473321000171, 0.0 ], [ 78.302909433000139, 15.008655955000171, 0.0 ], [ 78.303226654000184, 15.008716845000039, 0.0 ], [ 78.303920996999977, 15.008341591999971, 0.0 ], [ 78.304336751000108, 15.008114013000069, 0.0 ], [ 78.304934852000144, 15.00776673500013, 0.0 ], [ 78.308662226000138, 15.004949148000151, 0.0 ], [ 78.308648656000116, 15.00483739500004, 0.0 ], [ 78.30871755600009, 15.00460392600019, 0.0 ], [ 78.308768161000103, 15.004432451000129, 0.0 ], [ 78.308777106000093, 15.004402141000069, 0.0 ], [ 78.308819099000061, 15.004259845000041, 0.0 ], [ 78.308890267000095, 15.00432696000019, 0.0 ], [ 78.309202295000148, 15.004621219000111, 0.0 ], [ 78.310175276000109, 15.006474832000089, 0.0 ], [ 78.311311327000055, 15.00862219500004, 0.0 ], [ 78.311058249000098, 15.00871351100011, 0.0 ], [ 78.310626155000193, 15.0117714220001, 0.0 ], [ 78.311242879000076, 15.01188933300017, 0.0 ], [ 78.311234804000037, 15.012012294000099, 0.0 ], [ 78.310229769999978, 15.013076804000089, 0.0 ], [ 78.30876154900011, 15.01464236100003, 0.0 ] ], [ [ 78.308095857000126, 15.00672721900008, 0.0 ], [ 78.308332535000147, 15.007373614000191, 0.0 ], [ 78.308613935000153, 15.007375057000051, 0.0 ], [ 78.308529378000173, 15.007124426000191, 0.0 ], [ 78.309151310000118, 15.00696965200018, 0.0 ], [ 78.309133344000031, 15.00683648400013, 0.0 ], [ 78.308385883000142, 15.00687106200019, 0.0 ], [ 78.308294084000067, 15.00667877800009, 0.0 ], [ 78.308095857000126, 15.00672721900008, 0.0 ] ] ] ] } },
{ "type": "Feature", "properties": { "Name": "1", "description": "<html xmlns:fo=\"http://www.w3.org/1999/XSL/Format\" xmlns:msxsl=\"urn:schemas-microsoft-com:xslt\">\n\n<head>\n\n<META http-equiv=\"Content-Type\" content=\"text/html\">\n\n<meta http-equiv=\"content-type\" content=\"text/html; charset=UTF-8\">\n\n</head>\n\n<body style=\"margin:0px 0px 0px 0px;overflow:auto;background:#FFFFFF;\">\n\n<table style=\"font-family:Arial,Verdana,Times;font-size:12px;text-align:left;width:100%;border-collapse:collapse;padding:3px 3px 3px 3px\">\n\n<tr style=\"text-align:center;font-weight:bold;background:#9CBCE2\">\n\n<td>Kallutla</td>\n\n</tr>\n\n<tr>\n\n<td>\n\n<table style=\"font-family:Arial,Verdana,Times;font-size:12px;text-align:left;width:100%;border-spacing:0px; padding:3px 3px 3px 3px\">\n\n<tr>\n\n<td>FID</td>\n\n<td>8065</td>\n\n</tr>\n\n<tr bgcolor=\"#D4E4F3\">\n\n<td>FID_</td>\n\n<td>0</td>\n\n</tr>\n\n<tr>\n\n<td>Remarks</td>\n\n<td></td>\n\n</tr>\n\n<tr bgcolor=\"#D4E4F3\">\n\n<td>V_Name</td>\n\n<td>Kallutla</td>\n\n</tr>\n\n<tr>\n\n<td>M_Name</td>\n\n<td>Mylavaram</td>\n\n</tr>\n\n<tr bgcolor=\"#D4E4F3\">\n\n<td>D_Name</td>\n\n<td>Kadapa</td>\n\n</tr>\n\n<tr>\n\n<td>DMV_Code</td>\n\n<td>1102004</td>\n\n</tr>\n\n<tr bgcolor=\"#D4E4F3\">\n\n<td>Parcel_num</td>\n\n<td>348</td>\n\n</tr>\n\n<tr>\n\n<td>Descriptio</td>\n\n<td>Parcel Boundary</td>\n\n</tr>\n\n<tr bgcolor=\"#D4E4F3\">\n\n<td>Parcel_Typ</td>\n\n<td></td>\n\n</tr>\n\n<tr>\n\n<td>Shape_Leng</td>\n\n<td>0.15643</td>\n\n</tr>\n\n<tr bgcolor=\"#D4E4F3\">\n\n<td>Shape_Le_1</td>\n\n<td>0.156336</td>\n\n</tr>\n\n</table>\n\n</td>\n\n</tr>\n\n</table>\n\n</body>\n\n</html>", "timestamp": null, "begin": null, "end": null, "altitudeMode": null, "tessellate": -1, "extrude": 0, "visibility": -1, "drawOrder": null, "icon": null, "snippet": "" }, "geometry": { "type": "MultiPolygon", "coordinates": [ [ [ [ 78.335081956000124, 15.009968724000149, 0.0 ], [ 78.335051325, 15.00996755300014, 0.0 ], [ 78.334972816000175, 15.01045513000008, 0.0 ], [ 78.334923541967498, 15.01076496520523, 0.0 ], [ 78.334820060000141, 15.011415660000131, 0.0 ], [ 78.334781353000039, 15.0116279020001, 0.0 ], [ 78.334484240000052, 15.01182128500005, 0.0 ], [ 78.333446111000057, 15.01256144299998, 0.0 ], [ 78.332308859000136, 15.013407393000019, 0.0 ], [ 78.331036904000143, 15.013909344000069, 0.0 ], [ 78.330324653000105, 15.01416947700017, 0.0 ], [ 78.329856501000052, 15.01436820700008, 0.0 ], [ 78.329337074000193, 15.01449205900002, 0.0 ], [ 78.328234339000119, 15.01478242500008, 0.0 ], [ 78.327524789000051, 15.01543564600007, 0.0 ], [ 78.327045129000169, 15.015852331000129, 0.0 ], [ 78.326665570000102, 15.016197003000061, 0.0 ], [ 78.326487940000163, 15.01630981300019, 0.0 ], [ 78.32621693800013, 15.01649619100016, 0.0 ], [ 78.326133462000143, 15.01655389000001, 0.0 ], [ 78.325605397000061, 15.01699847500015, 0.0 ], [ 78.325222940000117, 15.01727928500009, 0.0 ], [ 78.324899877000121, 15.017610999000169, 0.0 ], [ 78.324818063000123, 15.01769500400013, 0.0 ], [ 78.324613202000137, 15.017905351000021, 0.0 ], [ 78.324003917000084, 15.01853583400003, 0.0 ], [ 78.323455141000125, 15.019102881000149, 0.0 ], [ 78.323138477000043, 15.01938765800003, 0.0 ], [ 78.322566394000035, 15.01857382600002, 0.0 ], [ 78.322197245000154, 15.01801665300019, 0.0 ], [ 78.322638950000169, 15.016991331000041, 0.0 ], [ 78.322894989000133, 15.01642795300018, 0.0 ], [ 78.323297487000048, 15.01533156300008, 0.0 ], [ 78.322812600000191, 15.0137459550001, 0.0 ], [ 78.322142182000107, 15.01182741900004, 0.0 ], [ 78.321781796000153, 15.010018970000029, 0.0 ], [ 78.321021090999977, 15.008498583000121, 0.0 ], [ 78.319500098000162, 15.005568295000099, 0.0 ], [ 78.31692206200006, 15.006519535000111, 0.0 ], [ 78.316883834000066, 15.006570860000011, 0.0 ], [ 78.314709910000147, 15.00738973300003, 0.0 ], [ 78.312342643000136, 15.008250070000029, 0.0 ], [ 78.311311327000055, 15.00862219500004, 0.0 ], [ 78.310175276000109, 15.006474832000089, 0.0 ], [ 78.309202295000148, 15.004621219000111, 0.0 ], [ 78.308890267000095, 15.00432696000019, 0.0 ], [ 78.308838520000165, 15.00423640000014, 0.0 ], [ 78.308749964000128, 15.004082121000071, 0.0 ], [ 78.309405997000169, 15.00334008100015, 0.0 ], [ 78.309950732000175, 15.00272735900006, 0.0 ], [ 78.311446214000114, 15.00105802000007, 0.0 ], [ 78.312289371000134, 15.00010900400008, 0.0 ], [ 78.31258794200005, 14.99977783000003, 0.0 ], [ 78.31234761200011, 14.99925886600005, 0.0 ], [ 78.311898099000132, 14.99828940000015, 0.0 ], [ 78.311764167000035, 14.998018141000159, 0.0 ], [ 78.314783183000088, 14.997629092, 0.0 ], [ 78.314962979000029, 14.99760295700008, 0.0 ], [ 78.315099936000081, 14.997837010000181, 0.0 ], [ 78.315481460000058, 14.998094725000101, 0.0 ], [ 78.315608649000183, 14.99814873700012, 0.0 ], [ 78.315735216000064, 14.99806620200013, 0.0 ], [ 78.315901810000184, 14.99830446000016, 0.0 ], [ 78.316252893000183, 14.99873988300004, 0.0 ], [ 78.316365162000125, 14.99900474999998, 0.0 ], [ 78.316591491000111, 14.999224453000121, 0.0 ], [ 78.316665731000057, 14.999590006000121, 0.0 ], [ 78.316974764000122, 14.9995446260001, 0.0 ], [ 78.317019874000152, 14.999355042000049, 0.0 ], [ 78.317083061000119, 14.999271804000051, 0.0 ], [ 78.31702797700018, 14.99886682900007, 0.0 ], [ 78.316984863000187, 14.99878994400018, 0.0 ], [ 78.316824350000104, 14.99849926400009, 0.0 ], [ 78.31680540900004, 14.998065544999969, 0.0 ], [ 78.316766322000092, 14.998075908000031, 0.0 ], [ 78.316831483999977, 14.997577313000081, 0.0 ], [ 78.31670089000005, 14.997108111, 0.0 ], [ 78.316544547000149, 14.99710224100005, 0.0 ], [ 78.316901261000169, 14.99636025800004, 0.0 ], [ 78.317084538000131, 14.996007171000031, 0.0 ], [ 78.31748889500011, 14.99589579900004, 0.0 ], [ 78.31779074200017, 14.99499622400015, 0.0 ], [ 78.317576004000159, 14.994989019000171, 0.0 ], [ 78.317616245000181, 14.994889643000141, 0.0 ], [ 78.317747938000139, 14.99463347900007, 0.0 ], [ 78.318006936000074, 14.99453453000012, 0.0 ], [ 78.318199750000076, 14.994270823000081, 0.0 ], [ 78.318513514000074, 14.993059530000149, 0.0 ], [ 78.318889077000165, 14.992294060000059, 0.0 ], [ 78.319112244000053, 14.99183598200017, 0.0 ], [ 78.319212833000108, 14.991632297000081, 0.0 ], [ 78.319767860000127, 14.99044966300011, 0.0 ], [ 78.31996019900015, 14.9900427720001, 0.0 ], [ 78.320358566000152, 14.98990037600004, 0.0 ], [ 78.320942056000092, 14.989690360000051, 0.0 ], [ 78.321655231000079, 14.98942779800001, 0.0 ], [ 78.321620931000041, 14.988094177000111, 0.0 ], [ 78.321623204000161, 14.987975489000011, 0.0 ], [ 78.321862455000144, 14.98738187700013, 0.0 ], [ 78.322281996000129, 14.98629772000004, 0.0 ], [ 78.322326846000124, 14.98627292600014, 0.0 ], [ 78.322543341000198, 14.985737169000121, 0.0 ], [ 78.322639468000034, 14.98548793600003, 0.0 ], [ 78.322665744000119, 14.98541361100018, 0.0 ], [ 78.323555784000177, 14.98475061100004, 0.0 ], [ 78.32365602231971, 14.98467637780232, 0.0 ], [ 78.324025150000125, 14.984403014000121, 0.0 ], [ 78.324284430000091, 14.984207993000039, 0.0 ], [ 78.324570570680862, 14.98400938194834, 0.0 ], [ 78.324738837465702, 14.98428097286433, 0.0 ], [ 78.325381760677601, 14.98553388754533, 0.0 ], [ 78.325605789377221, 14.985970469770789, 0.0 ], [ 78.326429615111408, 14.987582683747521, 0.0 ], [ 78.327604371493919, 14.98956432173031, 0.0 ], [ 78.328671773739927, 14.99158831988945, 0.0 ], [ 78.329687193069219, 14.993247358499559, 0.0 ], [ 78.329969869967272, 14.99360566351209, 0.0 ], [ 78.331159119196855, 14.99605804505382, 0.0 ], [ 78.33178168943823, 14.997309605357939, 0.0 ], [ 78.332064081212025, 14.998099816742981, 0.0 ], [ 78.332219970603717, 14.99858959822728, 0.0 ], [ 78.332274596024206, 14.9987612232448, 0.0 ], [ 78.332566129662155, 14.99940720487689, 0.0 ], [ 78.33273742663323, 14.999677107966249, 0.0 ], [ 78.333201582434299, 15.001077203900021, 0.0 ], [ 78.333916963750085, 15.003137532005841, 0.0 ], [ 78.33404738234924, 15.00428549837989, 0.0 ], [ 78.334242028907454, 15.00531382164786, 0.0 ], [ 78.334463397338993, 15.00619388864493, 0.0 ], [ 78.334489164000104, 15.00634759100012, 0.0 ], [ 78.334695966000197, 15.00757343200002, 0.0 ], [ 78.33488568304864, 15.0087507364085, 0.0 ], [ 78.335081956000124, 15.009968724000149, 0.0 ] ], [ [ 78.319978594000133, 14.994825331000129, 0.0 ], [ 78.318792955000049, 14.99471013800013, 0.0 ], [ 78.318900251, 14.995732881000089, 0.0 ], [ 78.320037967000189, 14.995429120999971, 0.0 ], [ 78.319978594000133, 14.994825331000129, 0.0 ] ] ] ] } },
{ "type": "Feature", "properties": { "Name": "1", "description": null, "timestamp": null, "begin": null, "end": null, "altitudeMode": null, "tessellate": 1, "extrude": 0, "visibility": -1, "drawOrder": null, "icon": null, "snippet": null }, "geometry": { "type": "Polygon", "coordinates": [ [ [ 78.339574710383488, 14.97845712529181, 0.0 ], [ 78.340660461063493, 14.977943493240099, 0.0 ], [ 78.340886553727401, 14.976922102831839, 0.0 ], [ 78.342178410387945, 14.975537773830469, 0.0 ], [ 78.343983789509124, 14.974066968401059, 0.0 ], [ 78.344653390704792, 14.97383431221134, 0.0 ], [ 78.344714683946037, 14.974066833778631, 0.0 ], [ 78.345539127873764, 14.97391977931008, 0.0 ], [ 78.345610811390557, 14.97349947445443, 0.0 ], [ 78.345964763841877, 14.973415757255321, 0.0 ], [ 78.346128541682148, 14.97370066051827, 0.0 ], [ 78.346337354153405, 14.973751064835019, 0.0 ], [ 78.34649428635916, 14.97329877848985, 0.0 ], [ 78.346645204165867, 14.972982916284231, 0.0 ], [ 78.347150300273441, 14.972999376209909, 0.0 ], [ 78.347319079527551, 14.973198642522361, 0.0 ], [ 78.347275603776936, 14.97349910087056, 0.0 ], [ 78.346873260325737, 14.974020870987941, 0.0 ], [ 78.346266093564751, 14.97470218848439, 0.0 ], [ 78.347111559067201, 14.976109868142609, 0.0 ], [ 78.348019580545625, 14.97480475442446, 0.0 ], [ 78.348165240195854, 14.974616103667319, 0.0 ], [ 78.347948132715302, 14.97400371232537, 0.0 ], [ 78.348144855424565, 14.973851706918021, 0.0 ], [ 78.348262547745634, 14.97319842725477, 0.0 ], [ 78.348666825981795, 14.97303219220497, 0.0 ], [ 78.348827053574752, 14.97278397189031, 0.0 ], [ 78.348900722209947, 14.97245494934773, 0.0 ], [ 78.348900925057862, 14.97243855604237, 0.0 ], [ 78.349490669643345, 14.972405648295471, 0.0 ], [ 78.349941592023526, 14.972274675826871, 0.0 ], [ 78.349959188152923, 14.97211157086106, 0.0 ], [ 78.3512231200055, 14.972323406010069, 0.0 ], [ 78.351503382940308, 14.972552808358451, 0.0 ], [ 78.351520742134781, 14.97255280416821, 0.0 ], [ 78.352400664803838, 14.97308108968741, 0.0 ], [ 78.352855300951376, 14.973114195781299, 0.0 ], [ 78.353278693238678, 14.97270045040087, 0.0 ], [ 78.353343568579646, 14.97309746408418, 0.0 ], [ 78.353222368173334, 14.973698993217081, 0.0 ], [ 78.353539617061486, 14.97425666564475, 0.0 ], [ 78.354224599903915, 14.973732373402029, 0.0 ], [ 78.354369964259575, 14.97343048641892, 0.0 ], [ 78.35435942187658, 14.973180322911221, 0.0 ], [ 78.354552312445477, 14.97319691356385, 0.0 ], [ 78.354637894933219, 14.973547590770581, 0.0 ], [ 78.355324519262012, 14.973263329888921, 0.0 ], [ 78.355296748508295, 14.97306376720794, 0.0 ], [ 78.355498133479756, 14.97291455824617, 0.0 ], [ 78.355450971258691, 14.972683428068271, 0.0 ], [ 78.355662299789515, 14.97273281446995, 0.0 ], [ 78.355907684109482, 14.972765738656619, 0.0 ], [ 78.356210129470227, 14.97316321919145, 0.0 ], [ 78.356245062250423, 14.97316321019842, 0.0 ], [ 78.356405379554701, 14.973213086279211, 0.0 ], [ 78.356301478874187, 14.97351366342988, 0.0 ], [ 78.356074167334512, 14.97412025459418, 0.0 ], [ 78.35570687721119, 14.974820083910339, 0.0 ], [ 78.355244218413901, 14.9755122512129, 0.0 ], [ 78.354347623626083, 14.97632003552928, 0.0 ], [ 78.353505955440454, 14.97703286883919, 0.0 ], [ 78.353063098670631, 14.978065606250521, 0.0 ], [ 78.353275004649973, 14.978414332320529, 0.0 ], [ 78.35260722192163, 14.979738545884199, 0.0 ], [ 78.35176583531323, 14.98071052356639, 0.0 ], [ 78.351379453370569, 14.9814072917125, 0.0 ], [ 78.351306163844399, 14.98162198273161, 0.0 ], [ 78.351798585403145, 14.981621866429631, 0.0 ], [ 78.35346321309612, 14.980941354524001, 0.0 ], [ 78.354089681754999, 14.98057555145439, 0.0 ], [ 78.354869611060224, 14.979137163720351, 0.0 ], [ 78.355225129507531, 14.978450717116839, 0.0 ], [ 78.355754165273595, 14.97802838506135, 0.0 ], [ 78.355771497793185, 14.978010100758871, 0.0 ], [ 78.356214454593115, 14.977754737635159, 0.0 ], [ 78.356147658802016, 14.97722993032378, 0.0 ], [ 78.35802922913139, 14.9752336089267, 0.0 ], [ 78.358083400734927, 14.97570351039607, 0.0 ], [ 78.358698148486411, 14.975773340320631, 0.0 ], [ 78.358754759415618, 14.97688828297772, 0.0 ], [ 78.358879956095478, 14.97730134523715, 0.0 ], [ 78.359007481360365, 14.97751814658834, 0.0 ], [ 78.358496309209357, 14.97773600437567, 0.0 ], [ 78.358479493888623, 14.97775419384668, 0.0 ], [ 78.358685445435043, 14.978265910761071, 0.0 ], [ 78.358186727911288, 14.97895000217488, 0.0 ], [ 78.357841537069987, 14.97852387125516, 0.0 ], [ 78.357148446888885, 14.978616397849249, 0.0 ], [ 78.356791989514065, 14.97909938349415, 0.0 ], [ 78.356486412470375, 14.97924892883346, 0.0 ], [ 78.355920238099117, 14.979398956156849, 0.0 ], [ 78.355436973177532, 14.97995002135826, 0.0 ], [ 78.355024246374313, 14.98046123811344, 0.0 ], [ 78.354675135668188, 14.980906028391709, 0.0 ], [ 78.353994678371706, 14.98133671620919, 0.0 ], [ 78.353451653800164, 14.98171649051436, 0.0 ], [ 78.353322879831524, 14.98239218910728, 0.0 ], [ 78.353066766699129, 14.983151217584791, 0.0 ], [ 78.352236533097837, 14.98409190114576, 0.0 ], [ 78.351167975859724, 14.98512677555428, 0.0 ], [ 78.350736372446491, 14.98588663095418, 0.0 ], [ 78.349939168353217, 14.98683668629802, 0.0 ], [ 78.34956447889256, 14.98733809431755, 0.0 ], [ 78.349164282758068, 14.98762093046432, 0.0 ], [ 78.348784430484017, 14.988252287125469, 0.0 ], [ 78.348633060603916, 14.98874602064779, 0.0 ], [ 78.346821182682049, 14.990209613906361, 0.0 ], [ 78.34634029830471, 14.990409563221, 0.0 ], [ 78.346227030755728, 14.99028960065781, 0.0 ], [ 78.345840602854366, 14.990489819350129, 0.0 ], [ 78.345614915879622, 14.99123673045645, 0.0 ], [ 78.340991173202028, 14.98485999135182, 0.0 ], [ 78.340825470948985, 14.983277859516109, 0.0 ], [ 78.339574710383488, 14.97845712529181, 0.0 ] ] ] } },
{ "type": "Feature", "properties": { "Name": "1", "description": "<html xmlns:fo=\"http://www.w3.org/1999/XSL/Format\" xmlns:msxsl=\"urn:schemas-microsoft-com:xslt\">\n\n<head>\n\n<META http-equiv=\"Content-Type\" content=\"text/html\">\n\n<meta http-equiv=\"content-type\" content=\"text/html; charset=UTF-8\">\n\n</head>\n\n<body style=\"margin:0px 0px 0px 0px;overflow:auto;background:#FFFFFF;\">\n\n<table style=\"font-family:Arial,Verdana,Times;font-size:12px;text-align:left;width:100%;border-collapse:collapse;padding:3px 3px 3px 3px\">\n\n<tr style=\"text-align:center;font-weight:bold;background:#9CBCE2\">\n\n<td>Chinna Venthurla</td>\n\n</tr>\n\n<tr>\n\n<td>\n\n<table style=\"font-family:Arial,Verdana,Times;font-size:12px;text-align:left;width:100%;border-spacing:0px; padding:3px 3px 3px 3px\">\n\n<tr>\n\n<td>FID</td>\n\n<td>8849</td>\n\n</tr>\n\n<tr bgcolor=\"#D4E4F3\">\n\n<td>FID_</td>\n\n<td>0</td>\n\n</tr>\n\n<tr>\n\n<td>Remarks</td>\n\n<td></td>\n\n</tr>\n\n<tr bgcolor=\"#D4E4F3\">\n\n<td>V_Name</td>\n\n<td>Chinna Venthurla</td>\n\n</tr>\n\n<tr>\n\n<td>M_Name</td>\n\n<td>Mylavaram</td>\n\n</tr>\n\n<tr bgcolor=\"#D4E4F3\">\n\n<td>D_Name</td>\n\n<td>Kadapa</td>\n\n</tr>\n\n<tr>\n\n<td>DMV_Code</td>\n\n<td>1102001</td>\n\n</tr>\n\n<tr bgcolor=\"#D4E4F3\">\n\n<td>Parcel_num</td>\n\n<td>708</td>\n\n</tr>\n\n<tr>\n\n<td>Descriptio</td>\n\n<td>ROCK GROUND</td>\n\n</tr>\n\n<tr bgcolor=\"#D4E4F3\">\n\n<td>Parcel_Typ</td>\n\n<td></td>\n\n</tr>\n\n<tr>\n\n<td>Shape_Leng</td>\n\n<td>0.221582</td>\n\n</tr>\n\n<tr bgcolor=\"#D4E4F3\">\n\n<td>Shape_Le_1</td>\n\n<td>0.221582</td>\n\n</tr>\n\n</table>\n\n</td>\n\n</tr>\n\n</table>\n\n</body>\n\n</html>", "timestamp": null, "begin": null, "end": null, "altitudeMode": null, "tessellate": -1, "extrude": 0, "visibility": -1, "drawOrder": null, "icon": null, "snippet": "" }, "geometry": { "type": "MultiPolygon", "coordinates": [ [ [ [ 78.28805200700009, 15.028372817000101, 0.0 ], [ 78.286677059000169, 15.02916062500015, 0.0 ], [ 78.285427408000089, 15.02987664100004, 0.0 ], [ 78.284969036000177, 15.03013927600017, 0.0 ], [ 78.284217558000137, 15.03056985300003, 0.0 ], [ 78.284090204000108, 15.030642823, 0.0 ], [ 78.281834475000039, 15.029429297000149, 0.0 ], [ 78.27971556500006, 15.02862266000011, 0.0 ], [ 78.2778524470001, 15.027927858000171, 0.0 ], [ 78.275848941000049, 15.02778984900004, 0.0 ], [ 78.275210057000152, 15.027724434000049, 0.0 ], [ 78.274758287000054, 15.027678178000141, 0.0 ], [ 78.273757395000189, 15.02757569700009, 0.0 ], [ 78.270916318000047, 15.02723067600005, 0.0 ], [ 78.268548754999983, 15.027382961000111, 0.0 ], [ 78.268039550000083, 15.02733537199998, 0.0 ], [ 78.265933727000174, 15.02715691200018, 0.0 ], [ 78.263811248000138, 15.02699272899997, 0.0 ], [ 78.260387203000107, 15.02670481500013, 0.0 ], [ 78.259323584000128, 15.02550794600012, 0.0 ], [ 78.258143372000177, 15.02424445200006, 0.0 ], [ 78.256308807000153, 15.02222666900019, 0.0 ], [ 78.255673491000152, 15.021032180000191, 0.0 ], [ 78.255734337000035, 15.020860852000061, 0.0 ], [ 78.255763911000031, 15.02077757700016, 0.0 ], [ 78.25574301100005, 15.02070976700009, 0.0 ], [ 78.255966345000047, 15.02071288300016, 0.0 ], [ 78.257789347000084, 15.020738320000021, 0.0 ], [ 78.257939486000168, 15.020158556000011, 0.0 ], [ 78.257944012000166, 15.02014107500008, 0.0 ], [ 78.258127231000174, 15.020057794000021, 0.0 ], [ 78.260009385000103, 15.019210706000139, 0.0 ], [ 78.259983210000144, 15.01853256000015, 0.0 ], [ 78.261144387000058, 15.018163743000059, 0.0 ], [ 78.262053342000172, 15.01787820800018, 0.0 ], [ 78.263212139000075, 15.01717150800016, 0.0 ], [ 78.263616067999976, 15.01664630300013, 0.0 ], [ 78.263993558000152, 15.01642938400005, 0.0 ], [ 78.264211565000153, 15.016316725000021, 0.0 ], [ 78.264715618000196, 15.015267744000029, 0.0 ], [ 78.264893277000056, 15.01485367000004, 0.0 ], [ 78.265255649000039, 15.01388039800014, 0.0 ], [ 78.26543881900011, 15.01326998400009, 0.0 ], [ 78.265432940000039, 15.0129618150001, 0.0 ], [ 78.265526214000147, 15.012383130000099, 0.0 ], [ 78.265604261000078, 15.01206523400009, 0.0 ], [ 78.265737511000111, 15.01169594200007, 0.0 ], [ 78.265870271000097, 15.0113343270001, 0.0 ], [ 78.265937385000143, 15.01115152100005, 0.0 ], [ 78.266150585000162, 15.01074986800012, 0.0 ], [ 78.266278124000166, 15.01049479000017, 0.0 ], [ 78.266299948000039, 15.01047321400017, 0.0 ], [ 78.266780666000159, 15.00999795899998, 0.0 ], [ 78.267026227000144, 15.009735266000011, 0.0 ], [ 78.267098863000115, 15.009843334999969, 0.0 ], [ 78.267985324, 15.009344230000179, 0.0 ], [ 78.267865771000174, 15.009170669000129, 0.0 ], [ 78.268585484000141, 15.00873706100009, 0.0 ], [ 78.269200259000115, 15.008367335000059, 0.0 ], [ 78.269728499999985, 15.00796758600012, 0.0 ], [ 78.270589392000034, 15.007496909000171, 0.0 ], [ 78.271781799000166, 15.00730094600004, 0.0 ], [ 78.272031465000055, 15.00725991500013, 0.0 ], [ 78.272849999000073, 15.00692917000004, 0.0 ], [ 78.27282136600013, 15.006802067000081, 0.0 ], [ 78.27365179800006, 15.006554603000041, 0.0 ], [ 78.274715417000095, 15.0065022550001, 0.0 ], [ 78.27540191200012, 15.00654067300013, 0.0 ], [ 78.276001536000194, 15.006521637000111, 0.0 ], [ 78.276247096000077, 15.00651212000014, 0.0 ], [ 78.277077052000152, 15.006525445000079, 0.0 ], [ 78.278084040000181, 15.00635412300011, 0.0 ], [ 78.278213483000116, 15.00638838800001, 0.0 ], [ 78.27913671400006, 15.00661657800009, 0.0 ], [ 78.27967685100009, 15.00674506900015, 0.0 ], [ 78.280343100000039, 15.00679265800011, 0.0 ], [ 78.28073095200017, 15.00683786800011, 0.0 ], [ 78.281918303000054, 15.00722096100009, 0.0 ], [ 78.282230655000149, 15.008917154000191, 0.0 ], [ 78.283401350000133, 15.012086596000071, 0.0 ], [ 78.284630889000141, 15.015146698000139, 0.0 ], [ 78.283774283000184, 15.015036053000131, 0.0 ], [ 78.282842724000091, 15.015100297999989, 0.0 ], [ 78.282232392000196, 15.014418583000181, 0.0 ], [ 78.282078268000078, 15.01444585100012, 0.0 ], [ 78.281768397000121, 15.01450067400015, 0.0 ], [ 78.28180052, 15.01475051800003, 0.0 ], [ 78.282018241000173, 15.015053899000179, 0.0 ], [ 78.282181139000159, 15.01514968300012, 0.0 ], [ 78.282910539000113, 15.015578570000169, 0.0 ], [ 78.282953369000097, 15.01575346000004, 0.0 ], [ 78.282696387000158, 15.015964043000171, 0.0 ], [ 78.282298492000166, 15.015952593000121, 0.0 ], [ 78.282200270000033, 15.015949766000119, 0.0 ], [ 78.282182424000155, 15.016056842000131, 0.0 ], [ 78.282317683000088, 15.016083894000021, 0.0 ], [ 78.282557189000158, 15.01613179499998, 0.0 ], [ 78.283185366, 15.01611751800016, 0.0 ], [ 78.283599393000088, 15.015856967, 0.0 ], [ 78.284498829000086, 15.01610324100011, 0.0 ], [ 78.284958590000031, 15.01593636500019, 0.0 ], [ 78.285691462000045, 15.017998129000031, 0.0 ], [ 78.285274581000124, 15.017956726000079, 0.0 ], [ 78.285190348000185, 15.01813090300004, 0.0 ], [ 78.28539736100015, 15.018263677, 0.0 ], [ 78.285403538000025, 15.01826285300012, 0.0 ], [ 78.285744286000181, 15.018182299000051, 0.0 ], [ 78.286231719000114, 15.01963186700004, 0.0 ], [ 78.286160335000034, 15.021791228000099, 0.0 ], [ 78.287227968000195, 15.024452690000031, 0.0 ], [ 78.28805200700009, 15.028372817000101, 0.0 ] ], [ [ 78.275312920000033, 15.012783001000059, 0.0 ], [ 78.275289125000086, 15.012354698000021, 0.0 ], [ 78.274708537000038, 15.01220241200002, 0.0 ], [ 78.274494385000082, 15.011769350000121, 0.0 ], [ 78.273573533999979, 15.011495712, 0.0 ], [ 78.273273722000056, 15.011883564000129, 0.0 ], [ 78.273201875000098, 15.01215338800006, 0.0 ], [ 78.273204717000112, 15.01215482300012, 0.0 ], [ 78.273680609000053, 15.012628336000089, 0.0 ], [ 78.274230265000085, 15.01295194200009, 0.0 ], [ 78.275312920000033, 15.012783001000059, 0.0 ] ] ] ] } },
{ "type": "Feature", "properties": { "Name": "1", "description": "<html xmlns:fo=\"http://www.w3.org/1999/XSL/Format\" xmlns:msxsl=\"urn:schemas-microsoft-com:xslt\">\n\n<head>\n\n<META http-equiv=\"Content-Type\" content=\"text/html\">\n\n<meta http-equiv=\"content-type\" content=\"text/html; charset=UTF-8\">\n\n</head>\n\n<body style=\"margin:0px 0px 0px 0px;overflow:auto;background:#FFFFFF;\">\n\n<table style=\"font-family:Arial,Verdana,Times;font-size:12px;text-align:left;width:100%;border-collapse:collapse;padding:3px 3px 3px 3px\">\n\n<tr style=\"text-align:center;font-weight:bold;background:#9CBCE2\">\n\n<td>Kondasunkesula</td>\n\n</tr>\n\n<tr>\n\n<td>\n\n<table style=\"font-family:Arial,Verdana,Times;font-size:12px;text-align:left;width:100%;border-spacing:0px; padding:3px 3px 3px 3px\">\n\n<tr>\n\n<td>FID</td>\n\n<td>8005</td>\n\n</tr>\n\n<tr bgcolor=\"#D4E4F3\">\n\n<td>Remarks</td>\n\n<td></td>\n\n</tr>\n\n<tr>\n\n<td>V_Name</td>\n\n<td>Kondasunkesula</td>\n\n</tr>\n\n<tr bgcolor=\"#D4E4F3\">\n\n<td>M_Name</td>\n\n<td>Peddamudium</td>\n\n</tr>\n\n<tr>\n\n<td>D_Name</td>\n\n<td>Kadapa</td>\n\n</tr>\n\n<tr bgcolor=\"#D4E4F3\">\n\n<td>DMV_Code</td>\n\n<td>1103001</td>\n\n</tr>\n\n<tr>\n\n<td>Parcel_num</td>\n\n<td>709</td>\n\n</tr>\n\n<tr bgcolor=\"#D4E4F3\">\n\n<td>Descriptio</td>\n\n<td>ROAD</td>\n\n</tr>\n\n<tr>\n\n<td>Parcel_Typ</td>\n\n<td></td>\n\n</tr>\n\n<tr bgcolor=\"#D4E4F3\">\n\n<td>Shape_Leng</td>\n\n<td>0.26099</td>\n\n</tr>\n\n</table>\n\n</td>\n\n</tr>\n\n</table>\n\n</body>\n\n</html>", "timestamp": null, "begin": null, "end": null, "altitudeMode": null, "tessellate": -1, "extrude": 0, "visibility": -1, "drawOrder": null, "icon": null, "snippet": "" }, "geometry": { "type": "MultiPolygon", "coordinates": [ [ [ [ 78.283794415000045, 15.05661208900006, 0.0 ], [ 78.283042213000158, 15.05663802700008, 0.0 ], [ 78.282622265000043, 15.05666273000003, 0.0 ], [ 78.28210350400019, 15.056859118000149, 0.0 ], [ 78.281634150000116, 15.05704438900011, 0.0 ], [ 78.28059230700012, 15.05724077700018, 0.0 ], [ 78.279575784000144, 15.05744704600011, 0.0 ], [ 78.278651896999975, 15.057535976, 0.0 ], [ 78.277474806000043, 15.057606379000051, 0.0 ], [ 78.27542255000003, 15.05764687900006, 0.0 ], [ 78.27512975500008, 15.057689824000141, 0.0 ], [ 78.275090122000051, 15.0560751380001, 0.0 ], [ 78.275082183000052, 15.05542388600003, 0.0 ], [ 78.275325365000072, 15.054852516000039, 0.0 ], [ 78.275873996000087, 15.053629538000109, 0.0 ], [ 78.276626665000094, 15.051883157000081, 0.0 ], [ 78.276790451000181, 15.051683452000191, 0.0 ], [ 78.276833597000177, 15.05158489600001, 0.0 ], [ 78.278498869000146, 15.0491943940001, 0.0 ], [ 78.278875446000086, 15.04799977300013, 0.0 ], [ 78.278963437000186, 15.04772063800004, 0.0 ], [ 78.279196509000087, 15.04698125800013, 0.0 ], [ 78.279431027000157, 15.04549335200011, 0.0 ], [ 78.279668928000035, 15.04395473500011, 0.0 ], [ 78.279770583000186, 15.04264211700001, 0.0 ], [ 78.279802274000076, 15.04238377700017, 0.0 ], [ 78.279816305000054, 15.04203274000014, 0.0 ], [ 78.27991051500004, 15.041102853000041, 0.0 ], [ 78.279975935000095, 15.040457137000089, 0.0 ], [ 78.280887400000154, 15.03977329200006, 0.0 ], [ 78.281222425000067, 15.03946979900007, 0.0 ], [ 78.28232800800015, 15.03858888000013, 0.0 ], [ 78.284040221000112, 15.037256371000129, 0.0 ], [ 78.283979858, 15.03579813500005, 0.0 ], [ 78.283980887000041, 15.03543590100009, 0.0 ], [ 78.284331986000041, 15.0356814700001, 0.0 ], [ 78.285436519000029, 15.0357225680001, 0.0 ], [ 78.286322108000036, 15.035840234000091, 0.0 ], [ 78.28679896400007, 15.036118916000021, 0.0 ], [ 78.287393485000109, 15.03621800300016, 0.0 ], [ 78.287579273000063, 15.035976479000061, 0.0 ], [ 78.287430642000061, 15.03577211200013, 0.0 ], [ 78.287573080000129, 15.035512009, 0.0 ], [ 78.287604045000137, 15.03515281900013, 0.0 ], [ 78.287362520000158, 15.035035152999971, 0.0 ], [ 78.287192215000175, 15.03458306900006, 0.0 ], [ 78.287167443000044, 15.034062863000029, 0.0 ], [ 78.287399677999986, 15.033796567000021, 0.0 ], [ 78.286904243000151, 15.033347580000051, 0.0 ], [ 78.286959980000063, 15.03297600400003, 0.0 ], [ 78.2865915000001, 15.03288001400011, 0.0 ], [ 78.286111548000179, 15.03319585300005, 0.0 ], [ 78.285284792000198, 15.033372352000191, 0.0 ], [ 78.285026061000167, 15.033195250000061, 0.0 ], [ 78.28454557800012, 15.032866357000159, 0.0 ], [ 78.284238511000183, 15.03266670600004, 0.0 ], [ 78.284325393000131, 15.031791222999971, 0.0 ], [ 78.284090204000108, 15.030642823, 0.0 ], [ 78.284217558000137, 15.03056985300003, 0.0 ], [ 78.284969036000177, 15.03013927600017, 0.0 ], [ 78.285427408000089, 15.02987664100004, 0.0 ], [ 78.286677059000169, 15.02916062500015, 0.0 ], [ 78.28805200700009, 15.028372817000101, 0.0 ], [ 78.288227667000058, 15.028401814000119, 0.0 ], [ 78.293302719, 15.02923957600018, 0.0 ], [ 78.293381470000043, 15.02923292300005, 0.0 ], [ 78.293712455000161, 15.029289471000141, 0.0 ], [ 78.295793162000109, 15.02921704800008, 0.0 ], [ 78.295807347000107, 15.029216554000021, 0.0 ], [ 78.296982620000108, 15.02917075300007, 0.0 ], [ 78.297678308000116, 15.02965369900005, 0.0 ], [ 78.298353537000139, 15.030195024000021, 0.0 ], [ 78.300318130000051, 15.03618626400009, 0.0 ], [ 78.300824402000046, 15.03719880800003, 0.0 ], [ 78.302412888000163, 15.037446525000011, 0.0 ], [ 78.304033888, 15.037799522, 0.0 ], [ 78.305263184000125, 15.037907899000171, 0.0 ], [ 78.306070588000125, 15.03797602100013, 0.0 ], [ 78.306086070000163, 15.038085558000031, 0.0 ], [ 78.305527158000132, 15.03820361100014, 0.0 ], [ 78.305272474000162, 15.03824851000002, 0.0 ], [ 78.305277892999982, 15.038465262000051, 0.0 ], [ 78.304895479000152, 15.038441265000071, 0.0 ], [ 78.304842839000059, 15.038301150000111, 0.0 ], [ 78.30457499500011, 15.038181936000059, 0.0 ], [ 78.304095043000189, 15.03797292400014, 0.0 ], [ 78.303843455000163, 15.03827947400009, 0.0 ], [ 78.303639088000011, 15.03851016100009, 0.0 ], [ 78.304123685000093, 15.0387331070001, 0.0 ], [ 78.304817293000099, 15.038627827000081, 0.0 ], [ 78.305007726000099, 15.03864640600011, 0.0 ], [ 78.30529802000018, 15.038658017000101, 0.0 ], [ 78.305332081000017, 15.038847676000049, 0.0 ], [ 78.305277892999982, 15.03900791800015, 0.0 ], [ 78.305277118000049, 15.03905513900008, 0.0 ], [ 78.30551090199998, 15.03967211000003, 0.0 ], [ 78.30559141000009, 15.039912473000131, 0.0 ], [ 78.305744685000093, 15.0403235280001, 0.0 ], [ 78.305899507999982, 15.04068581500019, 0.0 ], [ 78.306014331000199, 15.04147077900012, 0.0 ], [ 78.306193427000096, 15.042504594000089, 0.0 ], [ 78.305943928000147, 15.04319133299998, 0.0 ], [ 78.305878774000064, 15.043377222, 0.0 ], [ 78.30565027200015, 15.04341304100007, 0.0 ], [ 78.30498576500014, 15.04353408500009, 0.0 ], [ 78.304133517000196, 15.04367612700014, 0.0 ], [ 78.303283121000163, 15.04382063900005, 0.0 ], [ 78.302937898000096, 15.043877455000089, 0.0 ], [ 78.303086115000042, 15.044486381, 0.0 ], [ 78.30329609000006, 15.04534974600017, 0.0 ], [ 78.303518415000099, 15.046214346000109, 0.0 ], [ 78.303671573000145, 15.04682697700008, 0.0 ], [ 78.303715421000049, 15.046952344000029, 0.0 ], [ 78.303811762000123, 15.047349442000041, 0.0 ], [ 78.303921072000094, 15.04788796500009, 0.0 ], [ 78.303951951000045, 15.04877171000015, 0.0 ], [ 78.303632049000043, 15.04881741000003, 0.0 ], [ 78.302783505000036, 15.048947100000079, 0.0 ], [ 78.302027598000109, 15.04906320300017, 0.0 ], [ 78.301328507000051, 15.049174366000051, 0.0 ], [ 78.301040718000138, 15.049216361000051, 0.0 ], [ 78.300764045999983, 15.04974253199998, 0.0 ], [ 78.300487374, 15.05023658900012, 0.0 ], [ 78.30027431200017, 15.05057779800018, 0.0 ], [ 78.299921061000134, 15.05072539700007, 0.0 ], [ 78.298038703000032, 15.05153812100014, 0.0 ], [ 78.297898921000183, 15.05186675900018, 0.0 ], [ 78.297574289000124, 15.052629988000151, 0.0 ], [ 78.2972408010001, 15.052891838000161, 0.0 ], [ 78.296517007000034, 15.053254970000181, 0.0 ], [ 78.295885849000058, 15.05364836300015, 0.0 ], [ 78.294828566000035, 15.05448085000018, 0.0 ], [ 78.29397446500019, 15.055158326000081, 0.0 ], [ 78.293511286000125, 15.05550663600013, 0.0 ], [ 78.29224650000009, 15.056115562000061, 0.0 ], [ 78.291010121000056, 15.056686198000021, 0.0 ], [ 78.290334498, 15.056792420000139, 0.0 ], [ 78.289583531000119, 15.05690234800017, 0.0 ], [ 78.289437784000086, 15.05681094700015, 0.0 ], [ 78.288712755, 15.0563205950001, 0.0 ], [ 78.288484254000025, 15.056172378000159, 0.0 ], [ 78.287570248000065, 15.05629959800001, 0.0 ], [ 78.286141187000055, 15.056479929000091, 0.0 ], [ 78.285512499000106, 15.05656021300018, 0.0 ], [ 78.285080199000049, 15.05661208900006, 0.0 ], [ 78.284613315000115, 15.056608384000191, 0.0 ], [ 78.283794415000045, 15.05661208900006, 0.0 ] ], [ [ 78.288799279999978, 15.03471157300004, 0.0 ], [ 78.288737351000123, 15.034192141000061, 0.0 ], [ 78.288095608000049, 15.03408531300011, 0.0 ], [ 78.288022841000156, 15.033644839999971, 0.0 ], [ 78.287609463000024, 15.03385230400011, 0.0 ], [ 78.287637332000145, 15.03457378000007, 0.0 ], [ 78.288311587000067, 15.034814530000119, 0.0 ], [ 78.288799279999978, 15.03471157300004, 0.0 ] ] ] ] } },
{ "type": "Feature", "properties": { "Name": "1", "description": "<html xmlns:fo=\"http://www.w3.org/1999/XSL/Format\" xmlns:msxsl=\"urn:schemas-microsoft-com:xslt\">\n\n<head>\n\n<META http-equiv=\"Content-Type\" content=\"text/html\">\n\n<meta http-equiv=\"content-type\" content=\"text/html; charset=UTF-8\">\n\n</head>\n\n<body style=\"margin:0px 0px 0px 0px;overflow:auto;background:#FFFFFF;\">\n\n<table style=\"font-family:Arial,Verdana,Times;font-size:12px;text-align:left;width:100%;border-collapse:collapse;padding:3px 3px 3px 3px\">\n\n<tr style=\"text-align:center;font-weight:bold;background:#9CBCE2\">\n\n<td>Kallutla</td>\n\n</tr>\n\n<tr>\n\n<td>\n\n<table style=\"font-family:Arial,Verdana,Times;font-size:12px;text-align:left;width:100%;border-spacing:0px; padding:3px 3px 3px 3px\">\n\n<tr>\n\n<td>FID</td>\n\n<td>8068</td>\n\n</tr>\n\n<tr bgcolor=\"#D4E4F3\">\n\n<td>FID_</td>\n\n<td>0</td>\n\n</tr>\n\n<tr>\n\n<td>Remarks</td>\n\n<td></td>\n\n</tr>\n\n<tr bgcolor=\"#D4E4F3\">\n\n<td>V_Name</td>\n\n<td>Kallutla</td>\n\n</tr>\n\n<tr>\n\n<td>M_Name</td>\n\n<td>Mylavaram</td>\n\n</tr>\n\n<tr bgcolor=\"#D4E4F3\">\n\n<td>D_Name</td>\n\n<td>Kadapa</td>\n\n</tr>\n\n<tr>\n\n<td>DMV_Code</td>\n\n<td>1102004</td>\n\n</tr>\n\n<tr bgcolor=\"#D4E4F3\">\n\n<td>Parcel_num</td>\n\n<td>349</td>\n\n</tr>\n\n<tr>\n\n<td>Descriptio</td>\n\n<td>Parcel Boundary</td>\n\n</tr>\n\n<tr bgcolor=\"#D4E4F3\">\n\n<td>Parcel_Typ</td>\n\n<td></td>\n\n</tr>\n\n<tr>\n\n<td>Shape_Leng</td>\n\n<td>0.089881</td>\n\n</tr>\n\n<tr bgcolor=\"#D4E4F3\">\n\n<td>Shape_Le_1</td>\n\n<td>0.089881</td>\n\n</tr>\n\n</table>\n\n</td>\n\n</tr>\n\n</table>\n\n</body>\n\n</html>", "timestamp": null, "begin": null, "end": null, "altitudeMode": null, "tessellate": -1, "extrude": 0, "visibility": -1, "drawOrder": null, "icon": null, "snippet": "" }, "geometry": { "type": "MultiPolygon", "coordinates": [ [ [ [ 78.31579241999998, 15.02561930000013, 0.0 ], [ 78.314291583000056, 15.02496670400012, 0.0 ], [ 78.313777104000053, 15.02433141800015, 0.0 ], [ 78.313571576000129, 15.024077629000031, 0.0 ], [ 78.313417614000173, 15.02408019000012, 0.0 ], [ 78.312994244000095, 15.024087233000101, 0.0 ], [ 78.311483889000101, 15.02411235800014, 0.0 ], [ 78.312322933000075, 15.023116593000051, 0.0 ], [ 78.312478640000108, 15.02193942200012, 0.0 ], [ 78.312294018999978, 15.02164995000015, 0.0 ], [ 78.312235461000114, 15.0214135380001, 0.0 ], [ 78.311999465000156, 15.020475813000081, 0.0 ], [ 78.31211963800007, 15.02020444600009, 0.0 ], [ 78.312707696000018, 15.01887123800009, 0.0 ], [ 78.313551640000071, 15.01690071400014, 0.0 ], [ 78.313564425000152, 15.01631116600004, 0.0 ], [ 78.313374809000095, 15.01524790100007, 0.0 ], [ 78.312992725000072, 15.01315700599997, 0.0 ], [ 78.313371366000069, 15.01299969100001, 0.0 ], [ 78.313171016000183, 15.012338447000049, 0.0 ], [ 78.313145134000195, 15.01225302500006, 0.0 ], [ 78.312396212000181, 15.01210983800002, 0.0 ], [ 78.311234804000037, 15.012012294000099, 0.0 ], [ 78.311242879000076, 15.01188933300017, 0.0 ], [ 78.310626155000193, 15.0117714220001, 0.0 ], [ 78.311058249000098, 15.00871351100011, 0.0 ], [ 78.311311327000055, 15.00862219500004, 0.0 ], [ 78.312342643000136, 15.008250070000029, 0.0 ], [ 78.314709910000147, 15.00738973300003, 0.0 ], [ 78.316883834000066, 15.006570860000011, 0.0 ], [ 78.31692206200006, 15.006519535000111, 0.0 ], [ 78.319500098000162, 15.005568295000099, 0.0 ], [ 78.321021090999977, 15.008498583000121, 0.0 ], [ 78.321781796000153, 15.010018970000029, 0.0 ], [ 78.322142182000107, 15.01182741900004, 0.0 ], [ 78.322812600000191, 15.0137459550001, 0.0 ], [ 78.323297487000048, 15.01533156300008, 0.0 ], [ 78.322894989000133, 15.01642795300018, 0.0 ], [ 78.322638950000169, 15.016991331000041, 0.0 ], [ 78.322197245000154, 15.01801665300019, 0.0 ], [ 78.322566394000035, 15.01857382600002, 0.0 ], [ 78.323138477000043, 15.01938765800003, 0.0 ], [ 78.32303439500015, 15.019481259000029, 0.0 ], [ 78.32242055200004, 15.020075125000121, 0.0 ], [ 78.321573822000175, 15.02088418400001, 0.0 ], [ 78.320929031, 15.02145120300014, 0.0 ], [ 78.320813208000118, 15.021557039000189, 0.0 ], [ 78.319777192000174, 15.022410042000161, 0.0 ], [ 78.318623118000119, 15.02354356100005, 0.0 ], [ 78.317313546000094, 15.02465406300013, 0.0 ], [ 78.317139905000033, 15.024801309000051, 0.0 ], [ 78.316718095000112, 15.025057369000081, 0.0 ], [ 78.316081166000117, 15.025444015999989, 0.0 ], [ 78.31579241999998, 15.02561930000013, 0.0 ] ], [ [ 78.317457466000121, 15.012666258000079, 0.0 ], [ 78.317790069000182, 15.012554876000079, 0.0 ], [ 78.31792662600003, 15.011581144000161, 0.0 ], [ 78.318336609000085, 15.01094952100004, 0.0 ], [ 78.318188851000116, 15.01071737500018, 0.0 ], [ 78.317459474000088, 15.01107909000018, 0.0 ], [ 78.316658632999975, 15.01151195600011, 0.0 ], [ 78.315923768000062, 15.01117710600011, 0.0 ], [ 78.315541486000029, 15.011270082000181, 0.0 ], [ 78.315478064000104, 15.011561761000049, 0.0 ], [ 78.316114388000187, 15.012371690000011, 0.0 ], [ 78.31671012400011, 15.01228130100009, 0.0 ], [ 78.31712496200015, 15.011902148000051, 0.0 ], [ 78.317457466000121, 15.012666258000079, 0.0 ] ] ] ] } },
{ "type": "Feature", "properties": { "Name": "1", "description": "<html xmlns:fo=\"http://www.w3.org/1999/XSL/Format\" xmlns:msxsl=\"urn:schemas-microsoft-com:xslt\">\n\n<head>\n\n<META http-equiv=\"Content-Type\" content=\"text/html\">\n\n<meta http-equiv=\"content-type\" content=\"text/html; charset=UTF-8\">\n\n</head>\n\n<body style=\"margin:0px 0px 0px 0px;overflow:auto;background:#FFFFFF;\">\n\n<table style=\"font-family:Arial,Verdana,Times;font-size:12px;text-align:left;width:100%;border-collapse:collapse;padding:3px 3px 3px 3px\">\n\n<tr style=\"text-align:center;font-weight:bold;background:#9CBCE2\">\n\n<td>Kondasunkesula</td>\n\n</tr>\n\n<tr>\n\n<td>\n\n<table style=\"font-family:Arial,Verdana,Times;font-size:12px;text-align:left;width:100%;border-spacing:0px; padding:3px 3px 3px 3px\">\n\n<tr>\n\n<td>FID</td>\n\n<td>8681</td>\n\n</tr>\n\n<tr bgcolor=\"#D4E4F3\">\n\n<td>Remarks</td>\n\n<td>700,702,703,706 to 708 included</td>\n\n</tr>\n\n<tr>\n\n<td>V_Name</td>\n\n<td>Kondasunkesula</td>\n\n</tr>\n\n<tr bgcolor=\"#D4E4F3\">\n\n<td>M_Name</td>\n\n<td>Peddamudium</td>\n\n</tr>\n\n<tr>\n\n<td>D_Name</td>\n\n<td>Kadapa</td>\n\n</tr>\n\n<tr bgcolor=\"#D4E4F3\">\n\n<td>DMV_Code</td>\n\n<td>1103001</td>\n\n</tr>\n\n<tr>\n\n<td>Parcel_num</td>\n\n<td>710</td>\n\n</tr>\n\n<tr bgcolor=\"#D4E4F3\">\n\n<td>Descriptio</td>\n\n<td>ROAD</td>\n\n</tr>\n\n<tr>\n\n<td>Parcel_Typ</td>\n\n<td></td>\n\n</tr>\n\n<tr bgcolor=\"#D4E4F3\">\n\n<td>Shape_Leng</td>\n\n<td>0.064778</td>\n\n</tr>\n\n</table>\n\n</td>\n\n</tr>\n\n</table>\n\n</body>\n\n</html>", "timestamp": null, "begin": null, "end": null, "altitudeMode": null, "tessellate": -1, "extrude": 0, "visibility": -1, "drawOrder": null, "icon": null, "snippet": "" }, "geometry": { "type": "MultiPolygon", "coordinates": [ [ [ [ 78.314479812000116, 15.036616673000079, 0.0 ], [ 78.313480428000048, 15.036736661000081, 0.0 ], [ 78.312745018000101, 15.03684581100004, 0.0 ], [ 78.312288289000037, 15.03691548200004, 0.0 ], [ 78.311826915999973, 15.03697741100012, 0.0 ], [ 78.311425150000161, 15.03701998700007, 0.0 ], [ 78.310640196, 15.037120622000151, 0.0 ], [ 78.309979875000181, 15.03719880800003, 0.0 ], [ 78.309422511000093, 15.03732576300018, 0.0 ], [ 78.308694842000193, 15.037494521000101, 0.0 ], [ 78.307883568000193, 15.037688050000041, 0.0 ], [ 78.307630432000053, 15.037761978000111, 0.0 ], [ 78.306439841000042, 15.03801666200002, 0.0 ], [ 78.306070588000125, 15.03797602100013, 0.0 ], [ 78.305263184000125, 15.037907899000171, 0.0 ], [ 78.304033888, 15.037799522, 0.0 ], [ 78.302412888000163, 15.037446525000011, 0.0 ], [ 78.300824402000046, 15.03719880800003, 0.0 ], [ 78.300318130000051, 15.03618626400009, 0.0 ], [ 78.298353537000139, 15.030195024000021, 0.0 ], [ 78.299005851000118, 15.02941658400005, 0.0 ], [ 78.299444860999984, 15.02891660000012, 0.0 ], [ 78.302250322000077, 15.029037005000189, 0.0 ], [ 78.303501577000134, 15.028637746000131, 0.0 ], [ 78.304045399000188, 15.028438956000169, 0.0 ], [ 78.305036059000088, 15.02811411400012, 0.0 ], [ 78.306175544000098, 15.027602270000051, 0.0 ], [ 78.306816843000149, 15.02729832400013, 0.0 ], [ 78.307524844, 15.026982866000139, 0.0 ], [ 78.309050289000197, 15.02629116500003, 0.0 ], [ 78.311068223000177, 15.025366567000111, 0.0 ], [ 78.312453072000096, 15.024738857, 0.0 ], [ 78.312480561000143, 15.02470608200008, 0.0 ], [ 78.312757726000086, 15.024372173000071, 0.0 ], [ 78.312994244000095, 15.024087233000101, 0.0 ], [ 78.313417614000173, 15.02408019000012, 0.0 ], [ 78.313571576000129, 15.024077629000031, 0.0 ], [ 78.313777104000053, 15.02433141800015, 0.0 ], [ 78.314291583000056, 15.02496670400012, 0.0 ], [ 78.31579241999998, 15.02561930000013, 0.0 ], [ 78.316081166000117, 15.025444015999989, 0.0 ], [ 78.316718095000112, 15.025057369000081, 0.0 ], [ 78.317139905000033, 15.024801309000051, 0.0 ], [ 78.317313546000094, 15.02465406300013, 0.0 ], [ 78.317473125000049, 15.024811400999971, 0.0 ], [ 78.317706907000058, 15.02505653800012, 0.0 ], [ 78.317847589000166, 15.02520405300015, 0.0 ], [ 78.318210398000076, 15.025710835000149, 0.0 ], [ 78.318717596999988, 15.02652069300018, 0.0 ], [ 78.319268403000081, 15.02739583800002, 0.0 ], [ 78.319859130000054, 15.028249567000049, 0.0 ], [ 78.320102637000048, 15.02887745000004, 0.0 ], [ 78.320382165000069, 15.02962300400009, 0.0 ], [ 78.320609811000054, 15.03016061799997, 0.0 ], [ 78.320978154999978, 15.030906937, 0.0 ], [ 78.321095519000096, 15.03115247900007, 0.0 ], [ 78.321256253000115, 15.03149160000015, 0.0 ], [ 78.321643460000075, 15.032217311000069, 0.0 ], [ 78.321863995000115, 15.03283710900001, 0.0 ], [ 78.322365263, 15.033918353000161, 0.0 ], [ 78.322892085000092, 15.034919796000111, 0.0 ], [ 78.321788244000118, 15.035371119999979, 0.0 ], [ 78.321456922000095, 15.03591300100015, 0.0 ], [ 78.321184432999985, 15.036281480000181, 0.0 ], [ 78.321300914000119, 15.03659694900006, 0.0 ], [ 78.321226235000097, 15.03675988400016, 0.0 ], [ 78.320241560000056, 15.03683729600016, 0.0 ], [ 78.319298686000195, 15.03688838800014, 0.0 ], [ 78.318620560000056, 15.03693947900018, 0.0 ], [ 78.315774135000197, 15.03756806200005, 0.0 ], [ 78.315445135000118, 15.03708423900008, 0.0 ], [ 78.315042595000023, 15.03654932500007, 0.0 ], [ 78.314479812000116, 15.036616673000079, 0.0 ] ] ] ] } },
{ "type": "Feature", "properties": { "Name": "1", "description": null, "timestamp": null, "begin": null, "end": null, "altitudeMode": null, "tessellate": 1, "extrude": 0, "visibility": -1, "drawOrder": null, "icon": null, "snippet": null }, "geometry": { "type": "Polygon", "coordinates": [ [ [ 78.342830949841954, 15.00263818422636, 0.0 ], [ 78.345859196017912, 14.998944650020659, 0.0 ], [ 78.347969686075373, 14.99864720420168, 0.0 ], [ 78.348459497936204, 14.998104578259481, 0.0 ], [ 78.352718116522823, 14.99449159728721, 0.0 ], [ 78.355341485740709, 14.990723150260679, 0.0 ], [ 78.358517937352673, 14.98791523919714, 0.0 ], [ 78.359870908580234, 14.985633960695081, 0.0 ], [ 78.364531488143484, 14.984218648502759, 0.0 ], [ 78.366147738235483, 14.982814270972259, 0.0 ], [ 78.368353555938086, 14.98196553369514, 0.0 ], [ 78.371355495236656, 14.98037400090139, 0.0 ], [ 78.373532180519064, 14.979617904976459, 0.0 ], [ 78.376724878038317, 14.98729675297602, 0.0 ], [ 78.373657612096451, 14.992252885463889, 0.0 ], [ 78.371151509000825, 14.99726826043627, 0.0 ], [ 78.372609043817903, 15.004491155397711, 0.0 ], [ 78.36396464342171, 15.010217347613141, 0.0 ], [ 78.350070993304328, 15.011610118682279, 0.0 ], [ 78.344527660363724, 15.008297716141159, 0.0 ], [ 78.342830949841954, 15.00263818422636, 0.0 ] ] ] } },
{ "type": "Feature", "properties": { "Name": "1", "description": null, "timestamp": null, "begin": null, "end": null, "altitudeMode": null, "tessellate": 1, "extrude": 0, "visibility": -1, "drawOrder": null, "icon": null, "snippet": null }, "geometry": { "type": "Polygon", "coordinates": [ [ [ 78.35979723302286, 14.97690350198007, 0.0 ], [ 78.35956686065721, 14.976386310274419, 0.0 ], [ 78.35992577079935, 14.97610574738718, 0.0 ], [ 78.359941380772312, 14.975248443933051, 0.0 ], [ 78.359067225174286, 14.974017280864331, 0.0 ], [ 78.360797030747378, 14.97269743523799, 0.0 ], [ 78.361768597086908, 14.97110132412018, 0.0 ], [ 78.364540653876958, 14.975385301327449, 0.0 ], [ 78.362439470370234, 14.97690267969344, 0.0 ], [ 78.362281677985791, 14.97673770849909, 0.0 ], [ 78.360201303060421, 14.97666775648244, 0.0 ], [ 78.35979723302286, 14.97690350198007, 0.0 ] ] ] } },
{ "type": "Feature", "properties": { "Name": "1", "description": null, "timestamp": null, "begin": null, "end": null, "altitudeMode": null, "tessellate": 1, "extrude": 0, "visibility": -1, "drawOrder": null, "icon": null, "snippet": null }, "geometry": { "type": "Polygon", "coordinates": [ [ [ 78.345940821008227, 14.998870208949571, 0.0 ], [ 78.345706544456107, 14.99784274086212, 0.0 ], [ 78.346108852633293, 14.99625897618604, 0.0 ], [ 78.345471361117063, 14.99161312628382, 0.0 ], [ 78.349473582665098, 14.98810961398986, 0.0 ], [ 78.35142501778877, 14.986621969025769, 0.0 ], [ 78.353333576480409, 14.98503981990369, 0.0 ], [ 78.354838386992938, 14.98387542877855, 0.0 ], [ 78.35616513814557, 14.982772918951561, 0.0 ], [ 78.357995809442855, 14.98121447126902, 0.0 ], [ 78.360481932458669, 14.97865912318994, 0.0 ], [ 78.362059644803779, 14.977218020219761, 0.0 ], [ 78.362413186378603, 14.976941374149281, 0.0 ], [ 78.364487205267693, 14.975470508326779, 0.0 ], [ 78.37147197628515, 14.980346422722979, 0.0 ], [ 78.368256720522879, 14.9820304449305, 0.0 ], [ 78.366151327171721, 14.982711040415509, 0.0 ], [ 78.364601178454407, 14.98421450428707, 0.0 ], [ 78.359804431458556, 14.985610749680941, 0.0 ], [ 78.358391636707594, 14.988068485814861, 0.0 ], [ 78.355107518114096, 14.990787433625799, 0.0 ], [ 78.352635403872128, 14.99450956339914, 0.0 ], [ 78.34790948654765, 14.99865927444424, 0.0 ], [ 78.345940821008227, 14.998870208949571, 0.0 ] ] ] } },
{ "type": "Feature", "properties": { "Name": "1", "description": "<html xmlns:fo=\"http://www.w3.org/1999/XSL/Format\" xmlns:msxsl=\"urn:schemas-microsoft-com:xslt\">\n\n<head>\n\n<META http-equiv=\"Content-Type\" content=\"text/html\">\n\n<meta http-equiv=\"content-type\" content=\"text/html; charset=UTF-8\">\n\n</head>\n\n<body style=\"margin:0px 0px 0px 0px;overflow:auto;background:#FFFFFF;\">\n\n<table style=\"font-family:Arial,Verdana,Times;font-size:12px;text-align:left;width:100%;border-collapse:collapse;padding:3px 3px 3px 3px\">\n\n<tr style=\"text-align:center;font-weight:bold;background:#9CBCE2\">\n\n<td>Bestavemula Venkatapura</td>\n\n</tr>\n\n<tr>\n\n<td>\n\n<table style=\"font-family:Arial,Verdana,Times;font-size:12px;text-align:left;width:100%;border-spacing:0px; padding:3px 3px 3px 3px\">\n\n<tr>\n\n<td>FID</td>\n\n<td>8072</td>\n\n</tr>\n\n<tr bgcolor=\"#D4E4F3\">\n\n<td>FID_</td>\n\n<td>0</td>\n\n</tr>\n\n<tr>\n\n<td>Remarks</td>\n\n<td></td>\n\n</tr>\n\n<tr bgcolor=\"#D4E4F3\">\n\n<td>V_Name</td>\n\n<td>Bestavemula Venkatapura</td>\n\n</tr>\n\n<tr>\n\n<td>M_Name</td>\n\n<td>Mylavaram</td>\n\n</tr>\n\n<tr bgcolor=\"#D4E4F3\">\n\n<td>D_Name</td>\n\n<td>Kadapa</td>\n\n</tr>\n\n<tr>\n\n<td>DMV_Code</td>\n\n<td>1102002</td>\n\n</tr>\n\n<tr bgcolor=\"#D4E4F3\">\n\n<td>Parcel_num</td>\n\n<td>9</td>\n\n</tr>\n\n<tr>\n\n<td>Descriptio</td>\n\n<td>Parcel Boundary</td>\n\n</tr>\n\n<tr bgcolor=\"#D4E4F3\">\n\n<td>Parcel_Typ</td>\n\n<td></td>\n\n</tr>\n\n<tr>\n\n<td>Shape_Leng</td>\n\n<td>0.077996</td>\n\n</tr>\n\n<tr bgcolor=\"#D4E4F3\">\n\n<td>Shape_Le_1</td>\n\n<td>0.077996</td>\n\n</tr>\n\n</table>\n\n</td>\n\n</tr>\n\n</table>\n\n</body>\n\n</html>", "timestamp": null, "begin": null, "end": null, "altitudeMode": null, "tessellate": -1, "extrude": 0, "visibility": -1, "drawOrder": null, "icon": null, "snippet": "" }, "geometry": { "type": "MultiPolygon", "coordinates": [ [ [ [ 78.299005851000118, 15.02941658400005, 0.0 ], [ 78.298353537000139, 15.030195024000021, 0.0 ], [ 78.297678308000116, 15.02965369900005, 0.0 ], [ 78.296982620000108, 15.02917075300007, 0.0 ], [ 78.295807347000107, 15.029216554000021, 0.0 ], [ 78.295793162000109, 15.02921704800008, 0.0 ], [ 78.293712455000161, 15.029289471000141, 0.0 ], [ 78.293381470000043, 15.02923292300005, 0.0 ], [ 78.293302719, 15.02923957600018, 0.0 ], [ 78.288227667000058, 15.028401814000119, 0.0 ], [ 78.28805200700009, 15.028372817000101, 0.0 ], [ 78.287227968000195, 15.024452690000031, 0.0 ], [ 78.286160335000034, 15.021791228000099, 0.0 ], [ 78.286231719000114, 15.01963186700004, 0.0 ], [ 78.285744286000181, 15.018182299000051, 0.0 ], [ 78.285691462000045, 15.017998129000031, 0.0 ], [ 78.284958590000031, 15.01593636500019, 0.0 ], [ 78.284630889000141, 15.015146698000139, 0.0 ], [ 78.283401350000133, 15.012086596000071, 0.0 ], [ 78.282230655000149, 15.008917154000191, 0.0 ], [ 78.281918303000054, 15.00722096100009, 0.0 ], [ 78.282102968000174, 15.00727968400008, 0.0 ], [ 78.283108034000179, 15.00759929500015, 0.0 ], [ 78.283678702000145, 15.00728381900012, 0.0 ], [ 78.283874120000178, 15.007708390000181, 0.0 ], [ 78.284533965000151, 15.00759907500009, 0.0 ], [ 78.284615720000033, 15.007777477000101, 0.0 ], [ 78.285006533000171, 15.00771728300009, 0.0 ], [ 78.285270055000126, 15.00749478800009, 0.0 ], [ 78.286469347000036, 15.007253723000129, 0.0 ], [ 78.286360325000089, 15.007003167, 0.0 ], [ 78.286811181000076, 15.00695372700017, 0.0 ], [ 78.287343599000053, 15.00689520900011, 0.0 ], [ 78.287409216000071, 15.006988911000059, 0.0 ], [ 78.28860677300014, 15.00677740900017, 0.0 ], [ 78.288602144000038, 15.006679265, 0.0 ], [ 78.289209527000082, 15.006652947000131, 0.0 ], [ 78.289227406000066, 15.006661636999979, 0.0 ], [ 78.290046238000116, 15.007059911000059, 0.0 ], [ 78.290498484000068, 15.007599281000131, 0.0 ], [ 78.291025631000082, 15.00864150700005, 0.0 ], [ 78.291332790000183, 15.0086168470001, 0.0 ], [ 78.291451370000061, 15.008481885000149, 0.0 ], [ 78.291906143000119, 15.008615924000139, 0.0 ], [ 78.292011374000197, 15.008712183, 0.0 ], [ 78.292268592000141, 15.00989280099998, 0.0 ], [ 78.292446560000144, 15.01070967100009, 0.0 ], [ 78.29302401700005, 15.01336017300002, 0.0 ], [ 78.293081068000049, 15.01366461700013, 0.0 ], [ 78.29308777100016, 15.01370038400017, 0.0 ], [ 78.29310453800008, 15.01378985700001, 0.0 ], [ 78.293175963000181, 15.01417100100014, 0.0 ], [ 78.293188674000078, 15.01442938800011, 0.0 ], [ 78.293218010000032, 15.01480019000007, 0.0 ], [ 78.293236792000187, 15.01504427999998, 0.0 ], [ 78.293318746000182, 15.01610932, 0.0 ], [ 78.29333628400002, 15.016337240000039, 0.0 ], [ 78.293376322000142, 15.01689882600016, 0.0 ], [ 78.293429783000079, 15.01764867000003, 0.0 ], [ 78.293442146000075, 15.01780211900018, 0.0 ], [ 78.29344702700007, 15.01786269700006, 0.0 ], [ 78.293447164000156, 15.01786440000012, 0.0 ], [ 78.293455682000172, 15.01797011600013, 0.0 ], [ 78.293474512000103, 15.018245237000089, 0.0 ], [ 78.293602347000103, 15.01985347700008, 0.0 ], [ 78.293674120000105, 15.02094033000003, 0.0 ], [ 78.29398196600016, 15.021581768000029, 0.0 ], [ 78.294251154000051, 15.02214265600003, 0.0 ], [ 78.294366609000122, 15.022369764000191, 0.0 ], [ 78.29459954500004, 15.02282796300017, 0.0 ], [ 78.294617847000097, 15.02286396400007, 0.0 ], [ 78.294646521000175, 15.02292415200003, 0.0 ], [ 78.297239038000043, 15.024565331000019, 0.0 ], [ 78.299728337000033, 15.024383403999989, 0.0 ], [ 78.300683037000113, 15.02544102000013, 0.0 ], [ 78.299444860999984, 15.02891660000012, 0.0 ], [ 78.299005851000118, 15.02941658400005, 0.0 ] ], [ [ 78.292880213000046, 15.02712298400019, 0.0 ], [ 78.292325047000134, 15.027243371000109, 0.0 ], [ 78.291663130000188, 15.027369694000191, 0.0 ], [ 78.29135979400013, 15.02784472500014, 0.0 ], [ 78.291374572999985, 15.028122026000061, 0.0 ], [ 78.291418583999985, 15.02822589800013, 0.0 ], [ 78.291692513000044, 15.02812153600002, 0.0 ], [ 78.291942259000052, 15.02818632900016, 0.0 ], [ 78.292260802000044, 15.02795783500005, 0.0 ], [ 78.293474429000185, 15.02765380300014, 0.0 ], [ 78.293632097999989, 15.02760408300014, 0.0 ], [ 78.293450514000085, 15.027294430000151, 0.0 ], [ 78.293273357000089, 15.027312335000151, 0.0 ], [ 78.293165539000029, 15.027000085000051, 0.0 ], [ 78.292880213000046, 15.02712298400019, 0.0 ] ] ] ] } },
{ "type": "Feature", "properties": { "Name": "1", "description": null, "timestamp": null, "begin": null, "end": null, "altitudeMode": null, "tessellate": -1, "extrude": 0, "visibility": -1, "drawOrder": null, "icon": null, "snippet": "" }, "geometry": { "type": "MultiPolygon", "coordinates": [ [ [ [ 78.342834251973159, 15.00911010989199, 0.0 ], [ 78.340167976394298, 15.00979633056124, 0.0 ], [ 78.338710746009269, 15.01017137866865, 0.0 ], [ 78.336580087394566, 15.01006266145566, 0.0 ], [ 78.335105777212334, 15.009987434531411, 0.0 ], [ 78.335104357016462, 15.009969580473239, 0.0 ], [ 78.335081956000352, 15.00996872400032, 0.0 ], [ 78.33488568304881, 15.00875073640867, 0.0 ], [ 78.334695966000368, 15.007573432000189, 0.0 ], [ 78.334489164000331, 15.00634759100029, 0.0 ], [ 78.334463397339164, 15.0061938886451, 0.0 ], [ 78.334242028907624, 15.005313821648031, 0.0 ], [ 78.334047382349411, 15.00428549838006, 0.0 ], [ 78.333916963750255, 15.00313753200601, 0.0 ], [ 78.333201582434469, 15.0010772039002, 0.0 ], [ 78.3327374266334, 14.999677107966249, 0.0 ], [ 78.332566129662325, 14.999407204877061, 0.0 ], [ 78.332274596024376, 14.998761223244969, 0.0 ], [ 78.332219970603944, 14.998589598227451, 0.0 ], [ 78.332064081212195, 14.998099816743149, 0.0 ], [ 78.331781689438401, 14.99730960535811, 0.0 ], [ 78.331159119197025, 14.99605804505399, 0.0 ], [ 78.329969869967442, 14.993605663512261, 0.0 ], [ 78.32968719306939, 14.99324735849973, 0.0 ], [ 78.328671773740155, 14.991588319889621, 0.0 ], [ 78.32760437149409, 14.98956432173048, 0.0 ], [ 78.326429615111579, 14.987582683747689, 0.0 ], [ 78.325605789377391, 14.98597046977096, 0.0 ], [ 78.325381760677772, 14.9855338875455, 0.0 ], [ 78.324583038876611, 14.983942648122479, 0.0 ], [ 78.32679155337992, 14.982545598938181, 0.0 ], [ 78.330169404635924, 14.983736204949709, 0.0 ], [ 78.332354642286774, 14.984461218062419, 0.0 ], [ 78.333210852685113, 14.9856877913323, 0.0 ], [ 78.335834049056132, 14.984495913495159, 0.0 ], [ 78.334738251787499, 14.98227637166382, 0.0 ], [ 78.339426990993005, 14.97799331450225, 0.0 ], [ 78.340174903089633, 14.98052448913012, 0.0 ], [ 78.340556832327536, 14.98190078130386, 0.0 ], [ 78.34089051931511, 14.983474782400609, 0.0 ], [ 78.34088977987102, 14.98400644789626, 0.0 ], [ 78.34096224700022, 14.98491571300036, 0.0 ], [ 78.341405734000261, 14.98556315500025, 0.0 ], [ 78.341575700391786, 14.985822910057379, 0.0 ], [ 78.342448352000361, 14.98715656000002, 0.0 ], [ 78.343306927000242, 14.98843371300029, 0.0 ], [ 78.343843872000207, 14.98922328400033, 0.0 ], [ 78.34450143100031, 14.990183787000319, 0.0 ], [ 78.345225979000247, 14.99122512800022, 0.0 ], [ 78.345527448000212, 14.991975083, 0.0 ], [ 78.345683362000329, 14.99310641700021, 0.0 ], [ 78.34569892300027, 14.993221815000309, 0.0 ], [ 78.345857313900297, 14.99446435640715, 0.0 ], [ 78.346051031000286, 14.995984024000339, 0.0 ], [ 78.345943231392994, 14.99652875626993, 0.0 ], [ 78.345742478000261, 14.9975432020002, 0.0 ], [ 78.345672327000216, 14.99788890000019, 0.0 ], [ 78.345877778000272, 14.99887231700029, 0.0 ], [ 78.345643154085849, 14.99908124702675, 0.0 ], [ 78.342856237152887, 15.00260721551858, 0.0 ], [ 78.343032550022755, 15.00337156456702, 0.0 ], [ 78.343563208428506, 15.00505310152186, 0.0 ], [ 78.344032977372677, 15.006661905979209, 0.0 ], [ 78.344607420468549, 15.008466815625921, 0.0 ], [ 78.344553990041902, 15.008389094425469, 0.0 ], [ 78.342834251973159, 15.00911010989199, 0.0 ] ] ] ] } }
]
}
