{
"type": "FeatureCollection",
"name": "1___76_",
"crs": { "type": "name", "properties": { "name": "urn:ogc:def:crs:OGC:1.3:CRS84" } },
"features": [
{ "type": "Feature", "properties": { "Name": "1", "description": null, "timestamp": null, "begin": null, "end": null, "altitudeMode": null, "tessellate": -1, "extrude": 0, "visibility": -1, "drawOrder": null, "icon": null }, "geometry": { "type": "Polygon", "coordinates": [ [ [ 78.231294410700002, 14.9233155456, 0.0 ], [ 78.231294410700002, 14.9233155456, 0.0 ], [ 78.227304732799993, 14.9250326028, 0.0 ], [ 78.225038367799996, 14.9222764751, 0.0 ], [ 78.220817114799999, 14.9244326273, 0.0 ], [ 78.219097751225448, 14.923433517084399, 0.0 ], [ 78.218852922214111, 14.922683209028451, 0.0 ], [ 78.218170821492862, 14.91310457942066, 0.0 ], [ 78.218692287038863, 14.90098640638195, 0.0 ], [ 78.219799077700003, 14.896784113900001, 0.0 ], [ 78.230594762899997, 14.897718252100001, 0.0 ], [ 78.233169189199998, 14.900962679699999, 0.0 ], [ 78.2350156201, 14.9019222024, 0.0 ], [ 78.237019858300002, 14.9066994285, 0.0 ], [ 78.237191315700002, 14.9094462042, 0.0 ], [ 78.233915974799999, 14.912552996400001, 0.0 ], [ 78.233524724299997, 14.916230176599999, 0.0 ], [ 78.235229327200003, 14.917522721699999, 0.0 ], [ 78.231843569600002, 14.918485924, 0.0 ], [ 78.231294410700002, 14.9233155456, 0.0 ] ] ] } },
{ "type": "Feature", "properties": { "Name": "1", "description": null, "timestamp": null, "begin": null, "end": null, "altitudeMode": null, "tessellate": 1, "extrude": 0, "visibility": -1, "drawOrder": null, "icon": null }, "geometry": { "type": "Polygon", "coordinates": [ [ [ 78.241863154489153, 14.94048591379833, 0.0 ], [ 78.240952824437045, 14.933348832760741, 0.0 ], [ 78.245628263966495, 14.93378042186089, 0.0 ], [ 78.250065516965478, 14.935659991462311, 0.0 ], [ 78.250748747887968, 14.93746808648941, 0.0 ], [ 78.241863154489153, 14.94048591379833, 0.0 ] ] ] } }
]
}
