{
"type": "FeatureCollection",
"name": "1___111_",
"crs": { "type": "name", "properties": { "name": "urn:ogc:def:crs:OGC:1.3:CRS84" } },
"features": [
{ "type": "Feature", "properties": { "Name": "1", "description": null, "timestamp": null, "begin": null, "end": null, "altitudeMode": null, "tessellate": 1, "extrude": 0, "visibility": -1, "drawOrder": null, "icon": null }, "geometry": { "type": "Polygon", "coordinates": [ [ [ 78.147173990711948, 15.72838760242967, 0.0 ], [ 78.190382536412898, 15.71248646881828, 0.0 ], [ 78.198130279156217, 15.715356669498041, 0.0 ], [ 78.216535712372263, 15.75022319068956, 0.0 ], [ 78.242047429758486, 15.768911657968591, 0.0 ], [ 78.245876953658438, 15.787252023441919, 0.0 ], [ 78.229323161379256, 15.80624222642621, 0.0 ], [ 78.212133700425028, 15.793236122495189, 0.0 ], [ 78.169512799166199, 15.762993233355839, 0.0 ], [ 78.147828520050268, 15.737259563843629, 0.0 ], [ 78.148030200314864, 15.736513828256021, 0.0 ], [ 78.147173990711948, 15.72838760242967, 0.0 ] ] ] } },
{ "type": "Feature", "properties": { "Name": "1", "description": null, "timestamp": null, "begin": null, "end": null, "altitudeMode": null, "tessellate": 1, "extrude": 0, "visibility": -1, "drawOrder": null, "icon": null }, "geometry": { "type": "Polygon", "coordinates": [ [ [ 78.078557236692745, 15.563848721860261, 0.0 ], [ 78.116282944917842, 15.500778777732901, 0.0 ], [ 78.219210642000178, 15.51437070841782, 0.0 ], [ 78.220148844443656, 15.49957404698681, 0.0 ], [ 78.2095681703194, 15.408653552107459, 0.0 ], [ 78.601495833483597, 15.50277935436576, 0.0 ], [ 78.621450692343217, 15.67551780864359, 0.0 ], [ 78.544033736019514, 15.75067294243674, 0.0 ], [ 78.423319276998456, 15.753938799312991, 0.0 ], [ 78.418226513630415, 15.675538180717989, 0.0 ], [ 78.078557236692745, 15.563848721860261, 0.0 ] ] ] } }
]
}
