{
"type": "FeatureCollection",
"name": "1___43_",
"crs": { "type": "name", "properties": { "name": "urn:ogc:def:crs:OGC:1.3:CRS84" } },
"features": [
{ "type": "Feature", "properties": { "Name": "1", "description": null, "timestamp": null, "begin": null, "end": null, "altitudeMode": null, "tessellate": 1, "extrude": 0, "visibility": -1, "drawOrder": null, "icon": null }, "geometry": { "type": "Polygon", "coordinates": [ [ [ 76.87739337496285, 14.80083550835198, 0.0 ], [ 76.943143239580792, 14.8013497707467, 0.0 ], [ 76.996152682319249, 14.7982606442216, 0.0 ], [ 77.048383969190766, 14.799361309577829, 0.0 ], [ 77.048308665235368, 14.809569398298409, 0.0 ], [ 77.102320721888105, 14.811003882617319, 0.0 ], [ 77.10797836963448, 14.89012917549038, 0.0 ], [ 76.876782328267439, 14.89119360490163, 0.0 ], [ 76.87739337496285, 14.80083550835198, 0.0 ] ] ] } }
]
}
