{
"type": "FeatureCollection",
"name": "1___27_",
"crs": { "type": "name", "properties": { "name": "urn:ogc:def:crs:OGC:1.3:CRS84" } },
"features": [
{ "type": "Feature", "properties": { "Name": "1", "description": null, "timestamp": null, "begin": null, "end": null, "altitudeMode": null, "tessellate": 1, "extrude": 0, "visibility": -1, "drawOrder": null, "icon": null }, "geometry": { "type": "Polygon", "coordinates": [ [ [ 77.71169594307699, 15.800356171721401, 0.0 ], [ 77.621153358114839, 15.789783422552571, 0.0 ], [ 77.632616190529177, 15.69471237654299, 0.0 ], [ 77.720981086102029, 15.695318834430569, 0.0 ], [ 77.72467319548393, 15.621619298986911, 0.0 ], [ 77.753183125790571, 15.602710066473589, 0.0 ], [ 77.754730509417129, 15.601423202213249, 0.0 ], [ 77.759523791821323, 15.60139523906107, 0.0 ], [ 77.786790199795036, 15.570484727164359, 0.0 ], [ 77.923075179944504, 15.56125462951745, 0.0 ], [ 77.938432587196019, 15.625820173612039, 0.0 ], [ 77.967703603884289, 15.67932174467388, 0.0 ], [ 77.905805710152535, 15.67912035793935, 0.0 ], [ 77.901240988831645, 15.875607752216331, 0.0 ], [ 77.709497079269866, 15.88058074235877, 0.0 ], [ 77.71169594307699, 15.800356171721401, 0.0 ] ] ] } }
]
}
