{
"type": "FeatureCollection",
"name": "1___96_",
"crs": { "type": "name", "properties": { "name": "urn:ogc:def:crs:OGC:1.3:CRS84" } },
"features": [
{ "type": "Feature", "properties": { "Name": "1", "description": null, "timestamp": null, "begin": null, "end": null, "altitudeMode": null, "tessellate": 1, "extrude": 0, "visibility": -1, "drawOrder": null, "icon": null }, "geometry": { "type": "Polygon", "coordinates": [ [ [ 78.076705060307305, 15.102367850596281, 0.0 ], [ 78.082370509697625, 15.10302915510068, 0.0 ], [ 78.086255582433182, 15.105402049112159, 0.0 ], [ 78.09220267447931, 15.109628173028099, 0.0 ], [ 78.09622925139054, 15.11265123659004, 0.0 ], [ 78.096723682374957, 15.115083877448461, 0.0 ], [ 78.090439056748849, 15.11367074540598, 0.0 ], [ 78.090073427265096, 15.11474357002268, 0.0 ], [ 78.0972471626024, 15.11928287469274, 0.0 ], [ 78.098363978960734, 15.12350571759419, 0.0 ], [ 78.093693948074574, 15.1264368827729, 0.0 ], [ 78.085923080913588, 15.12544074841276, 0.0 ], [ 78.080472363001419, 15.1174686930626, 0.0 ], [ 78.076845841660415, 15.11173208266999, 0.0 ], [ 78.074787434620177, 15.10529339980574, 0.0 ], [ 78.076705060307305, 15.102367850596281, 0.0 ] ] ] } },
{ "type": "Feature", "properties": { "Name": "1", "description": null, "timestamp": null, "begin": null, "end": null, "altitudeMode": null, "tessellate": 1, "extrude": 0, "visibility": -1, "drawOrder": null, "icon": null }, "geometry": { "type": "Polygon", "coordinates": [ [ [ 77.98874322313165, 15.13978180060111, 0.0 ], [ 78.007735510086292, 15.13548658144828, 0.0 ], [ 78.027936462091233, 15.14845763898907, 0.0 ], [ 77.999704622818825, 15.143925811347829, 0.0 ], [ 77.986133280966996, 15.14571494019747, 0.0 ], [ 77.972881544585675, 15.14173449227545, 0.0 ], [ 77.967355424400381, 15.13964024422607, 0.0 ], [ 77.965049984902549, 15.137591770689969, 0.0 ], [ 77.961901840598202, 15.135386494966189, 0.0 ], [ 77.954733148873117, 15.128731979910119, 0.0 ], [ 77.970988963184467, 15.128822735350511, 0.0 ], [ 77.973356593419552, 15.131492047887511, 0.0 ], [ 77.977608252294459, 15.137413490990699, 0.0 ], [ 77.97957385076019, 15.140082364442859, 0.0 ], [ 77.98874322313165, 15.13978180060111, 0.0 ] ] ] } },
{ "type": "Feature", "properties": { "Name": "1", "description": null, "timestamp": null, "begin": null, "end": null, "altitudeMode": null, "tessellate": 1, "extrude": 0, "visibility": -1, "drawOrder": null, "icon": null }, "geometry": { "type": "Polygon", "coordinates": [ [ [ 77.941379826572032, 15.18404327353371, 0.0 ], [ 77.943528477802147, 15.166933808346799, 0.0 ], [ 77.942552034980068, 15.15791636918679, 0.0 ], [ 77.945284710016921, 15.151864182372011, 0.0 ], [ 77.954512450121484, 15.145316903545069, 0.0 ], [ 77.956477843347045, 15.142307243382721, 0.0 ], [ 77.961394567385128, 15.14105408610447, 0.0 ], [ 77.979403928905455, 15.14754085127174, 0.0 ], [ 77.994181510594032, 15.148128329433151, 0.0 ], [ 77.99348325891161, 15.15545007926964, 0.0 ], [ 77.998675796397379, 15.15616059614595, 0.0 ], [ 78.002716106626266, 15.15363347930367, 0.0 ], [ 78.017436359864675, 15.149220137021841, 0.0 ], [ 78.027876232422301, 15.151559777319511, 0.0 ], [ 78.026689410224876, 15.156003676363619, 0.0 ], [ 78.036979967508785, 15.15571046735815, 0.0 ], [ 78.035259012418848, 15.163631991696789, 0.0 ], [ 78.027009779240643, 15.16234496001174, 0.0 ], [ 78.026225011432615, 15.176277250503439, 0.0 ], [ 78.032931455595929, 15.17616829292027, 0.0 ], [ 78.032326049517394, 15.184066758688839, 0.0 ], [ 78.026041546068853, 15.18698680511203, 0.0 ], [ 78.025627620921867, 15.190275800124869, 0.0 ], [ 78.026013455175701, 15.19656663052427, 0.0 ], [ 78.023580790396608, 15.19700423479536, 0.0 ], [ 77.98997336025289, 15.18208511067375, 0.0 ], [ 77.941379826572032, 15.18404327353371, 0.0 ] ] ] } },
{ "type": "Feature", "properties": { "Name": "1", "description": null, "timestamp": null, "begin": null, "end": null, "altitudeMode": null, "tessellate": -1, "extrude": 0, "visibility": -1, "drawOrder": null, "icon": null }, "geometry": { "type": "Polygon", "coordinates": [ [ [ 78.057804118700005, 15.2004537626, 0.0 ], [ 78.057519785400004, 15.1957379297, 0.0 ], [ 78.062174423100004, 15.1934230097, 0.0 ], [ 78.061631889400005, 15.1900581238, 0.0 ], [ 78.074613708499996, 15.184577923899999, 0.0 ], [ 78.076660760899998, 15.189191620300001, 0.0 ], [ 78.083058989899996, 15.192039016, 0.0 ], [ 78.082603957299995, 15.194243376599999, 0.0 ], [ 78.081921342499996, 15.197363452699999, 0.0 ], [ 78.082181812399995, 15.2013511651, 0.0 ], [ 78.085599202799997, 15.202985480700001, 0.0 ], [ 78.085360300199994, 15.215260092899999, 0.0 ], [ 78.072414361200003, 15.21240329, 0.0 ], [ 78.066197748899995, 15.210956406699999, 0.0 ], [ 78.061749824200007, 15.210633271800001, 0.0 ], [ 78.059361797600005, 15.210712848, 0.0 ], [ 78.056125732400005, 15.213039868, 0.0 ], [ 78.052655666600003, 15.2146453375, 0.0 ], [ 78.049329242200002, 15.2161127172, 0.0 ], [ 78.045598797899999, 15.217998462100001, 0.0 ], [ 78.042308814199998, 15.2189472099, 0.0 ], [ 78.038944897700006, 15.2071946317, 0.0 ], [ 78.057804118700005, 15.2004537626, 0.0 ] ] ] } }
]
}
