{
"type": "FeatureCollection",
"name": "1___102_",
"crs": { "type": "name", "properties": { "name": "urn:ogc:def:crs:OGC:1.3:CRS84" } },
"features": [
{ "type": "Feature", "properties": { "Name": "1", "description": null, "timestamp": null, "begin": null, "end": null, "altitudeMode": null, "tessellate": -1, "extrude": 0, "visibility": -1, "drawOrder": null, "icon": null }, "geometry": { "type": "Polygon", "coordinates": [ [ [ 78.233718564699998, 14.9432327921, 0.0 ], [ 78.232659019699994, 14.939970599, 0.0 ], [ 78.234865473900001, 14.9367110365, 0.0 ], [ 78.238391856700005, 14.9341689668, 0.0 ], [ 78.239696542, 14.9331139162, 0.0 ], [ 78.245688841, 14.9337400997, 0.0 ], [ 78.250069964399998, 14.935639119199999, 0.0 ], [ 78.250881835300007, 14.937495139899999, 0.0 ], [ 78.242566327600002, 14.9403488969, 0.0 ], [ 78.233718564699998, 14.9432327921, 0.0 ] ] ] } },
{ "type": "Feature", "properties": { "Name": "1", "description": null, "timestamp": null, "begin": null, "end": null, "altitudeMode": null, "tessellate": -1, "extrude": 0, "visibility": -1, "drawOrder": null, "icon": null }, "geometry": { "type": "Point", "coordinates": [ 78.223688527713762, 14.910191812290419, 0.0 ] } },
{ "type": "Feature", "properties": { "Name": "1", "description": null, "timestamp": null, "begin": null, "end": null, "altitudeMode": null, "tessellate": -1, "extrude": 0, "visibility": -1, "drawOrder": null, "icon": null }, "geometry": { "type": "Polygon", "coordinates": [ [ [ 78.231294410700002, 14.9233155456, 0.0 ], [ 78.231294410700002, 14.9233155456, 0.0 ], [ 78.227304732799993, 14.9250326028, 0.0 ], [ 78.225038367799996, 14.9222764751, 0.0 ], [ 78.220817114799999, 14.9244326273, 0.0 ], [ 78.215725824100005, 14.920691653, 0.0 ], [ 78.204615825, 14.9240204915, 0.0 ], [ 78.207786895400005, 14.917742498499999, 0.0 ], [ 78.213058597599996, 14.9106744266, 0.0 ], [ 78.213800128700001, 14.9057188075, 0.0 ], [ 78.218724542199993, 14.9000512814, 0.0 ], [ 78.219799077700003, 14.896784113900001, 0.0 ], [ 78.230594762899997, 14.897718252100001, 0.0 ], [ 78.233169189199998, 14.900962679699999, 0.0 ], [ 78.2350156201, 14.9019222024, 0.0 ], [ 78.237019858300002, 14.9066994285, 0.0 ], [ 78.237191315700002, 14.9094462042, 0.0 ], [ 78.233915974799999, 14.912552996400001, 0.0 ], [ 78.233524724299997, 14.916230176599999, 0.0 ], [ 78.235229327200003, 14.917522721699999, 0.0 ], [ 78.231843569600002, 14.918485924, 0.0 ], [ 78.231294410700002, 14.9233155456, 0.0 ] ] ] } },
{ "type": "Feature", "properties": { "Name": "1", "description": null, "timestamp": null, "begin": null, "end": null, "altitudeMode": null, "tessellate": -1, "extrude": 0, "visibility": -1, "drawOrder": null, "icon": null }, "geometry": { "type": "Point", "coordinates": [ 78.240833364873339, 14.935805484888419, 0.0 ] } }
]
}
