{
"type": "FeatureCollection",
"name": "1___69_",
"crs": { "type": "name", "properties": { "name": "urn:ogc:def:crs:OGC:1.3:CRS84" } },
"features": [
{ "type": "Feature", "properties": { "Name": "1", "description": null, "timestamp": null, "begin": null, "end": null, "altitudeMode": null, "tessellate": 1, "extrude": 0, "visibility": -1, "drawOrder": null, "icon": null }, "geometry": { "type": "Polygon", "coordinates": [ [ [ 78.40900537294182, 14.226454647046859, 0.0 ], [ 78.409762663631909, 14.224495886703689, 0.0 ], [ 78.409764977107969, 14.2244314268282, 0.0 ], [ 78.409367741789367, 14.216546636855, 0.0 ], [ 78.405433122069553, 14.216017308701201, 0.0 ], [ 78.404969768013444, 14.211247964289459, 0.0 ], [ 78.406534423634625, 14.209309262496429, 0.0 ], [ 78.404862797707509, 14.20479936248827, 0.0 ], [ 78.404496825582385, 14.2028111502452, 0.0 ], [ 78.404158946584403, 14.20116592380981, 0.0 ], [ 78.404130371193673, 14.200399267992619, 0.0 ], [ 78.404657242283733, 14.19991653956942, 0.0 ], [ 78.405571344309095, 14.19988648409854, 0.0 ], [ 78.408952192474359, 14.199528432224829, 0.0 ], [ 78.410316180594378, 14.198302571437431, 0.0 ], [ 78.411572419592957, 14.19675654784743, 0.0 ], [ 78.413107644773319, 14.195725555992849, 0.0 ], [ 78.413643468591317, 14.196155938567291, 0.0 ], [ 78.414145629907452, 14.19637305944641, 0.0 ], [ 78.413841250200193, 14.19795932447502, 0.0 ], [ 78.413560633948578, 14.199056261355841, 0.0 ], [ 78.41345841278978, 14.20107213733101, 0.0 ], [ 78.41297539955049, 14.20428710656056, 0.0 ], [ 78.412712647372842, 14.20428846100941, 0.0 ], [ 78.412846569472663, 14.20510803607959, 0.0 ], [ 78.412448851944475, 14.205157025269971, 0.0 ], [ 78.411594640320985, 14.20525925726721, 0.0 ], [ 78.411647943542135, 14.20558659610364, 0.0 ], [ 78.410175847922361, 14.205888374799439, 0.0 ], [ 78.410215839364412, 14.206166802651451, 0.0 ], [ 78.409786834143148, 14.20921268901825, 0.0 ], [ 78.409630174436572, 14.210770014570519, 0.0 ], [ 78.409418937746452, 14.21136248924137, 0.0 ], [ 78.40915871315454, 14.21192635251828, 0.0 ], [ 78.408986183326718, 14.212284507924609, 0.0 ], [ 78.408992740328941, 14.21228689214683, 0.0 ], [ 78.410395348298266, 14.21291135341157, 0.0 ], [ 78.412288169882061, 14.21432125370289, 0.0 ], [ 78.413411277682741, 14.21407214591426, 0.0 ], [ 78.415739856955028, 14.21577900549574, 0.0 ], [ 78.418776593803784, 14.21498986184519, 0.0 ], [ 78.420236204203874, 14.21490118550858, 0.0 ], [ 78.420774530741497, 14.214747310021011, 0.0 ], [ 78.421212108540757, 14.213138485977501, 0.0 ], [ 78.42120974552158, 14.21317987146827, 0.0 ], [ 78.422063220092568, 14.21241105153338, 0.0 ], [ 78.421481872329863, 14.211585748687209, 0.0 ], [ 78.421515176507555, 14.21161810601123, 0.0 ], [ 78.422571032498695, 14.210168092967111, 0.0 ], [ 78.429192292410704, 14.213834987531611, 0.0 ], [ 78.433167298610329, 14.2130258845499, 0.0 ], [ 78.434019761115138, 14.210865650681979, 0.0 ], [ 78.435800727449347, 14.2090505730348, 0.0 ], [ 78.436516791826477, 14.20892631192744, 0.0 ], [ 78.437709452850129, 14.20867814688757, 0.0 ], [ 78.438597158094851, 14.20886422833359, 0.0 ], [ 78.439435624916641, 14.208244996755241, 0.0 ], [ 78.439619186517518, 14.207690177553779, 0.0 ], [ 78.440508780727441, 14.207321610902209, 0.0 ], [ 78.441304096129372, 14.20315854303338, 0.0 ], [ 78.441710076993118, 14.196888709202961, 0.0 ], [ 78.443509691803072, 14.19308649498717, 0.0 ], [ 78.443547973177346, 14.192903592475741, 0.0 ], [ 78.443405416498962, 14.19135017797716, 0.0 ], [ 78.443413821326317, 14.190145991928651, 0.0 ], [ 78.446177085084258, 14.187708716071469, 0.0 ], [ 78.446837865321044, 14.181263623484099, 0.0 ], [ 78.446839682429442, 14.180586052758571, 0.0 ], [ 78.446854284190692, 14.180400647572251, 0.0 ], [ 78.446834422967228, 14.18040280298807, 0.0 ], [ 78.446604470213046, 14.178430529200091, 0.0 ], [ 78.448769076880865, 14.178377606510971, 0.0 ], [ 78.449818584330288, 14.178007465306919, 0.0 ], [ 78.45715407951964, 14.17700719351047, 0.0 ], [ 78.46262713757217, 14.176065439495311, 0.0 ], [ 78.463035240701117, 14.17837729478792, 0.0 ], [ 78.46293212111803, 14.17949323026779, 0.0 ], [ 78.461530801411229, 14.179333372025731, 0.0 ], [ 78.461112409816295, 14.17986710306182, 0.0 ], [ 78.459700494845947, 14.1794933577652, 0.0 ], [ 78.459146843547472, 14.18083256721984, 0.0 ], [ 78.457917877111612, 14.180886407129259, 0.0 ], [ 78.456996423673701, 14.18169587555435, 0.0 ], [ 78.45663887951288, 14.184260083313649, 0.0 ], [ 78.455865732391544, 14.186485119664971, 0.0 ], [ 78.455628447768945, 14.18801445713672, 0.0 ], [ 78.455480769632544, 14.18923712957433, 0.0 ], [ 78.45450823241913, 14.19627808545391, 0.0 ], [ 78.455117900549112, 14.197444044264779, 0.0 ], [ 78.457331152065791, 14.22273558719518, 0.0 ], [ 78.453624347832672, 14.230638976941091, 0.0 ], [ 78.449319670660429, 14.22918291556309, 0.0 ], [ 78.446231201801695, 14.227546209278399, 0.0 ], [ 78.444361352856589, 14.2267283757685, 0.0 ], [ 78.442122476995991, 14.227000914704011, 0.0 ], [ 78.435963253336325, 14.227182549008649, 0.0 ], [ 78.423551068966759, 14.22690969256756, 0.0 ], [ 78.418984773244631, 14.22463946481721, 0.0 ], [ 78.414125261716976, 14.22690941110935, 0.0 ], [ 78.408988000669382, 14.22647082966601, 0.0 ], [ 78.40900537294182, 14.226454647046859, 0.0 ] ] ] } }
]
}
