{
"type": "FeatureCollection",
"name": "1___104_",
"crs": { "type": "name", "properties": { "name": "urn:ogc:def:crs:OGC:1.3:CRS84" } },
"features": [
{ "type": "Feature", "properties": { "Name": "1", "description": null, "timestamp": null, "begin": null, "end": null, "altitudeMode": null, "tessellate": -1, "extrude": 0, "visibility": -1, "drawOrder": null, "icon": null }, "geometry": { "type": "Point", "coordinates": [ 78.175912555385054, 14.9800179333162, 0.0 ] } },
{ "type": "Feature", "properties": { "Name": "1", "description": null, "timestamp": null, "begin": null, "end": null, "altitudeMode": null, "tessellate": -1, "extrude": 0, "visibility": -1, "drawOrder": null, "icon": null }, "geometry": { "type": "Polygon", "coordinates": [ [ [ 78.152570684899999, 15.0120691643, 0.0 ], [ 78.145049703699996, 15.010954487299999, 0.0 ], [ 78.138692806865706, 15.00804899336014, 0.0 ], [ 78.137864324654387, 15.002260677681321, 0.0 ], [ 78.143233579122011, 14.992725763451469, 0.0 ], [ 78.147101857943909, 14.98667603356024, 0.0 ], [ 78.151890584878771, 14.981148370730949, 0.0 ], [ 78.155239323136925, 14.97910295939792, 0.0 ], [ 78.157988311373472, 14.978996061158121, 0.0 ], [ 78.159305143200001, 14.979237768799999, 0.0 ], [ 78.166400488299999, 14.962804393500001, 0.0 ], [ 78.167221515199998, 14.958992929900001, 0.0 ], [ 78.178633659, 14.957713200400001, 0.0 ], [ 78.178794246600006, 14.957713180900001, 0.0 ], [ 78.189378612200002, 14.95788874, 0.0 ], [ 78.189378612200002, 14.95788874, 0.0 ], [ 78.189378612200002, 14.95788874, 0.0 ], [ 78.18990961614881, 14.95860703047491, 0.0 ], [ 78.189957437700002, 14.9606991264, 0.0 ], [ 78.20060941881988, 14.95869590384066, 0.0 ], [ 78.202227027997708, 14.95795746056057, 0.0 ], [ 78.209235858900001, 14.9540004896, 0.0 ], [ 78.224576424299997, 14.9587846869, 0.0 ], [ 78.212250709700001, 14.979175206600001, 0.0 ], [ 78.193446494599996, 14.991972145, 0.0 ], [ 78.19189104, 14.9932120034, 0.0 ], [ 78.189505604900006, 14.994079297600001, 0.0 ], [ 78.187036195499999, 14.9934026283, 0.0 ], [ 78.182346854399995, 14.995026668, 0.0 ], [ 78.179645737499996, 14.995233822399999, 0.0 ], [ 78.176876302699995, 14.9976410847, 0.0 ], [ 78.172679927100006, 14.9998069266, 0.0 ], [ 78.152570684899999, 15.0120691643, 0.0 ] ] ] } }
]
}
