{
"type": "FeatureCollection",
"name": "1___28_",
"crs": { "type": "name", "properties": { "name": "urn:ogc:def:crs:OGC:1.3:CRS84" } },
"features": [
{ "type": "Feature", "properties": { "Name": "1", "description": null, "timestamp": null, "begin": null, "end": null, "altitudeMode": null, "tessellate": 1, "extrude": 0, "visibility": -1, "drawOrder": null, "icon": null }, "geometry": { "type": "LineString", "coordinates": [ [ 77.179385134423839, 14.34026802925654, 0.0 ], [ 77.198914763899737, 14.32711570096877, 0.0 ], [ 77.249915876000998, 14.32340464016295, 0.0 ], [ 77.248508066035498, 14.479838956099499, 0.0 ], [ 77.2134058448178, 14.48009805905345, 0.0 ], [ 77.198877459194549, 14.450234014106719, 0.0 ], [ 77.166909127160693, 14.44976592972281, 0.0 ], [ 77.16290308232935, 14.42640966774885, 0.0 ], [ 77.200100548929896, 14.3945456232504, 0.0 ], [ 77.188655080956735, 14.352050460872761, 0.0 ], [ 77.179385134423839, 14.34026802925654, 0.0 ] ] } },
{ "type": "Feature", "properties": { "Name": "1", "description": null, "timestamp": null, "begin": null, "end": null, "altitudeMode": null, "tessellate": 1, "extrude": 0, "visibility": -1, "drawOrder": null, "icon": null }, "geometry": { "type": "LineString", "coordinates": [ [ 78.089853579940609, 14.94145347875379, 0.0 ], [ 78.094664976063527, 14.931467352956149, 0.0 ], [ 78.100190604786349, 14.929696198286139, 0.0 ], [ 78.102080024833725, 14.93210605081379, 0.0 ], [ 78.106706845397028, 14.93366479770183, 0.0 ], [ 78.11415921304841, 14.930993426241621, 0.0 ], [ 78.120958539675442, 14.93185187330255, 0.0 ], [ 78.12195590135866, 14.95151253112493, 0.0 ], [ 78.113759545539111, 14.95472972185601, 0.0 ], [ 78.105405374026077, 14.95346485164025, 0.0 ], [ 78.098675763929194, 14.951443687535139, 0.0 ], [ 78.097583525023154, 14.94396314013399, 0.0 ], [ 78.089853579940609, 14.94145347875379, 0.0 ] ] } },
{ "type": "Feature", "properties": { "Name": "1", "description": null, "timestamp": null, "begin": null, "end": null, "altitudeMode": null, "tessellate": 1, "extrude": 0, "visibility": -1, "drawOrder": null, "icon": null }, "geometry": { "type": "LineString", "coordinates": [ [ 77.407762780380395, 14.47053212462837, 0.0 ], [ 77.410288801099426, 14.47591661982309, 0.0 ], [ 77.414683279984573, 14.47862857055034, 0.0 ], [ 77.419258199651168, 14.479059067981449, 0.0 ], [ 77.424140179572419, 14.478858944193741, 0.0 ], [ 77.428694729644022, 14.475314499221779, 0.0 ], [ 77.434195304555658, 14.47364899104973, 0.0 ], [ 77.438417588923798, 14.47370208253723, 0.0 ], [ 77.440305496944319, 14.47353906427985, 0.0 ], [ 77.44245256599072, 14.47145145679095, 0.0 ], [ 77.444411337690312, 14.4665320715226, 0.0 ], [ 77.444833241180575, 14.46057377997017, 0.0 ], [ 77.44891851473777, 14.452546284264271, 0.0 ], [ 77.447804757843244, 14.44914771293371, 0.0 ], [ 77.449347057354387, 14.44622882177446, 0.0 ], [ 77.447250940810648, 14.442865301688331, 0.0 ], [ 77.443506801426111, 14.440569384300559, 0.0 ], [ 77.440871951844116, 14.440282151382551, 0.0 ], [ 77.435661471067533, 14.4399310495041, 0.0 ], [ 77.434486861805766, 14.435283879776581, 0.0 ], [ 77.427855993744785, 14.433106986235909, 0.0 ], [ 77.422457243251628, 14.4335993766296, 0.0 ], [ 77.418770111654709, 14.4382025829175, 0.0 ], [ 77.414347187766523, 14.44148064472502, 0.0 ], [ 77.410310787899533, 14.44607668424905, 0.0 ], [ 77.408864916407381, 14.453083957647371, 0.0 ], [ 77.406539282961916, 14.458967027975129, 0.0 ], [ 77.407762780380395, 14.47053212462837, 0.0 ] ] } },
{ "type": "Feature", "properties": { "Name": "1", "description": null, "timestamp": null, "begin": null, "end": null, "altitudeMode": null, "tessellate": 1, "extrude": 0, "visibility": -1, "drawOrder": null, "icon": null }, "geometry": { "type": "LineString", "coordinates": [ [ 77.925512245937142, 15.40841627266013, 0.0 ], [ 77.950048137997385, 15.424317917734861, 0.0 ], [ 77.980351120312122, 15.431926513621979, 0.0 ], [ 77.999602390873406, 15.436680040908939, 0.0 ], [ 78.001047091920228, 15.46946977142963, 0.0 ], [ 78.03853355204734, 15.4695910080757, 0.0 ], [ 78.056486736238881, 15.474608664709329, 0.0 ], [ 78.068333127851787, 15.47346640197571, 0.0 ], [ 78.068717223585566, 15.47838170550239, 0.0 ], [ 78.076712497229622, 15.486097063671281, 0.0 ], [ 78.091311145925729, 15.48077902996674, 0.0 ], [ 78.083909069021587, 15.466898227270249, 0.0 ], [ 78.097766633431263, 15.459029724305349, 0.0 ], [ 78.116719289434371, 15.446052709659311, 0.0 ], [ 78.105403255677928, 15.42723453296616, 0.0 ], [ 78.079037795297978, 15.42142665082795, 0.0 ], [ 78.06088583862477, 15.407313374103939, 0.0 ], [ 78.054638292393079, 15.39508405952224, 0.0 ], [ 78.030099183572361, 15.396835307679421, 0.0 ], [ 78.029301510933337, 15.392115564517949, 0.0 ], [ 78.000076891793029, 15.384615613723369, 0.0 ], [ 77.998644720458685, 15.40629804354535, 0.0 ], [ 77.998468405168808, 15.411747752101331, 0.0 ], [ 77.959054613758113, 15.401192004741951, 0.0 ], [ 77.926284768514151, 15.40750061286535, 0.0 ], [ 77.925512245937142, 15.40841627266013, 0.0 ] ] } },
{ "type": "Feature", "properties": { "Name": "1", "description": null, "timestamp": null, "begin": null, "end": null, "altitudeMode": null, "tessellate": 1, "extrude": 0, "visibility": -1, "drawOrder": null, "icon": null }, "geometry": { "type": "LineString", "coordinates": [ [ 78.000546276764666, 15.489085486760731, 0.0 ], [ 78.004949272277116, 15.491392563871189, 0.0 ], [ 78.002437420603911, 15.49776438687525, 0.0 ], [ 78.00582005214514, 15.511022172574391, 0.0 ], [ 78.03110432069991, 15.541774436051989, 0.0 ], [ 78.046753387671288, 15.54040984203127, 0.0 ], [ 78.061931964044703, 15.530445553313459, 0.0 ], [ 78.064970742885336, 15.51863617180801, 0.0 ], [ 78.042947217440727, 15.5092248189356, 0.0 ], [ 78.037671300709349, 15.496398353464659, 0.0 ], [ 78.047025931487525, 15.496774872114541, 0.0 ], [ 78.054937263112052, 15.501857500340369, 0.0 ], [ 78.058098702999942, 15.501606250809949, 0.0 ], [ 78.058097753293197, 15.493608347884001, 0.0 ], [ 78.050726391990963, 15.49159982186343, 0.0 ], [ 78.057568313540102, 15.475066948386701, 0.0 ], [ 78.045582622423808, 15.47571544898045, 0.0 ], [ 78.040333668534586, 15.470813826257681, 0.0 ], [ 78.022167469915019, 15.47041627588078, 0.0 ], [ 78.017536487718701, 15.47280263114183, 0.0 ], [ 78.009868770259814, 15.472169800913941, 0.0 ], [ 77.986666818918295, 15.47181434466064, 0.0 ], [ 77.985439636559079, 15.480275395930651, 0.0 ], [ 77.999373600182551, 15.485394000413359, 0.0 ], [ 78.000546276764666, 15.489085486760731, 0.0 ] ] } },
{ "type": "Feature", "properties": { "Name": "1", "description": null, "timestamp": null, "begin": null, "end": null, "altitudeMode": null, "tessellate": 1, "extrude": 0, "visibility": -1, "drawOrder": null, "icon": null }, "geometry": { "type": "LineString", "coordinates": [ [ 78.413010012160314, 14.379442772494, 0.0 ], [ 78.435303450367812, 14.395650735028109, 0.0 ], [ 78.471539378337269, 14.428598526935531, 0.0 ], [ 78.483521266861828, 14.442634243212259, 0.0 ], [ 78.503569537666422, 14.466650605358719, 0.0 ], [ 78.499389645384156, 14.477449456521329, 0.0 ], [ 78.55125754990668, 14.52523516600797, 0.0 ], [ 78.593673349297049, 14.5330773801007, 0.0 ], [ 78.578868258108244, 14.516320348860949, 0.0 ], [ 78.558498236387351, 14.49444393996786, 0.0 ], [ 78.522804636605215, 14.45908949175578, 0.0 ], [ 78.497744996193092, 14.424833129179801, 0.0 ], [ 78.461804773887337, 14.392983407795651, 0.0 ], [ 78.435623350116359, 14.37462718207545, 0.0 ], [ 78.415555648456476, 14.375151836780081, 0.0 ], [ 78.413010012160314, 14.379442772494, 0.0 ] ] } },
{ "type": "Feature", "properties": { "Name": "1", "description": null, "timestamp": null, "begin": null, "end": null, "altitudeMode": null, "tessellate": 1, "extrude": 0, "visibility": -1, "drawOrder": null, "icon": null }, "geometry": { "type": "LineString", "coordinates": [ [ 77.342580924137266, 14.576188302915339, 0.0 ], [ 77.332414160181827, 14.652038309946709, 0.0 ], [ 77.33376942326673, 14.70421914343475, 0.0 ], [ 77.334070853106098, 14.75272580063379, 0.0 ], [ 77.415038695914603, 14.751106357698561, 0.0 ], [ 77.415036614609704, 14.709060450420271, 0.0 ], [ 77.383151206012769, 14.6581646750018, 0.0 ], [ 77.384914565055226, 14.58058775281042, 0.0 ], [ 77.443407944162487, 14.57985824366475, 0.0 ], [ 77.445490692233193, 14.502217127939501, 0.0 ], [ 77.382825644298862, 14.503391038513779, 0.0 ], [ 77.385615094506775, 14.55755148370825, 0.0 ], [ 77.343584629966131, 14.560495737175261, 0.0 ], [ 77.342580924137266, 14.576188302915339, 0.0 ] ] } }
]
}
