{
"type": "FeatureCollection",
"name": "1___40_",
"crs": { "type": "name", "properties": { "name": "urn:ogc:def:crs:OGC:1.3:CRS84" } },
"features": [
{ "type": "Feature", "properties": { "Name": "1", "description": null, "timestamp": null, "begin": null, "end": null, "altitudeMode": null, "tessellate": 1, "extrude": 0, "visibility": -1, "drawOrder": null, "icon": null }, "geometry": { "type": "Polygon", "coordinates": [ [ [ 77.255684394030368, 15.168350347709129, 0.0 ], [ 77.254173131948036, 15.203658123593851, 0.0 ], [ 77.248413456387297, 15.203667899897701, 0.0 ], [ 77.244774630119892, 15.26642102796799, 0.0 ], [ 77.254182123887958, 15.26678348610314, 0.0 ], [ 77.250040499394103, 15.365786000929351, 0.0 ], [ 77.132833889538659, 15.36485306438872, 0.0 ], [ 77.140654934090378, 15.17208928327446, 0.0 ], [ 77.255684394030368, 15.168350347709129, 0.0 ] ] ] } }
]
}
