{
"type": "FeatureCollection",
"name": "1___107_",
"crs": { "type": "name", "properties": { "name": "urn:ogc:def:crs:OGC:1.3:CRS84" } },
"features": [
{ "type": "Feature", "properties": { "Name": "1", "description": null, "timestamp": null, "begin": null, "end": null, "altitudeMode": null, "tessellate": 1, "extrude": 0, "visibility": -1, "drawOrder": null, "icon": null }, "geometry": { "type": "Polygon", "coordinates": [ [ [ 78.0917293417493, 14.970208531756191, 0.0 ], [ 78.090292871900118, 14.967992204082661, 0.0 ], [ 78.089967277096903, 14.965314555211741, 0.0 ], [ 78.086544003375394, 14.961343021565011, 0.0 ], [ 78.087853080381606, 14.961086208217599, 0.0 ], [ 78.08666539592862, 14.95969767058798, 0.0 ], [ 78.086912679901957, 14.956697215222199, 0.0 ], [ 78.088231912527405, 14.955585066051469, 0.0 ], [ 78.085766913769433, 14.952637825872349, 0.0 ], [ 78.088446482937798, 14.949213802549661, 0.0 ], [ 78.088468612387317, 14.949287851657539, 0.0 ], [ 78.089366869831338, 14.95017989329582, 0.0 ], [ 78.088037136410648, 14.951580814203529, 0.0 ], [ 78.087945097563164, 14.953461431728719, 0.0 ], [ 78.089646806779825, 14.95264413281603, 0.0 ], [ 78.08985806881914, 14.955245328102439, 0.0 ], [ 78.091114156054331, 14.95785632898734, 0.0 ], [ 78.091955464696795, 14.96034770199226, 0.0 ], [ 78.094044215223718, 14.960017178496461, 0.0 ], [ 78.094090522528575, 14.959499363678489, 0.0 ], [ 78.097537931847128, 14.959176220916691, 0.0 ], [ 78.097552291693091, 14.961393334932779, 0.0 ], [ 78.098941535668772, 14.96150237704364, 0.0 ], [ 78.09860879954536, 14.959285788871959, 0.0 ], [ 78.101967287924936, 14.95944418470169, 0.0 ], [ 78.101526284553728, 14.95847466868091, 0.0 ], [ 78.102372911497795, 14.957725158486101, 0.0 ], [ 78.102261432314393, 14.957114442574371, 0.0 ], [ 78.101769058977567, 14.95616166430052, 0.0 ], [ 78.100904990446907, 14.954646254764009, 0.0 ], [ 78.102169537700306, 14.954542047560359, 0.0 ], [ 78.101523522630629, 14.953589028220369, 0.0 ], [ 78.10283185363383, 14.953076875361599, 0.0 ], [ 78.104320029349878, 14.95448983636247, 0.0 ], [ 78.106426501435848, 14.9549555492674, 0.0 ], [ 78.107967702189384, 14.95615463253135, 0.0 ], [ 78.106466736191592, 14.958006468508991, 0.0 ], [ 78.104249389368135, 14.959358062416101, 0.0 ], [ 78.104284894700612, 14.96003428731713, 0.0 ], [ 78.106747193468493, 14.960466297710489, 0.0 ], [ 78.108269169259458, 14.9623127559764, 0.0 ], [ 78.109833505319827, 14.961835523578291, 0.0 ], [ 78.109941247294799, 14.960272951414391, 0.0 ], [ 78.109205864146844, 14.95913006052383, 0.0 ], [ 78.109678251774284, 14.956997538727141, 0.0 ], [ 78.109346017449425, 14.95461730453804, 0.0 ], [ 78.108488591865282, 14.95221245878068, 0.0 ], [ 78.107104135692438, 14.950308066698261, 0.0 ], [ 78.106051138274537, 14.95018239030945, 0.0 ], [ 78.104429926395312, 14.949094756709281, 0.0 ], [ 78.104860825128284, 14.94831327640788, 0.0 ], [ 78.10449677028349, 14.945644212075189, 0.0 ], [ 78.105952624439041, 14.94438887538908, 0.0 ], [ 78.107053072859472, 14.944226555732831, 0.0 ], [ 78.108545979728333, 14.94493975860034, 0.0 ], [ 78.110747626184562, 14.947007303789119, 0.0 ], [ 78.113470824866923, 14.94692064105538, 0.0 ], [ 78.113653116468328, 14.94795416135924, 0.0 ], [ 78.114039475991589, 14.94801847216403, 0.0 ], [ 78.114790920194721, 14.94668971636627, 0.0 ], [ 78.115985424040502, 14.943722740244089, 0.0 ], [ 78.115931437579619, 14.94083988781925, 0.0 ], [ 78.116220140558227, 14.93924982964788, 0.0 ], [ 78.117151695672618, 14.93797296918566, 0.0 ], [ 78.116947151543485, 14.93711028275934, 0.0 ], [ 78.117796345612589, 14.934975591815791, 0.0 ], [ 78.115221794096527, 14.93524239580861, 0.0 ], [ 78.113417904337098, 14.93701290187474, 0.0 ], [ 78.11127102874876, 14.939147794432451, 0.0 ], [ 78.109210479896433, 14.939843342899531, 0.0 ], [ 78.109056193733068, 14.938756591798301, 0.0 ], [ 78.108479073310349, 14.93848853757504, 0.0 ], [ 78.108189197883036, 14.94022534934359, 0.0 ], [ 78.107691351159218, 14.940012548628779, 0.0 ], [ 78.107138289700373, 14.937037242154711, 0.0 ], [ 78.1067048744072, 14.936700063171839, 0.0 ], [ 78.105400631455737, 14.937396104810061, 0.0 ], [ 78.105467229741009, 14.93787970910758, 0.0 ], [ 78.10457613144068, 14.937762189948421, 0.0 ], [ 78.104324037065766, 14.936957583901201, 0.0 ], [ 78.103233510163278, 14.938557671120799, 0.0 ], [ 78.103819474495054, 14.939618442293749, 0.0 ], [ 78.103569487404812, 14.940231917313859, 0.0 ], [ 78.102363111939525, 14.940620465718039, 0.0 ], [ 78.100790477490321, 14.939246186701171, 0.0 ], [ 78.10067867674104, 14.937700640589499, 0.0 ], [ 78.101388131179917, 14.936054541290121, 0.0 ], [ 78.102528767481829, 14.93499591044386, 0.0 ], [ 78.105295713184049, 14.93365745638109, 0.0 ], [ 78.109963568251743, 14.934765370288259, 0.0 ], [ 78.113410905973211, 14.93317832723806, 0.0 ], [ 78.123464324951172, 14.935144587700689, 0.0 ], [ 78.12448749901418, 14.938509812717459, 0.0 ], [ 78.126160858838503, 14.938663489385419, 0.0 ], [ 78.127986486942774, 14.93465311631275, 0.0 ], [ 78.129603799330582, 14.934650944456539, 0.0 ], [ 78.131822046576644, 14.935880817657811, 0.0 ], [ 78.134002415380138, 14.939872907739691, 0.0 ], [ 78.132359539013606, 14.94069553521898, 0.0 ], [ 78.131974560257959, 14.941941392808671, 0.0 ], [ 78.131808853930139, 14.94418879483046, 0.0 ], [ 78.133829247438712, 14.94432245388734, 0.0 ], [ 78.133908366185281, 14.942479640174961, 0.0 ], [ 78.135069469490631, 14.940936316963979, 0.0 ], [ 78.135926887988191, 14.941115008108699, 0.0 ], [ 78.136083667879134, 14.941426567607939, 0.0 ], [ 78.13694203354396, 14.942712857787511, 0.0 ], [ 78.137335900005851, 14.947381563795989, 0.0 ], [ 78.136438456199642, 14.95284356385992, 0.0 ], [ 78.134076254561364, 14.9623193963325, 0.0 ], [ 78.127268625850618, 14.96265522449723, 0.0 ], [ 78.125840543665788, 14.96368536616167, 0.0 ], [ 78.125392984973828, 14.964866264447821, 0.0 ], [ 78.122085537577078, 14.96472396464798, 0.0 ], [ 78.118946410403325, 14.96585531966246, 0.0 ], [ 78.118245842884249, 14.966287884776049, 0.0 ], [ 78.115098374660491, 14.96715956135797, 0.0 ], [ 78.112809550085885, 14.96760226113531, 0.0 ], [ 78.109168108513302, 14.96766857996735, 0.0 ], [ 78.105671916219876, 14.96737688589217, 0.0 ], [ 78.105472184120813, 14.96809117897417, 0.0 ], [ 78.097707696080477, 14.968067556744691, 0.0 ], [ 78.096629369652547, 14.969206993765679, 0.0 ], [ 78.094346137460079, 14.969184681136969, 0.0 ], [ 78.0917293417493, 14.970208531756191, 0.0 ] ] ] } }
]
}
