{
"type": "FeatureCollection",
"name": "1___5_",
"crs": { "type": "name", "properties": { "name": "urn:ogc:def:crs:OGC:1.3:CRS84" } },
"features": [
{ "type": "Feature", "properties": { "Name": "1", "description": null, "timestamp": null, "begin": null, "end": null, "altitudeMode": null, "tessellate": 1, "extrude": 0, "visibility": -1, "drawOrder": null, "icon": null }, "geometry": { "type": "Polygon", "coordinates": [ [ [ 77.658720602472911, 15.580510279823679, 0.0 ], [ 77.658322276682625, 15.480817513589701, 0.0 ], [ 77.775422951817873, 15.48100737462047, 0.0 ], [ 77.772908538940769, 15.680659508360909, 0.0 ], [ 77.588342833832627, 15.676292861223651, 0.0 ], [ 77.58773069211351, 15.58141418877322, 0.0 ], [ 77.658720602472911, 15.580510279823679, 0.0 ] ] ] } }
]
}
