{
"type": "FeatureCollection",
"name": "1___33_",
"crs": { "type": "name", "properties": { "name": "urn:ogc:def:crs:OGC:1.3:CRS84" } },
"features": [
{ "type": "Feature", "properties": { "Name": "1", "description": null, "timestamp": null, "begin": null, "end": null, "altitudeMode": null, "tessellate": 1, "extrude": 0, "visibility": -1, "drawOrder": null, "icon": null }, "geometry": { "type": "Polygon", "coordinates": [ [ [ 77.141149677138671, 14.77044073276176, 0.0 ], [ 77.153509935110549, 14.771935850573421, 0.0 ], [ 77.171041981834875, 14.73845628878272, 0.0 ], [ 77.188380747792039, 14.73918922609241, 0.0 ], [ 77.188191064803192, 14.74577138297651, 0.0 ], [ 77.204177832076681, 14.74838547827701, 0.0 ], [ 77.216651589227737, 14.749308992782939, 0.0 ], [ 77.218149197708101, 14.77124220546602, 0.0 ], [ 77.191340278066477, 14.771870957748551, 0.0 ], [ 77.195607443821544, 14.75178732927238, 0.0 ], [ 77.187415746973613, 14.750856825261669, 0.0 ], [ 77.185076070636995, 14.761247205555181, 0.0 ], [ 77.168461838349998, 14.758439913288271, 0.0 ], [ 77.167139804029219, 14.796774485738339, 0.0 ], [ 77.131890803005646, 14.794710752743219, 0.0 ], [ 77.116744966741678, 14.79281150904745, 0.0 ], [ 77.118047162160096, 14.779632419036741, 0.0 ], [ 77.085305933404257, 14.7741368434174, 0.0 ], [ 77.086380264348122, 14.768426682002749, 0.0 ], [ 77.087859225113661, 14.763669974314849, 0.0 ], [ 77.141149677138671, 14.77044073276176, 0.0 ] ] ] } },
{ "type": "Feature", "properties": { "Name": "1", "description": null, "timestamp": null, "begin": null, "end": null, "altitudeMode": null, "tessellate": -1, "extrude": 0, "visibility": -1, "drawOrder": null, "icon": null }, "geometry": { "type": "Point", "coordinates": [ 77.151627866419091, 14.78145479414021, 0.0 ] } }
]
}
