{
"type": "FeatureCollection",
"name": "1___7_",
"crs": { "type": "name", "properties": { "name": "urn:ogc:def:crs:OGC:1.3:CRS84" } },
"features": [
{ "type": "Feature", "properties": { "Name": "kml_1", "description": null, "timestamp": null, "begin": null, "end": null, "altitudeMode": null, "tessellate": -1, "extrude": 0, "visibility": -1, "drawOrder": null, "icon": null }, "geometry": { "type": "LineString", "coordinates": [ [ 77.3164643520402, 14.307385737640599, 0.0 ], [ 77.317415392567895, 14.3012144861079, 0.0 ], [ 77.320609455092296, 14.299521344416799, 0.0 ], [ 77.3211091340781, 14.3068238390671, 0.0 ], [ 77.324995697332895, 14.3175519713228, 0.0 ], [ 77.329873270747896, 14.3237456454446, 0.0 ], [ 77.334880180773396, 14.3217631064527, 0.0 ], [ 77.339961658688296, 14.3210369736736, 0.0 ], [ 77.341089851027604, 14.319513184677801, 0.0 ], [ 77.340887231541004, 14.3183989669776, 0.0 ], [ 77.342261998302504, 14.313008061723, 0.0 ], [ 77.344796654584201, 14.304122490094199, 0.0 ], [ 77.331685550331699, 14.3042577833327, 0.0 ], [ 77.3298385640433, 14.294946885954699, 0.0 ], [ 77.327164491567501, 14.2924431169437, 0.0 ], [ 77.320734221444596, 14.2910711991243, 0.0 ], [ 77.320620259888003, 14.290965365628301, 0.0 ], [ 77.317388094901503, 14.2898783108541, 0.0 ], [ 77.306547812196399, 14.2924711404813, 0.0 ], [ 77.306440298838695, 14.292470864862, 0.0 ], [ 77.297863031174003, 14.289419428423701, 0.0 ], [ 77.2961424266026, 14.292747193641, 0.0 ], [ 77.298626994345497, 14.294684254316, 0.0 ], [ 77.299577100717002, 14.299177778368399, 0.0 ], [ 77.299030495279993, 14.3052272445989, 0.0 ], [ 77.300236666475797, 14.3088075341478, 0.0 ], [ 77.303862359052204, 14.3114827733146, 0.0 ], [ 77.310361562133096, 14.3093699266334, 0.0 ], [ 77.312321629885602, 14.318345709984801, 0.0 ], [ 77.315042217522901, 14.317699088642099, 0.0 ], [ 77.314107159977496, 14.320841973620899, 0.0 ], [ 77.312473476934201, 14.327073982778099, 0.0 ], [ 77.314343069096495, 14.331638233615401, 0.0 ], [ 77.316643070560801, 14.331501758208301, 0.0 ], [ 77.325939450851706, 14.3250440865435, 0.0 ], [ 77.320230923826898, 14.317435166801101, 0.0 ], [ 77.3164643520402, 14.307385737640599, 0.0 ] ] } },
{ "type": "Feature", "properties": { "Name": "kml_5", "description": null, "timestamp": null, "begin": null, "end": null, "altitudeMode": null, "tessellate": -1, "extrude": 0, "visibility": -1, "drawOrder": null, "icon": null }, "geometry": { "type": "LineString", "coordinates": [ [ 77.274298103777497, 14.4114404057693, 0.0 ], [ 77.268196820237705, 14.4115345588712, 0.0 ], [ 77.264624022739596, 14.4107378438912, 0.0 ], [ 77.262789117518807, 14.410724318765199, 0.0 ], [ 77.259465256016099, 14.4078189753172, 0.0 ], [ 77.261272082399699, 14.3958082837772, 0.0 ], [ 77.266974845284295, 14.394816912930001, 0.0 ], [ 77.268576156922293, 14.3918465234105, 0.0 ], [ 77.273214827409703, 14.393931585236301, 0.0 ], [ 77.284226861048793, 14.3940022308332, 0.0 ], [ 77.285882885916706, 14.4071429371548, 0.0 ], [ 77.277299937330895, 14.4101991809416, 0.0 ], [ 77.274279189201906, 14.403572936493401, 0.0 ], [ 77.270984255305393, 14.4020262076449, 0.0 ], [ 77.269720726024801, 14.403422054781799, 0.0 ], [ 77.272362054380395, 14.405991065582301, 0.0 ], [ 77.274298103777497, 14.4114404057693, 0.0 ] ] } },
{ "type": "Feature", "properties": { "Name": "kml_6", "description": null, "timestamp": null, "begin": null, "end": null, "altitudeMode": null, "tessellate": -1, "extrude": 0, "visibility": -1, "drawOrder": null, "icon": null }, "geometry": { "type": "LineString", "coordinates": [ [ 77.241869409371105, 14.452367417166901, 0.0 ], [ 77.238523901804797, 14.4463022278502, 0.0 ], [ 77.238373048308205, 14.439779270286801, 0.0 ], [ 77.234294604527506, 14.433322497569, 0.0 ], [ 77.235681182084505, 14.427836873834099, 0.0 ], [ 77.237099972703305, 14.4224958776446, 0.0 ], [ 77.236229001661499, 14.4150540561167, 0.0 ], [ 77.236388638590597, 14.4108277441046, 0.0 ], [ 77.248143915687507, 14.4142106553375, 0.0 ], [ 77.248400983451901, 14.4143625777784, 0.0 ], [ 77.255876079156806, 14.417339773014801, 0.0 ], [ 77.258050679606697, 14.4196074215418, 0.0 ], [ 77.257097149840206, 14.4252400474164, 0.0 ], [ 77.264921242109807, 14.428277917947, 0.0 ], [ 77.260154446632299, 14.442570627343599, 0.0 ], [ 77.254372369024907, 14.4373589349231, 0.0 ], [ 77.251087705231001, 14.436800316459401, 0.0 ], [ 77.253034619600399, 14.4438091052475, 0.0 ], [ 77.246822857466498, 14.442968325912, 0.0 ], [ 77.248194382417097, 14.445675733272701, 0.0 ], [ 77.254551676227706, 14.4469522036356, 0.0 ], [ 77.249424336419196, 14.453563832768699, 0.0 ], [ 77.247201061385397, 14.4537829133874, 0.0 ], [ 77.241869409371105, 14.452367417166901, 0.0 ] ] } },
{ "type": "Feature", "properties": { "Name": "kml_7", "description": null, "timestamp": null, "begin": null, "end": null, "altitudeMode": null, "tessellate": -1, "extrude": 0, "visibility": -1, "drawOrder": null, "icon": null }, "geometry": { "type": "LineString", "coordinates": [ [ 77.257312903148801, 14.4960333452574, 0.0 ], [ 77.262907287901598, 14.4972428008546, 0.0 ], [ 77.263182612369505, 14.4971489929419, 0.0 ], [ 77.267576649745905, 14.4972124620397, 0.0 ], [ 77.275276889835297, 14.500232796962999, 0.0 ], [ 77.276152345928907, 14.5019062600906, 0.0 ], [ 77.271622576213801, 14.509002834537499, 0.0 ], [ 77.266057021582697, 14.5095360613696, 0.0 ], [ 77.260545467073996, 14.509106681095799, 0.0 ], [ 77.253250290506998, 14.5059141198102, 0.0 ], [ 77.2452945014374, 14.504118386529401, 0.0 ], [ 77.2439571811191, 14.4961488914516, 0.0 ], [ 77.245694325524198, 14.4927536972616, 0.0 ], [ 77.247644459335206, 14.491905721433501, 0.0 ], [ 77.257312903148801, 14.4960333452574, 0.0 ] ] } },
{ "type": "Feature", "properties": { "Name": "kml_8", "description": null, "timestamp": null, "begin": null, "end": null, "altitudeMode": null, "tessellate": -1, "extrude": 0, "visibility": -1, "drawOrder": null, "icon": null }, "geometry": { "type": "LineString", "coordinates": [ [ 77.235032949969295, 14.4857247239256, 0.0 ], [ 77.238504570407301, 14.467832690967301, 0.0 ], [ 77.249210471077504, 14.4690734292979, 0.0 ], [ 77.251078253621102, 14.461115602717401, 0.0 ], [ 77.256387562501999, 14.4579955748667, 0.0 ], [ 77.262061751137196, 14.4573690851416, 0.0 ], [ 77.262783310011599, 14.460424542843301, 0.0 ], [ 77.264575947151698, 14.460851424856299, 0.0 ], [ 77.267073241832094, 14.458941724235499, 0.0 ], [ 77.271034237340103, 14.459367474652099, 0.0 ], [ 77.276360488224995, 14.460807491430799, 0.0 ], [ 77.279856495317702, 14.463290872123499, 0.0 ], [ 77.285748694010195, 14.476562402129201, 0.0 ], [ 77.283635796241896, 14.480785830318901, 0.0 ], [ 77.274032865789707, 14.487911121646301, 0.0 ], [ 77.267521013622996, 14.4890945935572, 0.0 ], [ 77.256243931669204, 14.4876045758334, 0.0 ], [ 77.253993690046599, 14.490418618559699, 0.0 ], [ 77.243596923266495, 14.485889504938299, 0.0 ], [ 77.235032949969295, 14.4857247239256, 0.0 ] ] } }
]
}
