{
"type": "FeatureCollection",
"name": "1___13_",
"crs": { "type": "name", "properties": { "name": "urn:ogc:def:crs:OGC:1.3:CRS84" } },
"features": [
{ "type": "Feature", "properties": { "Name": "1", "description": null, "timestamp": null, "begin": null, "end": null, "altitudeMode": null, "tessellate": 1, "extrude": 0, "visibility": -1, "drawOrder": null, "icon": null }, "geometry": { "type": "Polygon", "coordinates": [ [ [ 77.630251395450372, 15.172506267799401, 0.0 ], [ 77.643999678702883, 15.172091067166869, 0.0 ], [ 77.682175962795114, 15.16241293527472, 0.0 ], [ 77.690470123848655, 15.187528429860301, 0.0 ], [ 77.677774236955628, 15.19034123920482, 0.0 ], [ 77.694141198292115, 15.20538294394072, 0.0 ], [ 77.64429789329354, 15.209278892024519, 0.0 ], [ 77.630251395450372, 15.172506267799401, 0.0 ] ] ] } },
{ "type": "Feature", "properties": { "Name": "1", "description": null, "timestamp": null, "begin": null, "end": null, "altitudeMode": null, "tessellate": 1, "extrude": 0, "visibility": -1, "drawOrder": null, "icon": null }, "geometry": { "type": "Polygon", "coordinates": [ [ [ 77.546392045877667, 15.190780029809501, 0.0 ], [ 77.546991468967832, 15.187515936653471, 0.0 ], [ 77.547393526954693, 15.185622370082219, 0.0 ], [ 77.547900393240496, 15.183922501135671, 0.0 ], [ 77.548164110564443, 15.18286067293489, 0.0 ], [ 77.548932988252133, 15.18180718596647, 0.0 ], [ 77.549569474444525, 15.180762329379551, 0.0 ], [ 77.55050871913383, 15.17819551054556, 0.0 ], [ 77.550701842080386, 15.170225510019529, 0.0 ], [ 77.57172265907019, 15.16504154416263, 0.0 ], [ 77.571544435705022, 15.16515811527724, 0.0 ], [ 77.572684267663846, 15.165480312177049, 0.0 ], [ 77.576017578989649, 15.16897947882973, 0.0 ], [ 77.576745791653636, 15.17098475075216, 0.0 ], [ 77.576492496715147, 15.172732220895821, 0.0 ], [ 77.57651034595952, 15.17488860489844, 0.0 ], [ 77.57654913618596, 15.17615345491196, 0.0 ], [ 77.577378250485978, 15.17637541916149, 0.0 ], [ 77.577040901112468, 15.17839281104418, 0.0 ], [ 77.577089152053134, 15.178535263902919, 0.0 ], [ 77.57764186183357, 15.18166989269899, 0.0 ], [ 77.577160337347067, 15.182529977633431, 0.0 ], [ 77.576640290617391, 15.194547096295651, 0.0 ], [ 77.565231799103685, 15.19666159812615, 0.0 ], [ 77.557156671752509, 15.19556266140682, 0.0 ], [ 77.549286606362983, 15.194787782450989, 0.0 ], [ 77.545470130022835, 15.19437457937858, 0.0 ], [ 77.546392045877667, 15.190780029809501, 0.0 ] ] ] } }
]
}
