{
"type": "FeatureCollection",
"name": "1___16_",
"crs": { "type": "name", "properties": { "name": "urn:ogc:def:crs:OGC:1.3:CRS84" } },
"features": [
{ "type": "Feature", "properties": { "Name": "1", "description": null, "timestamp": null, "begin": null, "end": null, "altitudeMode": null, "tessellate": -1, "extrude": 0, "visibility": -1, "drawOrder": null, "icon": null }, "geometry": { "type": "LineString", "coordinates": [ [ 78.124650389, 14.954914307, 0.0 ], [ 78.123910271603265, 14.938194027735291, 0.0 ], [ 78.12487639, 14.960610394, 0.0 ], [ 78.1235632, 14.965077258, 0.0 ], [ 78.121134662, 14.973869988, 0.0 ], [ 78.119623341, 14.978595976, 0.0 ], [ 78.123020656, 14.974311553, 0.0 ], [ 78.126070744, 14.972018754, 0.0 ], [ 78.129027561, 14.969789254, 0.0 ], [ 78.132463969, 14.973220369, 0.0 ], [ 78.135026001, 14.972140305, 0.0 ], [ 78.13404439, 14.975639777, 0.0 ], [ 78.132659737, 14.977029961, 0.0 ], [ 78.130747694, 14.979725902, 0.0 ], [ 78.130948945, 14.982000724, 0.0 ], [ 78.132965852, 14.987389358, 0.0 ], [ 78.137626753, 14.988587895, 0.0 ], [ 78.143155898, 14.990394004, 0.0 ], [ 78.143070534, 14.993429592, 0.0 ], [ 78.140689129, 14.997372169, 0.0 ], [ 78.137714216, 15.003177119, 0.0 ], [ 78.137897585, 15.006607246, 0.0 ], [ 78.139369207, 15.008976087, 0.0 ], [ 78.141430061, 15.010255364, 0.0 ], [ 78.15257225, 15.011478009, 0.0 ], [ 78.163099968, 15.007824423, 0.0 ], [ 78.173314407, 15.000899534, 0.0 ], [ 78.186307238, 14.994102483, 0.0 ], [ 78.202527522, 14.986047655, 0.0 ], [ 78.214845466, 14.979533288, 0.0 ], [ 78.227085733, 14.972147806, 0.0 ], [ 78.236383384, 14.966108994, 0.0 ], [ 78.242251731, 14.961261535, 0.0 ], [ 78.243358378, 14.953903354, 0.0 ], [ 78.240854859, 14.932915315, 0.0 ], [ 78.234514758, 14.930009628, 0.0 ], [ 78.230491304, 14.939547483, 0.0 ], [ 78.219441845, 14.938394095, 0.0 ], [ 78.217908806, 14.913105567, 0.0 ], [ 78.218317292, 14.902169815, 0.0 ], [ 78.215784396, 14.892702361, 0.0 ], [ 78.197105963, 14.919683159, 0.0 ], [ 78.201070909, 14.925025378, 0.0 ], [ 78.181918515, 14.940056456, 0.0 ], [ 78.178250515, 14.942909714, 0.0 ], [ 78.172919755, 14.947611466, 0.0 ], [ 78.16686888, 14.954264919, 0.0 ], [ 78.160568052, 14.957993442, 0.0 ], [ 78.158942246, 14.962199819, 0.0 ], [ 78.157112599, 14.963149977, 0.0 ], [ 78.152360177, 14.959781497, 0.0 ], [ 78.151367937, 14.949576159, 0.0 ], [ 78.145833216, 14.949586732, 0.0 ], [ 78.141363692, 14.949620247, 0.0 ], [ 78.136942573, 14.948827076, 0.0 ], [ 78.136821759, 14.945182668, 0.0 ], [ 78.135764983, 14.942212868, 0.0 ], [ 78.132921761, 14.937721204, 0.0 ], [ 78.130940256, 14.93499059, 0.0 ], [ 78.127171715, 14.934250927, 0.0 ], [ 78.123898057277572, 14.93814448788714, 0.0 ] ] } },
{ "type": "Feature", "properties": { "Name": "1", "description": null, "timestamp": null, "begin": null, "end": null, "altitudeMode": null, "tessellate": -1, "extrude": 0, "visibility": -1, "drawOrder": null, "icon": null }, "geometry": { "type": "LineString", "coordinates": [ [ 78.072645891, 14.961649226, 0.0 ], [ 78.077129480949807, 14.98490780451759, 0.0 ], [ 78.079298143, 14.983816166, 0.0 ], [ 78.086767904, 14.980260341, 0.0 ], [ 78.093008403, 14.976449377, 0.0 ], [ 78.091964885, 14.974446249, 0.0 ], [ 78.090539202, 14.971962487, 0.0 ], [ 78.088198069, 14.97037895, 0.0 ], [ 78.084420668, 14.968245391, 0.0 ], [ 78.086197045, 14.963883217, 0.0 ], [ 78.088658002, 14.957515616, 0.0 ], [ 78.091938974, 14.949580703, 0.0 ], [ 78.097715136, 14.946642847, 0.0 ], [ 78.097373189624847, 14.944168114675129, 0.0 ], [ 78.088925381584716, 14.94200815791681, 0.0 ], [ 78.093969033824919, 14.931011735688839, 0.0 ], [ 78.090237222, 14.92923534, 0.0 ], [ 78.087149225, 14.927371083, 0.0 ], [ 78.085443084, 14.930125859, 0.0 ], [ 78.082320694, 14.931098982, 0.0 ], [ 78.073982057, 14.927525858, 0.0 ], [ 78.072852772, 14.928913071, 0.0 ], [ 78.073626216, 14.931883715, 0.0 ], [ 78.078713079, 14.935844505, 0.0 ], [ 78.078924357642506, 14.941547011605961, 0.0 ], [ 78.082350825, 14.950974637, 0.0 ], [ 78.084355704, 14.961410094, 0.0 ], [ 78.082060364, 14.964591398, 0.0 ], [ 78.077617471, 14.965107036, 0.0 ], [ 78.074863864, 14.962074023, 0.0 ], [ 78.072645891, 14.961649226, 0.0 ] ] } }
]
}
