{
"type": "FeatureCollection",
"name": "Boundaries",
"crs": { "type": "name", "properties": { "name": "urn:ogc:def:crs:OGC:1.3:CRS84" } },
"features": [
{ "type": "Feature", "properties": { "Name": "372 Acres", "description": null, "timestamp": null, "begin": null, "end": null, "altitudeMode": null, "tessellate": 1, "extrude": 0, "visibility": -1, "drawOrder": null, "icon": null }, "geometry": { "type": "Polygon", "coordinates": [ [ [ 77.935199184455442, 15.06930359027875, 0.0 ], [ 77.932482853987096, 15.070509660085261, 0.0 ], [ 77.930569551914232, 15.071492073618749, 0.0 ], [ 77.930283103672465, 15.068463876799431, 0.0 ], [ 77.929469864586011, 15.06860802772699, 0.0 ], [ 77.928662529632291, 15.069477427726021, 0.0 ], [ 77.927860906773461, 15.070035204436509, 0.0 ], [ 77.927272273617078, 15.067451399052549, 0.0 ], [ 77.925787143176109, 15.068588238098039, 0.0 ], [ 77.925994417090067, 15.06990283480124, 0.0 ], [ 77.92515458738194, 15.070465000122271, 0.0 ], [ 77.925189248986328, 15.070705728855829, 0.0 ], [ 77.924248608651354, 15.070884935793449, 0.0 ], [ 77.923719310404977, 15.071208258751851, 0.0 ], [ 77.92352277601384, 15.069321723286571, 0.0 ], [ 77.921583894131373, 15.069725866263481, 0.0 ], [ 77.921460741546696, 15.06892315024249, 0.0 ], [ 77.921415354241589, 15.068235367806739, 0.0 ], [ 77.921406878369794, 15.067802949683109, 0.0 ], [ 77.919951520621083, 15.06800087003483, 0.0 ], [ 77.920237089048186, 15.064989687295091, 0.0 ], [ 77.92056615180482, 15.062675358461391, 0.0 ], [ 77.921666000868058, 15.062406003571169, 0.0 ], [ 77.921340980639073, 15.06461993559755, 0.0 ], [ 77.921285216346604, 15.065729876241511, 0.0 ], [ 77.924294757521835, 15.06521880025787, 0.0 ], [ 77.924159936358123, 15.066449317267461, 0.0 ], [ 77.927588191401085, 15.065745295958219, 0.0 ], [ 77.927216358069984, 15.06364863616683, 0.0 ], [ 77.92875876214444, 15.06315253983715, 0.0 ], [ 77.930098219340465, 15.06279825564234, 0.0 ], [ 77.929883064853684, 15.062156683659159, 0.0 ], [ 77.932149611084142, 15.06143287030307, 0.0 ], [ 77.93206655018885, 15.061180910700349, 0.0 ], [ 77.933219564153575, 15.0608297896867, 0.0 ], [ 77.933710964265742, 15.06265699151146, 0.0 ], [ 77.934792594820891, 15.06211036671889, 0.0 ], [ 77.935387854335602, 15.061930355095891, 0.0 ], [ 77.935946297740642, 15.06158757245055, 0.0 ], [ 77.935958089722831, 15.06175921314547, 0.0 ], [ 77.93738118069929, 15.06159453809393, 0.0 ], [ 77.938183623467964, 15.06162859680318, 0.0 ], [ 77.940157556283197, 15.061013919383569, 0.0 ], [ 77.942203864473342, 15.060906870022921, 0.0 ], [ 77.942614274511286, 15.062219997781501, 0.0 ], [ 77.941501306043719, 15.06252453731136, 0.0 ], [ 77.940370205151581, 15.0628377285444, 0.0 ], [ 77.940574518669294, 15.063793209331539, 0.0 ], [ 77.940888581510023, 15.06563633174833, 0.0 ], [ 77.940521997076758, 15.067110669632241, 0.0 ], [ 77.941016220341922, 15.068525404909559, 0.0 ], [ 77.940290675142748, 15.06935667961584, 0.0 ], [ 77.940171855523062, 15.06894569443382, 0.0 ], [ 77.938180181522199, 15.06889701357713, 0.0 ], [ 77.936274040958807, 15.06912832539191, 0.0 ], [ 77.936011693208599, 15.0648106291281, 0.0 ], [ 77.934113745155997, 15.06538952449228, 0.0 ], [ 77.934559334307224, 15.067140258740579, 0.0 ], [ 77.934898527760211, 15.068375473857969, 0.0 ], [ 77.935199184455442, 15.06930359027875, 0.0 ] ] ] } },
{ "type": "Feature", "properties": { "Name": "174 Acres", "description": null, "timestamp": null, "begin": null, "end": null, "altitudeMode": null, "tessellate": 1, "extrude": 0, "visibility": -1, "drawOrder": null, "icon": null }, "geometry": { "type": "Polygon", "coordinates": [ [ [ 77.905220541412007, 15.095777049638791, 0.0 ], [ 77.904555227419138, 15.0951791755082, 0.0 ], [ 77.903961956704819, 15.094313785639001, 0.0 ], [ 77.903066753312871, 15.09344393060459, 0.0 ], [ 77.90320494296374, 15.09272146364366, 0.0 ], [ 77.903493104930291, 15.09226292331296, 0.0 ], [ 77.90302377089705, 15.09250360214457, 0.0 ], [ 77.902536156351857, 15.092885995914751, 0.0 ], [ 77.901991228515428, 15.09360961534324, 0.0 ], [ 77.901418654007429, 15.09288135140797, 0.0 ], [ 77.899923314081107, 15.093182286571579, 0.0 ], [ 77.899033535385371, 15.094349347821661, 0.0 ], [ 77.898243500688864, 15.094518326673199, 0.0 ], [ 77.898173902915147, 15.09433183165981, 0.0 ], [ 77.897308437989082, 15.094263960161451, 0.0 ], [ 77.8970499489497, 15.093720321449689, 0.0 ], [ 77.897226139539299, 15.09329128167324, 0.0 ], [ 77.896801795066494, 15.09281253944836, 0.0 ], [ 77.89709549207879, 15.092323153646131, 0.0 ], [ 77.897466745698495, 15.09205059714508, 0.0 ], [ 77.897670652833369, 15.09123057777318, 0.0 ], [ 77.897629891937981, 15.090973110218989, 0.0 ], [ 77.899055785994179, 15.09011902803336, 0.0 ], [ 77.899040462183478, 15.0898642350776, 0.0 ], [ 77.898982366541205, 15.08969994521669, 0.0 ], [ 77.89923094899801, 15.089722587622971, 0.0 ], [ 77.899233207664579, 15.089544034673681, 0.0 ], [ 77.899571492890431, 15.08949342751807, 0.0 ], [ 77.899517569596085, 15.08884665446409, 0.0 ], [ 77.898423173777374, 15.088887557337101, 0.0 ], [ 77.898612327046209, 15.08820372754278, 0.0 ], [ 77.898764797064715, 15.088003085106861, 0.0 ], [ 77.898687473158489, 15.087417380109599, 0.0 ], [ 77.898401035279278, 15.086715135598791, 0.0 ], [ 77.899518044815281, 15.08526194297882, 0.0 ], [ 77.899461456721397, 15.08418061673656, 0.0 ], [ 77.900040587907284, 15.08306498621428, 0.0 ], [ 77.899883503137232, 15.082463881558141, 0.0 ], [ 77.899322100823355, 15.082105720078591, 0.0 ], [ 77.899656743485195, 15.080992001654989, 0.0 ], [ 77.900284808277192, 15.08089725227674, 0.0 ], [ 77.900878263310446, 15.080814814157341, 0.0 ], [ 77.901071566039775, 15.081322379338699, 0.0 ], [ 77.901530359170778, 15.08134305305256, 0.0 ], [ 77.901619539725914, 15.08087538276258, 0.0 ], [ 77.902076772517958, 15.080917786061971, 0.0 ], [ 77.902185565912831, 15.08105584278761, 0.0 ], [ 77.902049154380407, 15.08127266068232, 0.0 ], [ 77.901864333571211, 15.083180973601269, 0.0 ], [ 77.902010698550185, 15.084438436399349, 0.0 ], [ 77.901772995144285, 15.085829568841319, 0.0 ], [ 77.902168859792951, 15.086660977800779, 0.0 ], [ 77.901196833714167, 15.087124972172999, 0.0 ], [ 77.900271735199127, 15.08736832797833, 0.0 ], [ 77.900417218571675, 15.08883754964898, 0.0 ], [ 77.900476557502913, 15.089829736133851, 0.0 ], [ 77.90029155379365, 15.09076477892698, 0.0 ], [ 77.899481903672111, 15.09138395352311, 0.0 ], [ 77.899631361215327, 15.09194449169223, 0.0 ], [ 77.901138073249641, 15.091695845646569, 0.0 ], [ 77.902710027456365, 15.09162298022261, 0.0 ], [ 77.903774694720965, 15.090614456773221, 0.0 ], [ 77.903753906844486, 15.089823442642979, 0.0 ], [ 77.903807333996824, 15.088560586685951, 0.0 ], [ 77.905322678875763, 15.08728932872696, 0.0 ], [ 77.905491175630189, 15.08658735667982, 0.0 ], [ 77.905510092740641, 15.08955107993066, 0.0 ], [ 77.906919275864595, 15.08937187057605, 0.0 ], [ 77.906365725026191, 15.09241968703564, 0.0 ], [ 77.906507573996393, 15.093056487792429, 0.0 ], [ 77.90650913347352, 15.093573418811429, 0.0 ], [ 77.908286631497134, 15.092764712408369, 0.0 ], [ 77.907316384195738, 15.09618858812393, 0.0 ], [ 77.905220541412007, 15.095777049638791, 0.0 ] ] ] } },
{ "type": "Feature", "properties": { "Name": "127 Acres", "description": null, "timestamp": null, "begin": null, "end": null, "altitudeMode": null, "tessellate": 1, "extrude": 0, "visibility": -1, "drawOrder": null, "icon": null }, "geometry": { "type": "Polygon", "coordinates": [ [ [ 77.902538526843898, 15.080775374878071, 0.0 ], [ 77.902507507209123, 15.078753422705191, 0.0 ], [ 77.903363152334634, 15.078792113087539, 0.0 ], [ 77.903940545573136, 15.07773740742925, 0.0 ], [ 77.904251698756724, 15.07706381067749, 0.0 ], [ 77.905495326484967, 15.07739417904016, 0.0 ], [ 77.906459560683473, 15.07664625837239, 0.0 ], [ 77.906603001914746, 15.07638705207566, 0.0 ], [ 77.907072545677991, 15.07624868156903, 0.0 ], [ 77.907270065317462, 15.076665197375901, 0.0 ], [ 77.907458731879913, 15.07828612256189, 0.0 ], [ 77.908582718006272, 15.07876945643795, 0.0 ], [ 77.908848835558956, 15.07870826284995, 0.0 ], [ 77.909667772540004, 15.075734537965159, 0.0 ], [ 77.910689888813906, 15.075323157613751, 0.0 ], [ 77.911635012335154, 15.076879420565531, 0.0 ], [ 77.910117963653477, 15.08034976337059, 0.0 ], [ 77.91172410271669, 15.079930096609869, 0.0 ], [ 77.911509735333581, 15.080254579460959, 0.0 ], [ 77.911512053924554, 15.08028666849688, 0.0 ], [ 77.911543743516177, 15.08125074417843, 0.0 ], [ 77.911727126541678, 15.08224136407223, 0.0 ], [ 77.913463198984005, 15.081796509414231, 0.0 ], [ 77.913778726353414, 15.08399653653097, 0.0 ], [ 77.912303545528417, 15.08463063537836, 0.0 ], [ 77.911528506505974, 15.08395783197844, 0.0 ], [ 77.911363790546233, 15.083612325190259, 0.0 ], [ 77.911151907729817, 15.083323132086241, 0.0 ], [ 77.910027213901884, 15.081125277157369, 0.0 ], [ 77.909795359575668, 15.08117373808388, 0.0 ], [ 77.908442024369904, 15.08161665666324, 0.0 ], [ 77.908366185015808, 15.084015955194859, 0.0 ], [ 77.907355263276145, 15.084477998530479, 0.0 ], [ 77.907115639641901, 15.081544894103461, 0.0 ], [ 77.907531044219226, 15.080322251931371, 0.0 ], [ 77.906622072868856, 15.080784294847451, 0.0 ], [ 77.905168078455574, 15.08197065901955, 0.0 ], [ 77.905302304249119, 15.08120005490165, 0.0 ], [ 77.905420069790708, 15.08085014208976, 0.0 ], [ 77.903370938642624, 15.080932458281159, 0.0 ], [ 77.903355877132327, 15.080654896212179, 0.0 ], [ 77.903056265338961, 15.080528589402419, 0.0 ], [ 77.902538526843898, 15.080775374878071, 0.0 ] ] ] } },
{ "type": "Feature", "properties": { "Name": "103 Acres", "description": null, "timestamp": null, "begin": null, "end": null, "altitudeMode": null, "tessellate": 1, "extrude": 0, "visibility": -1, "drawOrder": null, "icon": null }, "geometry": { "type": "Polygon", "coordinates": [ [ [ 77.913817331915922, 15.08408182531568, 0.0 ], [ 77.91394606395825, 15.08439291303209, 0.0 ], [ 77.915570604146197, 15.084441030361941, 0.0 ], [ 77.915915548040033, 15.085344557618139, 0.0 ], [ 77.915291820278668, 15.085707833221999, 0.0 ], [ 77.915328665508298, 15.08669303310635, 0.0 ], [ 77.91475142511058, 15.0868043611923, 0.0 ], [ 77.915381293193221, 15.08722803480322, 0.0 ], [ 77.91337276356964, 15.086814392025531, 0.0 ], [ 77.911516302215475, 15.087714949080331, 0.0 ], [ 77.910780069370873, 15.088399272272531, 0.0 ], [ 77.909588468064157, 15.089474375591619, 0.0 ], [ 77.909336133075186, 15.0899184269805, 0.0 ], [ 77.909638164399908, 15.090322423432511, 0.0 ], [ 77.909401478853312, 15.090972320538169, 0.0 ], [ 77.908592505160598, 15.09075058569227, 0.0 ], [ 77.907984885561504, 15.089361444770161, 0.0 ], [ 77.907769265466953, 15.08870249208511, 0.0 ], [ 77.90648015448194, 15.08507829101679, 0.0 ], [ 77.90807548479026, 15.08414323032115, 0.0 ], [ 77.911159985257441, 15.083334435957021, 0.0 ], [ 77.911338437309013, 15.083632260314451, 0.0 ], [ 77.911518731168044, 15.08389312499297, 0.0 ], [ 77.912280146370122, 15.084679552205101, 0.0 ], [ 77.913817331915922, 15.08408182531568, 0.0 ] ] ] } },
{ "type": "Feature", "properties": { "Name": "12.5 Acres", "description": null, "timestamp": null, "begin": null, "end": null, "altitudeMode": null, "tessellate": 1, "extrude": 0, "visibility": -1, "drawOrder": null, "icon": null }, "geometry": { "type": "Polygon", "coordinates": [ [ [ 77.929861986713959, 15.078961029048241, 0.0 ], [ 77.930420159044559, 15.076925934360821, 0.0 ], [ 77.930707194206946, 15.07648515703754, 0.0 ], [ 77.932106015803029, 15.08035636951807, 0.0 ], [ 77.931378493703932, 15.08069846949453, 0.0 ], [ 77.931336425911397, 15.08040765465458, 0.0 ], [ 77.930897754683258, 15.079927956596521, 0.0 ], [ 77.929861986713959, 15.078961029048241, 0.0 ] ] ] } },
{ "type": "Feature", "properties": { "Name": "41.5 Acres", "description": null, "timestamp": null, "begin": null, "end": null, "altitudeMode": null, "tessellate": 1, "extrude": 0, "visibility": -1, "drawOrder": null, "icon": null }, "geometry": { "type": "Polygon", "coordinates": [ [ [ 77.931710577480843, 15.0758216917355, 0.0 ], [ 77.932580905149621, 15.07411992840429, 0.0 ], [ 77.936202275789086, 15.072753443584331, 0.0 ], [ 77.935957890907304, 15.073414692197, 0.0 ], [ 77.935421785021489, 15.0741528156847, 0.0 ], [ 77.934749354703598, 15.07587929361847, 0.0 ], [ 77.93444196282806, 15.0764792392013, 0.0 ], [ 77.933751903198427, 15.07765231496677, 0.0 ], [ 77.933329457346389, 15.07844443973659, 0.0 ], [ 77.936039763662961, 15.078326761198319, 0.0 ], [ 77.935559628864809, 15.07902207942972, 0.0 ], [ 77.932912885907683, 15.07907384033572, 0.0 ], [ 77.93293915938122, 15.078470109972731, 0.0 ], [ 77.932585461876059, 15.07822897891633, 0.0 ], [ 77.932430000996092, 15.07830317033865, 0.0 ], [ 77.931710577480843, 15.0758216917355, 0.0 ] ] ] } }
]
}
