{
"type": "FeatureCollection",
"name": "Solar",
"crs": { "type": "name", "properties": { "name": "urn:ogc:def:crs:OGC:1.3:CRS84" } },
"features": [
{ "type": "Feature", "properties": { "Name": "1", "description": null, "timestamp": null, "begin": null, "end": null, "altitudeMode": null, "tessellate": 1, "extrude": 0, "visibility": -1, "drawOrder": null, "icon": null }, "geometry": { "type": "Polygon", "coordinates": [ [ [ 78.054169800834771, 15.638004768598551, 0.0 ], [ 78.05606512515989, 15.630337061915411, 0.0 ], [ 78.059631884294319, 15.62759171549345, 0.0 ], [ 78.059401990442723, 15.623590808894461, 0.0 ], [ 78.06487715228107, 15.609989036493159, 0.0 ], [ 78.068250563564106, 15.59819415094603, 0.0 ], [ 78.076650837149458, 15.59872876936199, 0.0 ], [ 78.084352309314355, 15.6101150862621, 0.0 ], [ 78.097301213777001, 15.620378944541359, 0.0 ], [ 78.099555998268102, 15.643842348858639, 0.0 ], [ 78.083165367570189, 15.658240860908339, 0.0 ], [ 78.077350223767638, 15.66200988174308, 0.0 ], [ 78.075554914877642, 15.66100353707728, 0.0 ], [ 78.05154042189983, 15.66375397412671, 0.0 ], [ 78.038764022638503, 15.644757790411379, 0.0 ], [ 78.054169800834771, 15.638004768598551, 0.0 ] ] ] } },
{ "type": "Feature", "properties": { "Name": "1", "description": null, "timestamp": null, "begin": null, "end": null, "altitudeMode": null, "tessellate": -1, "extrude": 0, "visibility": -1, "drawOrder": null, "icon": null }, "geometry": { "type": "Polygon", "coordinates": [ [ [ 78.109863919199995, 14.716699714300001, 0.0 ], [ 78.098202369299997, 14.706145688599999, 0.0 ], [ 78.098202369299997, 14.706145688599999, 0.0 ], [ 78.088605280400003, 14.6999500061, 0.0 ], [ 78.082504739100003, 14.6914587594, 0.0 ], [ 78.092321433, 14.686135890699999, 0.0 ], [ 78.104609940200007, 14.6800106327, 0.0 ], [ 78.115138093900001, 14.688139637500001, 0.0 ], [ 78.115620111400005, 14.6887252765, 0.0 ], [ 78.1184319969, 14.690831752399999, 0.0 ], [ 78.119129252299999, 14.6908828592, 0.0 ], [ 78.119082021200001, 14.689691016899999, 0.0 ], [ 78.121447573200001, 14.6895049464, 0.0 ], [ 78.123210626, 14.689341434, 0.0 ], [ 78.123262464099994, 14.6902008226, 0.0 ], [ 78.126691196699994, 14.6900342475, 0.0 ], [ 78.127559654899997, 14.6902544316, 0.0 ], [ 78.128557281100001, 14.685927129, 0.0 ], [ 78.133361058600002, 14.6857639246, 0.0 ], [ 78.134100441399994, 14.6857156043, 0.0 ], [ 78.134392865799995, 14.6864638412, 0.0 ], [ 78.133768546200002, 14.6873655764, 0.0 ], [ 78.131419957399999, 14.691019904299999, 0.0 ], [ 78.131566672, 14.6923512495, 0.0 ], [ 78.130551871400002, 14.693105923899999, 0.0 ], [ 78.129877863499999, 14.6945197069, 0.0 ], [ 78.12935719, 14.696718664500001, 0.0 ], [ 78.125602155600006, 14.7010166345, 0.0 ], [ 78.125844711499994, 14.702382700399999, 0.0 ], [ 78.127093853, 14.7035657771, 0.0 ], [ 78.126448920300007, 14.706614630100001, 0.0 ], [ 78.125935285300002, 14.710402369500001, 0.0 ], [ 78.125048278899996, 14.7132699147, 0.0 ], [ 78.124465599800004, 14.720606029500001, 0.0 ], [ 78.124750108900002, 14.725073653700001, 0.0 ], [ 78.120768987700004, 14.7256375245, 0.0 ], [ 78.119859765100003, 14.7231924382, 0.0 ], [ 78.117718907500006, 14.7218720704, 0.0 ], [ 78.114898983800003, 14.7203747934, 0.0 ], [ 78.109863919199995, 14.716699714300001, 0.0 ] ] ] } },
{ "type": "Feature", "properties": { "Name": "1", "description": null, "timestamp": null, "begin": null, "end": null, "altitudeMode": null, "tessellate": 1, "extrude": 0, "visibility": -1, "drawOrder": null, "icon": null }, "geometry": { "type": "Polygon", "coordinates": [ [ [ 78.099268100220414, 14.87891837020759, 0.0 ], [ 78.099413755360899, 14.87933008499051, 0.0 ], [ 78.100314737322421, 14.879140564580309, 0.0 ], [ 78.101543206384719, 14.878588601363891, 0.0 ], [ 78.102308158134321, 14.877777616612191, 0.0 ], [ 78.103199000715961, 14.876453484030559, 0.0 ], [ 78.104901122843131, 14.87539453369841, 0.0 ], [ 78.105731125946036, 14.874718301384091, 0.0 ], [ 78.10631372845323, 14.875313107085001, 0.0 ], [ 78.108549905588433, 14.875386132264699, 0.0 ], [ 78.111801706054791, 14.874223308694511, 0.0 ], [ 78.111440182558695, 14.87323504193655, 0.0 ], [ 78.112155239389097, 14.87307144729915, 0.0 ], [ 78.113362225486711, 14.87127877156882, 0.0 ], [ 78.114750287224865, 14.872131202042279, 0.0 ], [ 78.115945511427284, 14.87324024298025, 0.0 ], [ 78.117230302983529, 14.875161104820579, 0.0 ], [ 78.118769181290133, 14.87765628211895, 0.0 ], [ 78.12087202801996, 14.88134438759352, 0.0 ], [ 78.122989159989217, 14.88612201706434, 0.0 ], [ 78.124804832012074, 14.88921267676894, 0.0 ], [ 78.128041393610914, 14.894328125405369, 0.0 ], [ 78.126487798816513, 14.895956917811951, 0.0 ], [ 78.12534126584346, 14.89629568924069, 0.0 ], [ 78.123508642053352, 14.89766479377205, 0.0 ], [ 78.122737940071389, 14.900538357722979, 0.0 ], [ 78.1213533697656, 14.90237764902267, 0.0 ], [ 78.121409256942329, 14.90426957916601, 0.0 ], [ 78.124274779208278, 14.909031016491729, 0.0 ], [ 78.120153603096497, 14.910273506711, 0.0 ], [ 78.117610417807896, 14.91047807429347, 0.0 ], [ 78.113121857626666, 14.909863227738599, 0.0 ], [ 78.108670864328417, 14.911675750684781, 0.0 ], [ 78.103576416789323, 14.91334413641315, 0.0 ], [ 78.101415100755489, 14.90701479221082, 0.0 ], [ 78.099752705501245, 14.90134732455182, 0.0 ], [ 78.096871616460305, 14.895111245696381, 0.0 ], [ 78.093012008001551, 14.883970276163121, 0.0 ], [ 78.094499395863537, 14.881918433440269, 0.0 ], [ 78.099268100220414, 14.87891837020759, 0.0 ] ] ] } },
{ "type": "Feature", "properties": { "Name": "1", "description": null, "timestamp": null, "begin": null, "end": null, "altitudeMode": null, "tessellate": -1, "extrude": 0, "visibility": -1, "drawOrder": null, "icon": null }, "geometry": { "type": "Polygon", "coordinates": [ [ [ 77.180952322727009, 14.64278929561762, 0.0 ], [ 77.184999760159386, 14.64328470824203, 0.0 ], [ 77.190257045617685, 14.645400310024019, 0.0 ], [ 77.193192130751697, 14.6452554317923, 0.0 ], [ 77.196362407186967, 14.64583489889187, 0.0 ], [ 77.199815518132098, 14.6479487224615, 0.0 ], [ 77.200421620174666, 14.648354536028659, 0.0 ], [ 77.20081612103084, 14.64885690616279, 0.0 ], [ 77.201731140526931, 14.65049472731995, 0.0 ], [ 77.203038298796571, 14.651496071775229, 0.0 ], [ 77.205640978210553, 14.654055361524369, 0.0 ], [ 77.210389581992004, 14.65949418731598, 0.0 ], [ 77.204123659395407, 14.669296172287639, 0.0 ], [ 77.201043699611958, 14.67479333210561, 0.0 ], [ 77.197189399103053, 14.681305725626901, 0.0 ], [ 77.193254350924676, 14.68771842829063, 0.0 ], [ 77.191343709889409, 14.68887448595444, 0.0 ], [ 77.186475164389705, 14.6987974325137, 0.0 ], [ 77.181888654989493, 14.700645720394609, 0.0 ], [ 77.179270117045917, 14.702862395581301, 0.0 ], [ 77.177442125795324, 14.70210813934907, 0.0 ], [ 77.177507089746314, 14.69700502397435, 0.0 ], [ 77.176130486523505, 14.692213748106759, 0.0 ], [ 77.176579768312976, 14.68564614262022, 0.0 ], [ 77.17768986923204, 14.67897070536451, 0.0 ], [ 77.179309053974592, 14.67217814454432, 0.0 ], [ 77.17951949246283, 14.670028886603889, 0.0 ], [ 77.179849177379936, 14.668258671913129, 0.0 ], [ 77.181129418838594, 14.665585345382439, 0.0 ], [ 77.180755413684892, 14.6626550911098, 0.0 ], [ 77.180013068139914, 14.658866602372861, 0.0 ], [ 77.180952322727009, 14.64278929561762, 0.0 ] ] ] } },
{ "type": "Feature", "properties": { "Name": "1", "description": null, "timestamp": null, "begin": null, "end": null, "altitudeMode": null, "tessellate": -1, "extrude": 0, "visibility": -1, "drawOrder": null, "icon": null }, "geometry": { "type": "MultiPolygon", "coordinates": [ [ [ [ 78.3472981258261, 14.1799043031453, 0.0 ], [ 78.3514701435479, 14.1807387066897, 0.0 ], [ 78.353695219666207, 14.1794036610187, 0.0 ], [ 78.354529623210496, 14.179848676242401, 0.0 ], [ 78.354473996307604, 14.1817956178459, 0.0 ], [ 78.359869805894405, 14.181517483331101, 0.0 ], [ 78.360314821118095, 14.1779573615418, 0.0 ], [ 78.360871090147697, 14.1761773006472, 0.0 ], [ 78.361594239886102, 14.175176016393999, 0.0 ], [ 78.362539897236402, 14.174174732140701, 0.0 ], [ 78.363652435295506, 14.173840970723001, 0.0 ], [ 78.365098734772403, 14.1743694263011, 0.0 ], [ 78.367546318502505, 14.1750091356851, 0.0 ], [ 78.367852266468802, 14.1771785849004, 0.0 ], [ 78.367351624342206, 14.179097713052499, 0.0 ], [ 78.366378153540396, 14.180238064563101, 0.0 ], [ 78.365655003802004, 14.1809055873986, 0.0 ], [ 78.368436348949899, 14.1805161990779, 0.0 ], [ 78.372274605253907, 14.1813227891707, 0.0 ], [ 78.373498397118993, 14.1812393488163, 0.0 ], [ 78.374471867920704, 14.177846107735901, 0.0 ], [ 78.373943412342598, 14.1750647625881, 0.0 ], [ 78.371885216933194, 14.1748978818792, 0.0 ], [ 78.372079911093607, 14.1740634783348, 0.0 ], [ 78.373693091279307, 14.1739522245289, 0.0 ], [ 78.373748718182298, 14.1730065671786, 0.0 ], [ 78.373331516410104, 14.1720330963769, 0.0 ], [ 78.369993902232693, 14.1705867969, 0.0 ], [ 78.367184743633302, 14.171866215668, 0.0 ], [ 78.362873658654095, 14.167749824849199, 0.0 ], [ 78.360982343953594, 14.1684173476847, 0.0 ], [ 78.360898903599093, 14.172060909828399, 0.0 ], [ 78.359869805894405, 14.174814441524701, 0.0 ], [ 78.357922864290899, 14.176260741001601, 0.0 ], [ 78.355391840206394, 14.176483248613501, 0.0 ], [ 78.355975922687406, 14.1759547930354, 0.0 ], [ 78.356337497556595, 14.1746753742674, 0.0 ], [ 78.3570606472951, 14.1735628362082, 0.0 ], [ 78.3561149899448, 14.172728432663799, 0.0 ], [ 78.356615632071396, 14.1713933869929, 0.0 ], [ 78.358117558451298, 14.169780206807101, 0.0 ], [ 78.357700356679103, 14.167833265203599, 0.0 ], [ 78.356921580037707, 14.1674995037859, 0.0 ], [ 78.356643445522906, 14.168250466975801, 0.0 ], [ 78.355558720915198, 14.1693351915835, 0.0 ], [ 78.354668690467904, 14.1695576991953, 0.0 ], [ 78.353528338957304, 14.1686954821994, 0.0 ], [ 78.353639592763201, 14.1672213692711, 0.0 ], [ 78.3535561524088, 14.1669432347563, 0.0 ], [ 78.351637024256803, 14.1669154213048, 0.0 ], [ 78.346380281927296, 14.168973616714201, 0.0 ], [ 78.344155205809002, 14.170336475836701, 0.0 ], [ 78.344544594129701, 14.1737297169171, 0.0 ], [ 78.346908737505402, 14.174091291786301, 0.0 ], [ 78.346435908830301, 14.1765110620649, 0.0 ], [ 78.347270312374604, 14.179848676242401, 0.0 ], [ 78.3472981258261, 14.1799043031453, 0.0 ] ] ] ] } },
{ "type": "Feature", "properties": { "Name": "1", "description": null, "timestamp": null, "begin": null, "end": null, "altitudeMode": null, "tessellate": -1, "extrude": 0, "visibility": -1, "drawOrder": null, "icon": null }, "geometry": { "type": "MultiPolygon", "coordinates": [ [ [ [ 78.395542295756698, 14.215832473954601, 0.0 ], [ 78.390202113072803, 14.184978085114301, 0.0 ], [ 78.391462219058312, 14.1846529421975, 0.0 ], [ 78.391697737906142, 14.185285385036609, 0.0 ], [ 78.3963636307694, 14.18867586589487, 0.0 ], [ 78.396839098418766, 14.19127713230608, 0.0 ], [ 78.399407632747469, 14.19459334691426, 0.0 ], [ 78.401409420705235, 14.197506315942769, 0.0 ], [ 78.404080331477658, 14.20066717027996, 0.0 ], [ 78.40510661829191, 14.201879065945009, 0.0 ], [ 78.405912015663105, 14.205368867770041, 0.0 ], [ 78.406561277221442, 14.20820391876347, 0.0 ], [ 78.406635965010452, 14.21006454537849, 0.0 ], [ 78.406880955813136, 14.21275225946866, 0.0 ], [ 78.407517037247189, 14.217107707576879, 0.0 ], [ 78.395542295756698, 14.215684135546701, 0.0 ], [ 78.395542295756698, 14.215832473954601, 0.0 ] ] ] ] } },
{ "type": "Feature", "properties": { "Name": "1", "description": null, "timestamp": null, "begin": null, "end": null, "altitudeMode": null, "tessellate": -1, "extrude": 0, "visibility": -1, "drawOrder": null, "icon": null }, "geometry": { "type": "MultiPolygon", "coordinates": [ [ [ [ 78.345231238713097, 14.182701727944799, 0.0 ], [ 78.341862334402705, 14.1828477485651, 0.0 ], [ 78.326647518617222, 14.179781981301719, 0.0 ], [ 78.319684967993837, 14.180080327864131, 0.0 ], [ 78.3239852384648, 14.1772468147736, 0.0 ], [ 78.324736201654702, 14.175285966444299, 0.0 ], [ 78.323776637578703, 14.173283397937899, 0.0 ], [ 78.3256957657307, 14.1723655540391, 0.0 ], [ 78.329283700971502, 14.173617159355601, 0.0 ], [ 78.332370994085593, 14.1737005997101, 0.0 ], [ 78.333038516921107, 14.1711139487225, 0.0 ], [ 78.338336979427794, 14.1732416777607, 0.0 ], [ 78.338629020668293, 14.1746184436089, 0.0 ], [ 78.341465992719094, 14.1749104848494, 0.0 ], [ 78.341048790946999, 14.176245530520401, 0.0 ], [ 78.342133515554593, 14.177330255128, 0.0 ], [ 78.343343400693996, 14.1771633744192, 0.0 ], [ 78.344010923529396, 14.1764541314064, 0.0 ], [ 78.344970487605494, 14.1762872506976, 0.0 ], [ 78.345888331504199, 14.177121654241899, 0.0 ], [ 78.346764455225795, 14.1778308972546, 0.0 ], [ 78.346806175403003, 14.1785401402673, 0.0 ], [ 78.346764455225795, 14.179124222748399, 0.0 ], [ 78.346681014871393, 14.1802089473561, 0.0 ], [ 78.345345969200395, 14.1824618369258, 0.0 ], [ 78.345231238713097, 14.182701727944799, 0.0 ] ] ] ] } },
{ "type": "Feature", "properties": { "Name": "1", "description": null, "timestamp": null, "begin": null, "end": null, "altitudeMode": null, "tessellate": 1, "extrude": 0, "visibility": -1, "drawOrder": null, "icon": null }, "geometry": { "type": "Polygon", "coordinates": [ [ [ 78.345629282019999, 14.189518047720551, 0.0 ], [ 78.342122373807115, 14.189296689154251, 0.0 ], [ 78.340006625545286, 14.18257031191607, 0.0 ], [ 78.342361979120938, 14.1828593321104, 0.0 ], [ 78.368551850085851, 14.1805693600603, 0.0 ], [ 78.380567716968656, 14.183173737624831, 0.0 ], [ 78.386140693136241, 14.21045859225671, 0.0 ], [ 78.356573816468782, 14.207234943535219, 0.0 ], [ 78.345629282019999, 14.189518047720551, 0.0 ] ] ] } },
{ "type": "Feature", "properties": { "Name": "1", "description": null, "timestamp": null, "begin": null, "end": null, "altitudeMode": null, "tessellate": 1, "extrude": 0, "visibility": -1, "drawOrder": null, "icon": null }, "geometry": { "type": "Polygon", "coordinates": [ [ [ 78.311727555246549, 14.21021302149051, 0.0 ], [ 78.326737211014148, 14.19861537032722, 0.0 ], [ 78.323544291326087, 14.18791749659761, 0.0 ], [ 78.320123602862949, 14.188559168879451, 0.0 ], [ 78.319727656589038, 14.18013465432618, 0.0 ], [ 78.326609110582268, 14.179813661491989, 0.0 ], [ 78.3399889501747, 14.182579096464689, 0.0 ], [ 78.342158165797485, 14.189216970933851, 0.0 ], [ 78.336367913284818, 14.18869471016089, 0.0 ], [ 78.329062352056738, 14.20564169861931, 0.0 ], [ 78.32214210972144, 14.210072994005531, 0.0 ], [ 78.321546857683558, 14.21527327952985, 0.0 ], [ 78.311120537250218, 14.21142294380526, 0.0 ], [ 78.311727555246549, 14.21021302149051, 0.0 ] ] ] } },
{ "type": "Feature", "properties": { "Name": "1", "description": null, "timestamp": null, "begin": null, "end": null, "altitudeMode": null, "tessellate": 1, "extrude": 0, "visibility": -1, "drawOrder": null, "icon": null }, "geometry": { "type": "LineString", "coordinates": [ [ 77.50426008930323, 14.32659380644073, 0.0 ], [ 77.498328820169618, 14.340217162280039, 0.0 ], [ 77.497774019917088, 14.350045301553401, 0.0 ], [ 77.501045878422772, 14.35604178253967, 0.0 ], [ 77.503359224716263, 14.355581623272601, 0.0 ], [ 77.503229825208024, 14.34983746925044, 0.0 ], [ 77.504864576715406, 14.350163538595931, 0.0 ], [ 77.506903153651805, 14.35319636466115, 0.0 ], [ 77.506904836991538, 14.35859216565145, 0.0 ], [ 77.514043245334932, 14.36135973841759, 0.0 ], [ 77.515636403812167, 14.36619215245096, 0.0 ], [ 77.513896675758389, 14.369369478847579, 0.0 ], [ 77.513850518205274, 14.36927849959042, 0.0 ], [ 77.510900657857064, 14.369004902149641, 0.0 ], [ 77.509972137626619, 14.37003538506797, 0.0 ], [ 77.513217371832042, 14.37850483778608, 0.0 ], [ 77.513317222267517, 14.378536739538211, 0.0 ], [ 77.515677184212535, 14.378855218392751, 0.0 ], [ 77.517807503793804, 14.38349228996643, 0.0 ], [ 77.52465701983995, 14.39130146880751, 0.0 ], [ 77.524791669258548, 14.39115863653398, 0.0 ], [ 77.52644044628866, 14.388955243551599, 0.0 ], [ 77.52303831729067, 14.38325296538126, 0.0 ], [ 77.52671374115603, 14.38096546146882, 0.0 ], [ 77.526137126574426, 14.379266128517459, 0.0 ], [ 77.52084510479618, 14.379909043957889, 0.0 ], [ 77.520391392485834, 14.37789608505215, 0.0 ], [ 77.520523543087123, 14.377832514698071, 0.0 ], [ 77.520622800280577, 14.37773719805109, 0.0 ], [ 77.534775337367179, 14.370858161002371, 0.0 ], [ 77.532423281154621, 14.368291976557479, 0.0 ], [ 77.52454767287449, 14.37127479424068, 0.0 ], [ 77.519811396794267, 14.368450186180841, 0.0 ], [ 77.520746141619242, 14.36585680589385, 0.0 ], [ 77.522558871960783, 14.364203704003369, 0.0 ], [ 77.522421971873499, 14.361478758781759, 0.0 ], [ 77.520056823078974, 14.360463063036891, 0.0 ], [ 77.518133613104183, 14.36295497725607, 0.0 ], [ 77.51628900400172, 14.35907276807129, 0.0 ], [ 77.520903705320777, 14.35761920519929, 0.0 ], [ 77.51991696802348, 14.353233309158069, 0.0 ], [ 77.517316111654111, 14.3516029926508, 0.0 ], [ 77.509810630650293, 14.349420781615169, 0.0 ], [ 77.509446175453292, 14.347807775996159, 0.0 ], [ 77.511935208208996, 14.34695217390844, 0.0 ], [ 77.512641340072207, 14.344138282152111, 0.0 ], [ 77.512899920316585, 14.3412712427708, 0.0 ], [ 77.512740100575286, 14.336244043140971, 0.0 ], [ 77.513176010261049, 14.33163677280611, 0.0 ], [ 77.514988570298101, 14.329831465645031, 0.0 ], [ 77.515642507515096, 14.32915015303746, 0.0 ], [ 77.514453200339588, 14.32061399569459, 0.0 ], [ 77.513575568840182, 14.31997936485379, 0.0 ], [ 77.512122493679882, 14.32030849057494, 0.0 ], [ 77.511579804636085, 14.32231079409507, 0.0 ], [ 77.509442129883709, 14.32307958484958, 0.0 ], [ 77.508113014240436, 14.326400539569249, 0.0 ], [ 77.504763607979925, 14.325538198950481, 0.0 ], [ 77.50426008930323, 14.32659380644073, 0.0 ] ] } }
]
}
