{
"type": "FeatureCollection",
"name": "Wind",
"crs": { "type": "name", "properties": { "name": "urn:ogc:def:crs:OGC:1.3:CRS84" } },
"features": [
{ "type": "Feature", "properties": { "Name": "1", "description": null, "timestamp": null, "begin": null, "end": null, "altitudeMode": null, "tessellate": 1, "extrude": 0, "visibility": -1, "drawOrder": null, "icon": null }, "geometry": { "type": "Polygon", "coordinates": [ [ [ 77.0878238032859, 14.45458144548164, 0.0 ], [ 77.110488842229458, 14.458598811810759, 0.0 ], [ 77.111222530584115, 14.46346539822545, 0.0 ], [ 77.189336971304783, 14.488181724145329, 0.0 ], [ 77.188176891554818, 14.49118808889575, 0.0 ], [ 77.171472494504229, 14.503371805764241, 0.0 ], [ 77.15716384458689, 14.517905982163381, 0.0 ], [ 77.145889781799198, 14.52689941826076, 0.0 ], [ 77.129780976906972, 14.5318591499221, 0.0 ], [ 77.124736575930953, 14.534696813489489, 0.0 ], [ 77.12092044608454, 14.53438980854674, 0.0 ], [ 77.123943962673394, 14.521535248144961, 0.0 ], [ 77.115513459769048, 14.51425458478764, 0.0 ], [ 77.105444646130124, 14.520678075741319, 0.0 ], [ 77.098321903664797, 14.518765599554481, 0.0 ], [ 77.098402017596555, 14.512947908376599, 0.0 ], [ 77.093174523545045, 14.50327974794191, 0.0 ], [ 77.099443105024207, 14.49303908581318, 0.0 ], [ 77.099335542633014, 14.48377428170433, 0.0 ], [ 77.08982437033707, 14.479189223566641, 0.0 ], [ 77.086563913366206, 14.47021253377298, 0.0 ], [ 77.086918038968278, 14.456055882969251, 0.0 ], [ 77.0878238032859, 14.45458144548164, 0.0 ] ] ] } },
{ "type": "Feature", "properties": { "Name": "1", "description": null, "timestamp": null, "begin": null, "end": null, "altitudeMode": null, "tessellate": 1, "extrude": 0, "visibility": -1, "drawOrder": null, "icon": null }, "geometry": { "type": "Polygon", "coordinates": [ [ [ 77.261198544272119, 15.861162586355119, 0.0 ], [ 77.275149444249521, 15.86080602339273, 0.0 ], [ 77.283020503608057, 15.709360402285959, 0.0 ], [ 77.226010424325892, 15.70567246340185, 0.0 ], [ 77.227703883056989, 15.64584141973496, 0.0 ], [ 77.403855918370127, 15.646034572939451, 0.0 ], [ 77.394374468789522, 15.688752763391481, 0.0 ], [ 77.361949039747628, 15.70410067717806, 0.0 ], [ 77.358174245061292, 15.859840390570479, 0.0 ], [ 77.510703725047819, 15.85919037782805, 0.0 ], [ 77.515609961585824, 15.92179943956204, 0.0 ], [ 77.258352211188836, 15.946273981802539, 0.0 ], [ 77.261198544272119, 15.861162586355119, 0.0 ] ] ] } },
{ "type": "Feature", "properties": { "Name": "1", "description": null, "timestamp": null, "begin": null, "end": null, "altitudeMode": null, "tessellate": 1, "extrude": 0, "visibility": -1, "drawOrder": null, "icon": null }, "geometry": { "type": "Polygon", "coordinates": [ [ [ 77.068191109385111, 15.33030611183227, 0.0 ], [ 77.100551070628455, 15.40713111473211, 0.0 ], [ 77.199280170389514, 15.40774066896808, 0.0 ], [ 77.200589315805985, 15.46691402275906, 0.0 ], [ 77.212486211944309, 15.46740425819959, 0.0 ], [ 77.358011237158024, 15.46656060654367, 0.0 ], [ 77.358450544669111, 15.51702771850932, 0.0 ], [ 77.4080233131439, 15.516381453013089, 0.0 ], [ 77.40803691927627, 15.47672358982069, 0.0 ], [ 77.482116989418884, 15.48040720716604, 0.0 ], [ 77.480898223336879, 15.533352286930921, 0.0 ], [ 77.586950916772878, 15.53724210472885, 0.0 ], [ 77.587468507685955, 15.57905971532095, 0.0 ], [ 77.656281212527347, 15.578939578005411, 0.0 ], [ 77.660959531275211, 15.47513895913797, 0.0 ], [ 77.776674266418809, 15.47439837137015, 0.0 ], [ 77.777057064456514, 15.578425755028981, 0.0 ], [ 77.725110697853225, 15.622712856696049, 0.0 ], [ 77.723967596177772, 15.688169296031051, 0.0 ], [ 77.631425055972485, 15.68768587925064, 0.0 ], [ 77.588700178435872, 15.689409223884059, 0.0 ], [ 77.584630571520137, 15.70925357762829, 0.0 ], [ 77.516088229382589, 15.709654996453001, 0.0 ], [ 77.509467659285036, 15.85761837805283, 0.0 ], [ 77.356863423166331, 15.86018592473218, 0.0 ], [ 77.361753038412857, 15.703866094882359, 0.0 ], [ 77.39440817399246, 15.689913156487529, 0.0 ], [ 77.403956149825007, 15.64513776365871, 0.0 ], [ 77.226825341560698, 15.644826900053619, 0.0 ], [ 77.226925246347761, 15.613377590970151, 0.0 ], [ 77.212016724220163, 15.613004520433099, 0.0 ], [ 77.211898162824397, 15.487634084103149, 0.0 ], [ 76.986968998889623, 15.49536153843812, 0.0 ], [ 77.068191109385111, 15.33030611183227, 0.0 ] ] ] } },
{ "type": "Feature", "properties": { "Name": "1", "description": null, "timestamp": null, "begin": null, "end": null, "altitudeMode": null, "tessellate": 1, "extrude": 0, "visibility": -1, "drawOrder": null, "icon": null }, "geometry": { "type": "Polygon", "coordinates": [ [ [ 77.901052009834729, 15.165644953428201, 0.0 ], [ 77.967698444405215, 15.24366874808126, 0.0 ], [ 78.003383834906415, 15.265739287833229, 0.0 ], [ 78.031222259070248, 15.27593182024618, 0.0 ], [ 78.075695417878677, 15.2852936737854, 0.0 ], [ 78.124078236729289, 15.30512761040182, 0.0 ], [ 78.085160609261777, 15.35399151458641, 0.0 ], [ 77.920054264107279, 15.29879969271761, 0.0 ], [ 77.868714606245376, 15.247819447618941, 0.0 ], [ 77.864741874244473, 15.1747063243597, 0.0 ], [ 77.901052009834729, 15.165644953428201, 0.0 ] ] ] } }
]
}
